{
"type": "FeatureCollection",
"name": "commute_times_regional_train__geelong",
"crs": { "type": "name", "properties": { "name": "urn:ogc:def:crs:OGC:1.3:CRS84" } },
"features": [
{ "type": "Feature", "properties": { "STOP_NAME": "Ardeer Railway Station", "minutes": 54.3, "tier": 60, "centre": "geelong", "MODE": "REGIONAL TRAIN" }, "geometry": { "type": "Point", "coordinates": [ 144.80218807, -37.78306529 ] } },
{ "type": "Feature", "properties": { "STOP_NAME": "Ardeer Station", "minutes": 51.8, "tier": 60, "centre": "geelong", "MODE": "REGIONAL TRAIN" }, "geometry": { "type": "Point", "coordinates": [ 144.80154202, -37.7830262 ] } },
{ "type": "Feature", "properties": { "STOP_NAME": "Birregurra Railway Station", "minutes": 47.0, "tier": 60, "centre": "geelong", "MODE": "REGIONAL TRAIN" }, "geometry": { "type": "Point", "coordinates": [ 143.78362521, -38.32880781 ] } },
{ "type": "Feature", "properties": { "STOP_NAME": "Birregurra Station", "minutes": 47.0, "tier": 60, "centre": "geelong", "MODE": "REGIONAL TRAIN" }, "geometry": { "type": "Point", "coordinates": [ 143.78362521, -38.32880781 ] } },
{ "type": "Feature", "properties": { "STOP_NAME": "Caroline Springs Railway Station", "minutes": 53.6, "tier": 60, "centre": "geelong", "MODE": "REGIONAL TRAIN" }, "geometry": { "type": "Point", "coordinates": [ 144.73573715, -37.76612649 ] } },
{ "type": "Feature", "properties": { "STOP_NAME": "Caroline Springs Station", "minutes": 53.6, "tier": 60, "centre": "geelong", "MODE": "REGIONAL TRAIN" }, "geometry": { "type": "Point", "coordinates": [ 144.735715559999988, -37.76609003 ] } },
{ "type": "Feature", "properties": { "STOP_NAME": "Corio Railway Station", "minutes": 10.0, "tier": 15, "centre": "geelong", "MODE": "REGIONAL TRAIN" }, "geometry": { "type": "Point", "coordinates": [ 144.37976842, -38.07283126 ] } },
{ "type": "Feature", "properties": { "STOP_NAME": "Corio Station", "minutes": 10.0, "tier": 15, "centre": "geelong", "MODE": "REGIONAL TRAIN" }, "geometry": { "type": "Point", "coordinates": [ 144.37976842, -38.07283126 ] } },
{ "type": "Feature", "properties": { "STOP_NAME": "Deer Park Railway Station", "minutes": 50.2, "tier": 60, "centre": "geelong", "MODE": "REGIONAL TRAIN" }, "geometry": { "type": "Point", "coordinates": [ 144.771080579999989, -37.77728102 ] } },
{ "type": "Feature", "properties": { "STOP_NAME": "Deer Park Station", "minutes": 47.6, "tier": 60, "centre": "geelong", "MODE": "REGIONAL TRAIN" }, "geometry": { "type": "Point", "coordinates": [ 144.770831210000011, -37.77726729 ] } },
{ "type": "Feature", "properties": { "STOP_NAME": "Geelong Railway Station ", "minutes": 1.1, "tier": 15, "centre": "geelong", "MODE": "REGIONAL TRAIN" }, "geometry": { "type": "Point", "coordinates": [ 144.3549152, -38.14470898 ] } },
{ "type": "Feature", "properties": { "STOP_NAME": "Geelong Station", "minutes": 0.0, "tier": 15, "centre": "geelong", "MODE": "REGIONAL TRAIN" }, "geometry": { "type": "Point", "coordinates": [ 144.35498911, -38.14424211 ] } },
{ "type": "Feature", "properties": { "STOP_NAME": "Lara Railway Station", "minutes": 15.0, "tier": 15, "centre": "geelong", "MODE": "REGIONAL TRAIN" }, "geometry": { "type": "Point", "coordinates": [ 144.41440429, -38.02242764 ] } },
{ "type": "Feature", "properties": { "STOP_NAME": "Lara Station", "minutes": 15.0, "tier": 15, "centre": "geelong", "MODE": "REGIONAL TRAIN" }, "geometry": { "type": "Point", "coordinates": [ 144.41440429, -38.02242764 ] } },
{ "type": "Feature", "properties": { "STOP_NAME": "Little River Railway Station", "minutes": 20.0, "tier": 30, "centre": "geelong", "MODE": "REGIONAL TRAIN" }, "geometry": { "type": "Point", "coordinates": [ 144.49848487, -37.96292909 ] } },
{ "type": "Feature", "properties": { "STOP_NAME": "Little River Station", "minutes": 20.0, "tier": 30, "centre": "geelong", "MODE": "REGIONAL TRAIN" }, "geometry": { "type": "Point", "coordinates": [ 144.49848487, -37.96292909 ] } },
{ "type": "Feature", "properties": { "STOP_NAME": "Marshall Railway Station", "minutes": 11.0, "tier": 15, "centre": "geelong", "MODE": "REGIONAL TRAIN" }, "geometry": { "type": "Point", "coordinates": [ 144.355056710000014, -38.198549 ] } },
{ "type": "Feature", "properties": { "STOP_NAME": "Marshall Station", "minutes": 11.0, "tier": 15, "centre": "geelong", "MODE": "REGIONAL TRAIN" }, "geometry": { "type": "Point", "coordinates": [ 144.355056710000014, -38.198549 ] } },
{ "type": "Feature", "properties": { "STOP_NAME": "North Geelong Railway Station", "minutes": 3.0, "tier": 15, "centre": "geelong", "MODE": "REGIONAL TRAIN" }, "geometry": { "type": "Point", "coordinates": [ 144.35231162, -38.12268295 ] } },
{ "type": "Feature", "properties": { "STOP_NAME": "North Geelong Station", "minutes": 3.0, "tier": 15, "centre": "geelong", "MODE": "REGIONAL TRAIN" }, "geometry": { "type": "Point", "coordinates": [ 144.3522719, -38.12283523 ] } },
{ "type": "Feature", "properties": { "STOP_NAME": "North Shore Railway Station", "minutes": 7.0, "tier": 15, "centre": "geelong", "MODE": "REGIONAL TRAIN" }, "geometry": { "type": "Point", "coordinates": [ 144.365321419999987, -38.09837714 ] } },
{ "type": "Feature", "properties": { "STOP_NAME": "North Shore Station", "minutes": 7.0, "tier": 15, "centre": "geelong", "MODE": "REGIONAL TRAIN" }, "geometry": { "type": "Point", "coordinates": [ 144.365321419999987, -38.09837714 ] } },
{ "type": "Feature", "properties": { "STOP_NAME": "Rockbank Railway Station", "minutes": 57.6, "tier": 60, "centre": "geelong", "MODE": "REGIONAL TRAIN" }, "geometry": { "type": "Point", "coordinates": [ 144.650631479999987, -37.72926127 ] } },
{ "type": "Feature", "properties": { "STOP_NAME": "Rockbank Station", "minutes": 57.6, "tier": 60, "centre": "geelong", "MODE": "REGIONAL TRAIN" }, "geometry": { "type": "Point", "coordinates": [ 144.650713130000014, -37.72919081 ] } },
{ "type": "Feature", "properties": { "STOP_NAME": "South Geelong Railway Station", "minutes": 6.0, "tier": 15, "centre": "geelong", "MODE": "REGIONAL TRAIN" }, "geometry": { "type": "Point", "coordinates": [ 144.35898705, -38.15865863 ] } },
{ "type": "Feature", "properties": { "STOP_NAME": "South Geelong Station", "minutes": 6.0, "tier": 15, "centre": "geelong", "MODE": "REGIONAL TRAIN" }, "geometry": { "type": "Point", "coordinates": [ 144.35898705, -38.15865863 ] } },
{ "type": "Feature", "properties": { "STOP_NAME": "Sunshine Station", "minutes": 59.4, "tier": 60, "centre": "geelong", "MODE": "REGIONAL TRAIN" }, "geometry": { "type": "Point", "coordinates": [ 144.83246381, -37.78833946 ] } },
{ "type": "Feature", "properties": { "STOP_NAME": "Tarneit Railway Station", "minutes": 40.6, "tier": 45, "centre": "geelong", "MODE": "REGIONAL TRAIN" }, "geometry": { "type": "Point", "coordinates": [ 144.69448757, -37.83215468 ] } },
{ "type": "Feature", "properties": { "STOP_NAME": "Tarneit Station", "minutes": 40.6, "tier": 45, "centre": "geelong", "MODE": "REGIONAL TRAIN" }, "geometry": { "type": "Point", "coordinates": [ 144.69471438, -37.83216813 ] } },
{ "type": "Feature", "properties": { "STOP_NAME": "Waurn Ponds Railway Station", "minutes": 15.5, "tier": 30, "centre": "geelong", "MODE": "REGIONAL TRAIN" }, "geometry": { "type": "Point", "coordinates": [ 144.306831140000014, -38.21580573 ] } },
{ "type": "Feature", "properties": { "STOP_NAME": "Waurn Ponds Station", "minutes": 17.0, "tier": 30, "centre": "geelong", "MODE": "REGIONAL TRAIN" }, "geometry": { "type": "Point", "coordinates": [ 144.3064372, -38.21595887 ] } },
{ "type": "Feature", "properties": { "STOP_NAME": "Winchelsea Railway Station", "minutes": 30.0, "tier": 30, "centre": "geelong", "MODE": "REGIONAL TRAIN" }, "geometry": { "type": "Point", "coordinates": [ 143.98413389000001, -38.24013506 ] } },
{ "type": "Feature", "properties": { "STOP_NAME": "Winchelsea Station", "minutes": 30.0, "tier": 30, "centre": "geelong", "MODE": "REGIONAL TRAIN" }, "geometry": { "type": "Point", "coordinates": [ 143.98413389000001, -38.24013506 ] } },
{ "type": "Feature", "properties": { "STOP_NAME": "Wyndham Vale Railway Station", "minutes": 31.8, "tier": 45, "centre": "geelong", "MODE": "REGIONAL TRAIN" }, "geometry": { "type": "Point", "coordinates": [ 144.60835702, -37.87252742 ] } },
{ "type": "Feature", "properties": { "STOP_NAME": "Wyndham Vale Station", "minutes": 28.0, "tier": 30, "centre": "geelong", "MODE": "REGIONAL TRAIN" }, "geometry": { "type": "Point", "coordinates": [ 144.608731909999989, -37.87288647 ] } }
]
}
