{
"type": "FeatureCollection",
"name": "commute_hulls_metro_train__southern-cross",
"crs": { "type": "name", "properties": { "name": "urn:ogc:def:crs:OGC:1.3:CRS84" } },
"features": [
{ "type": "Feature", "properties": { "MODE": "METRO TRAIN", "transit_time_minutes_nearest_tier": 60.0, "centre": "southern-cross", "centre_name": "Southern Cross" }, "geometry": { "type": "Polygon", "coordinates": [ [ [ 144.717503148639906, -37.625057330147513 ], [ 144.717700859656446, -37.624839189656441 ], [ 144.717919000147504, -37.624641478639916 ], [ 144.718155469300939, -37.624466101163094 ], [ 144.718407989789512, -37.624314746206956 ], [ 144.71867412970289, -37.624188871402467 ], [ 144.71895132596822, -37.624089688992804 ], [ 144.719236909033953, -37.624018154158797 ], [ 144.719528128579014, -37.623974955819989 ], [ 144.943011958579007, -37.598939245819984 ], [ 144.943306009999986, -37.5989248 ], [ 145.100970210000014, -37.59931503 ], [ 145.101264261420994, -37.599329475819985 ], [ 145.101555480966056, -37.599372674158793 ], [ 145.101841064031788, -37.5994442089928 ], [ 145.102118260297118, -37.599543391402463 ], [ 145.102384400210497, -37.599669266206952 ], [ 145.102636920699069, -37.59982062116309 ], [ 145.102873389852505, -37.599995998639912 ], [ 145.103091530343562, -37.600193709656438 ], [ 145.103289241360102, -37.600411850147509 ], [ 145.103464618836909, -37.600648319300944 ], [ 145.253361458836906, -37.810050029300946 ], [ 145.253512813793066, -37.810302549789526 ], [ 145.27078215379305, -37.840315849789526 ], [ 145.270908028597518, -37.840581989702905 ], [ 145.271007211007202, -37.840859185968242 ], [ 145.271049491007204, -37.840994985968237 ], [ 145.271121025841211, -37.841280569033948 ], [ 145.271164224180012, -37.84157178857901 ], [ 145.271178669999983, -37.84186584 ], [ 145.271164224180012, -37.842159891420984 ], [ 145.271121025841211, -37.842451110966046 ], [ 145.271049491007204, -37.842736694031757 ], [ 145.27095030859752, -37.843013890297094 ], [ 145.270824433793052, -37.843280030210472 ], [ 145.270673078836893, -37.843532550699052 ], [ 145.270497701360085, -37.843769019852488 ], [ 145.109692041360091, -38.03820122985249 ], [ 145.109494330343551, -38.038419370343561 ], [ 145.109276189852494, -38.038617081360087 ], [ 145.109039720699059, -38.038792458836909 ], [ 145.108787200210486, -38.038943813793047 ], [ 145.108521060297107, -38.039069688597536 ], [ 145.108243864031778, -38.039168871007199 ], [ 145.107958280966045, -38.039240405841205 ], [ 145.107667061420983, -38.039283604180014 ], [ 145.10737301, -38.03929805 ], [ 145.107078958579024, -38.039283604180014 ], [ 145.106787739033962, -38.039240405841205 ], [ 145.106502155968229, -38.039168871007199 ], [ 145.106224959702899, -38.039069688597536 ], [ 145.105958819789521, -38.038943813793047 ], [ 145.105706299300948, -38.038792458836909 ], [ 145.105469830147513, -38.038617081360087 ], [ 145.105251689656455, -38.038419370343561 ], [ 145.105053978639916, -38.03820122985249 ], [ 145.002894649300941, -37.952824588836911 ], [ 145.002658180147506, -37.95264921136009 ], [ 145.002440039656449, -37.952451500343564 ], [ 144.82914591857903, -37.870138384180017 ], [ 144.701895090297114, -37.886151888597539 ], [ 144.701617894031784, -37.886251071007202 ], [ 144.66230091021049, -37.902145363793046 ], [ 144.662034770297112, -37.902271238597535 ], [ 144.661757574031782, -37.902370421007198 ], [ 144.661471990966049, -37.902441955841205 ], [ 144.661180771420987, -37.902485154180013 ], [ 144.66088672, -37.9024996 ], [ 144.660592668579028, -37.902485154180013 ], [ 144.660301449033966, -37.902441955841205 ], [ 144.660015865968234, -37.902370421007198 ], [ 144.659738669702904, -37.902271238597535 ], [ 144.659472529789525, -37.902145363793046 ], [ 144.659220009300952, -37.901994008836908 ], [ 144.658983540147517, -37.901818631360086 ], [ 144.65876539965646, -37.901620920343561 ], [ 144.65856768863992, -37.901402779852489 ], [ 144.658392311163112, -37.901166310699054 ], [ 144.658240956206953, -37.900913790210474 ], [ 144.658115081402485, -37.900647650297095 ], [ 144.658015898992801, -37.900370454031759 ], [ 144.657944364158794, -37.900084870966047 ], [ 144.657901165819993, -37.899793651420985 ], [ 144.657886720000022, -37.8994996 ], [ 144.657901165819993, -37.899205548579012 ], [ 144.657944364158794, -37.89891432903395 ], [ 144.716879824158781, -37.626375239033955 ], [ 144.716951358992787, -37.626089655968244 ], [ 144.717050541402472, -37.625812459702907 ], [ 144.717176416206939, -37.625546319789528 ], [ 144.717327771163099, -37.625293799300948 ], [ 144.717503148639906, -37.625057330147513 ] ] ] } },
{ "type": "Feature", "properties": { "MODE": "METRO TRAIN", "transit_time_minutes_nearest_tier": 45.0, "centre": "southern-cross", "centre_name": "Southern Cross" }, "geometry": { "type": "Polygon", "coordinates": [ [ [ 144.791419038639901, -37.727376160147507 ], [ 144.791616749656441, -37.727158019656436 ], [ 144.791834890147499, -37.72696030863991 ], [ 144.792071359300934, -37.726784931163088 ], [ 144.792323879789507, -37.72663357620695 ], [ 144.792590019702885, -37.726507701402461 ], [ 144.945480649702887, -37.662817571402464 ], [ 144.945757845968217, -37.662718388992801 ], [ 144.946043429033949, -37.662646854158794 ], [ 145.030494069033949, -37.649235484158794 ], [ 145.030785288579011, -37.649192285819986 ], [ 145.066718518579023, -37.646064775819987 ], [ 145.06701257, -37.64605033 ], [ 145.06809051, -37.6460049 ], [ 145.06838456142097, -37.646019345819987 ], [ 145.068675780966032, -37.646062544158795 ], [ 145.068961364031765, -37.646134078992802 ], [ 145.069238560297094, -37.646233261402465 ], [ 145.069504700210473, -37.646359136206954 ], [ 145.069757220699046, -37.646510491163092 ], [ 145.069993689852481, -37.646685868639914 ], [ 145.070211830343538, -37.646883579656439 ], [ 145.070409541360078, -37.647101720147511 ], [ 145.070584918836886, -37.647338189300946 ], [ 145.177385908836897, -37.818945469300942 ], [ 145.177537263793056, -37.819197989789522 ], [ 145.177663138597524, -37.819464129702901 ], [ 145.177762321007208, -37.819741325968238 ], [ 145.177833855841214, -37.820026909033949 ], [ 145.177877054180016, -37.820318128579011 ], [ 145.177891499999987, -37.82061218 ], [ 145.177877054180016, -37.820906231420985 ], [ 145.177833855841214, -37.821197450966046 ], [ 145.177762321007208, -37.821483034031758 ], [ 145.177663138597524, -37.821760230297095 ], [ 145.177537263793056, -37.822026370210473 ], [ 145.177385908836897, -37.822278890699053 ], [ 145.177210531360089, -37.822515359852488 ], [ 145.130418131360074, -37.87724022985249 ], [ 145.130220420343534, -37.877458370343561 ], [ 145.051380300343538, -37.961248800343562 ], [ 145.051162159852481, -37.961446511360087 ], [ 145.050925690699046, -37.961621888836909 ], [ 145.050673170210473, -37.961773243793047 ], [ 145.050407030297094, -37.961899118597536 ], [ 145.050129834031765, -37.961998301007199 ], [ 145.049844250966032, -37.962069835841206 ], [ 145.04955303142097, -37.962113034180014 ], [ 145.04925898, -37.96212748 ], [ 145.048964928579011, -37.962113034180014 ], [ 145.048673709033949, -37.962069835841206 ], [ 145.003976089033955, -37.953272535841208 ], [ 145.003690505968223, -37.953201001007201 ], [ 145.003413309702893, -37.953101818597538 ], [ 145.003147169789514, -37.952975943793049 ], [ 145.002894649300941, -37.952824588836911 ], [ 145.002658180147506, -37.95264921136009 ], [ 145.002440039656449, -37.952451500343564 ], [ 144.82914591857903, -37.870138384180017 ], [ 144.701895090297114, -37.886151888597539 ], [ 144.701617894031784, -37.886251071007202 ], [ 144.66230091021049, -37.902145363793046 ], [ 144.662034770297112, -37.902271238597535 ], [ 144.661757574031782, -37.902370421007198 ], [ 144.661471990966049, -37.902441955841205 ], [ 144.661180771420987, -37.902485154180013 ], [ 144.66088672, -37.9024996 ], [ 144.660592668579028, -37.902485154180013 ], [ 144.660301449033966, -37.902441955841205 ], [ 144.660015865968234, -37.902370421007198 ], [ 144.659738669702904, -37.902271238597535 ], [ 144.659472529789525, -37.902145363793046 ], [ 144.659220009300952, -37.901994008836908 ], [ 144.658983540147517, -37.901818631360086 ], [ 144.65876539965646, -37.901620920343561 ], [ 144.65856768863992, -37.901402779852489 ], [ 144.658392311163112, -37.901166310699054 ], [ 144.658240956206953, -37.900913790210474 ], [ 144.658115081402485, -37.900647650297095 ], [ 144.658015898992801, -37.900370454031759 ], [ 144.657944364158794, -37.900084870966047 ], [ 144.657901165819993, -37.899793651420985 ], [ 144.657886720000022, -37.8994996 ], [ 144.657901165819993, -37.899205548579012 ], [ 144.657944364158794, -37.89891432903395 ], [ 144.658015898992801, -37.898628745968239 ], [ 144.658115081402485, -37.898351549702902 ], [ 144.658240956206953, -37.898085409789523 ], [ 144.658392311163112, -37.897832889300943 ], [ 144.65856768863992, -37.897596420147508 ], [ 144.791419038639901, -37.727376160147507 ] ] ] } },
{ "type": "Feature", "properties": { "MODE": "METRO TRAIN", "transit_time_minutes_nearest_tier": 30.0, "centre": "southern-cross", "centre_name": "Southern Cross" }, "geometry": { "type": "Polygon", "coordinates": [ [ [ 144.830467028639902, -37.786289020147507 ], [ 144.830664739656441, -37.786070879656435 ], [ 144.830882880147499, -37.78587316863991 ], [ 144.831119349300934, -37.785697791163088 ], [ 144.831371869789507, -37.78554643620695 ], [ 144.831638009702885, -37.785420561402461 ], [ 144.919790629702902, -37.744438211402461 ], [ 144.920067825968232, -37.744339028992798 ], [ 144.961896245968234, -37.730019928992803 ], [ 144.962181829033966, -37.729948394158797 ], [ 144.962473048579028, -37.729905195819988 ], [ 145.002343138579022, -37.725387885819984 ], [ 145.00263719, -37.72537344 ], [ 145.002931241420981, -37.725387885819984 ], [ 145.003222460966043, -37.725431084158792 ], [ 145.003357830966053, -37.725460414158796 ], [ 145.003643414031785, -37.725531948992803 ], [ 145.00394769403178, -37.7256091989928 ], [ 145.00422489029711, -37.725708381402463 ], [ 145.004491030210488, -37.725834256206952 ], [ 145.004743550699061, -37.72598561116309 ], [ 145.055609400699069, -37.761091121163091 ], [ 145.055845869852504, -37.761266498639912 ], [ 145.056064010343562, -37.761464209656438 ], [ 145.056261721360102, -37.76168235014751 ], [ 145.056437098836909, -37.761918819300945 ], [ 145.056588453793069, -37.762171339789525 ], [ 145.056714328597536, -37.762437479702903 ], [ 145.056813511007221, -37.76271467596824 ], [ 145.056885045841227, -37.763000259033952 ], [ 145.071190795841204, -37.825255799033954 ], [ 145.071233994180005, -37.825547018579016 ], [ 145.071248439999977, -37.82584107 ], [ 145.071233994180005, -37.82613512142099 ], [ 145.071190795841204, -37.826426340966051 ], [ 145.061662805841223, -37.886919270966047 ], [ 145.061591271007217, -37.887204854031758 ], [ 145.061492088597532, -37.887482050297095 ], [ 145.061366213793065, -37.887748190210473 ], [ 145.061214858836905, -37.888000710699053 ], [ 145.061039481360098, -37.888237179852489 ], [ 145.060841770343558, -37.88845532034356 ], [ 145.041492680343538, -37.906311240343562 ], [ 145.041274539852481, -37.906508951360088 ], [ 145.041038070699045, -37.90668432883691 ], [ 145.040785550210472, -37.906835683793048 ], [ 145.040519410297094, -37.906961558597537 ], [ 145.040242214031764, -37.9070607410072 ], [ 145.039956630966032, -37.907132275841207 ], [ 145.03966541142097, -37.907175474180015 ], [ 145.03937136, -37.90718992 ], [ 145.03907730857901, -37.907175474180015 ], [ 145.038786089033948, -37.907132275841207 ], [ 145.003583159033951, -37.899637435841207 ], [ 145.003297575968219, -37.8995659010072 ], [ 145.003020379702889, -37.899466718597537 ], [ 145.00275423978951, -37.899340843793048 ], [ 144.90502925857902, -37.870738474180015 ], [ 144.841251781420993, -37.870827864180015 ], [ 144.840957730000014, -37.87084231 ], [ 144.840663678579034, -37.870827864180015 ], [ 144.77261667, -37.86669404 ], [ 144.772322618579011, -37.866679594180013 ], [ 144.772031399033949, -37.866636395841205 ], [ 144.771745815968217, -37.866564861007198 ], [ 144.771468619702887, -37.866465678597535 ], [ 144.771202479789508, -37.866339803793046 ], [ 144.770949959300935, -37.866188448836908 ], [ 144.7707134901475, -37.866013071360086 ], [ 144.770495349656443, -37.865815360343561 ], [ 144.770297638639903, -37.865597219852489 ], [ 144.770122261163095, -37.865360750699054 ], [ 144.769970906206936, -37.865108230210474 ], [ 144.769845031402468, -37.864842090297095 ], [ 144.769745848992784, -37.864564894031759 ], [ 144.769674314158777, -37.864279310966047 ], [ 144.769631115819976, -37.863988091420985 ], [ 144.76961667, -37.86369404 ], [ 144.769631115819976, -37.863399988579012 ], [ 144.769674314158777, -37.86310876903395 ], [ 144.769745848992784, -37.862823185968239 ], [ 144.769845031402468, -37.862545989702902 ], [ 144.769970906206936, -37.862279849789523 ], [ 144.770122261163095, -37.862027329300943 ], [ 144.770297638639903, -37.861790860147508 ], [ 144.830467028639902, -37.786289020147507 ] ] ] } },
{ "type": "Feature", "properties": { "MODE": "METRO TRAIN", "transit_time_minutes_nearest_tier": 15.0, "centre": "southern-cross", "centre_name": "Southern Cross" }, "geometry": { "type": "Polygon", "coordinates": [ [ [ 144.899701028639925, -37.799510250147506 ], [ 144.899898739656464, -37.799292109656434 ], [ 144.900116880147522, -37.799094398639909 ], [ 144.900353349300957, -37.798919021163087 ], [ 144.900631139300941, -37.798734731163087 ], [ 144.900883659789514, -37.798583376206949 ], [ 144.927564279789522, -37.784681906206956 ], [ 144.9278304197029, -37.784556031402467 ], [ 144.92810761596823, -37.784456848992804 ], [ 144.951430415968218, -37.778322108992803 ], [ 144.951715999033951, -37.778250574158797 ], [ 144.952007218579013, -37.778207375819989 ], [ 144.95230127, -37.77819293 ], [ 144.952595321420972, -37.778207375819989 ], [ 144.952886540966034, -37.778250574158797 ], [ 144.953172124031767, -37.778322108992803 ], [ 144.953449320297096, -37.778421291402466 ], [ 144.995743740297115, -37.796091251402466 ], [ 144.996009880210494, -37.796217126206955 ], [ 144.996262400699067, -37.796368481163093 ], [ 144.996498869852502, -37.796543858639915 ], [ 144.996717010343559, -37.79674156965644 ], [ 144.996914721360099, -37.796959710147512 ], [ 144.997090098836907, -37.797196179300947 ], [ 144.997241453793066, -37.797448699789527 ], [ 144.997367328597534, -37.797714839702905 ], [ 145.022097178597534, -37.855304329702903 ], [ 145.022196361007218, -37.85558152596824 ], [ 145.022267895841225, -37.855867109033952 ], [ 145.022311094180026, -37.856158328579014 ], [ 145.02232554, -37.85645238 ], [ 145.022311094180026, -37.856746431420987 ], [ 145.022267895841225, -37.857037650966049 ], [ 145.022196361007218, -37.85732323403176 ], [ 145.022097178597534, -37.857600430297097 ], [ 145.021971303793066, -37.857866570210476 ], [ 145.021819948836907, -37.858119090699056 ], [ 145.021644571360099, -37.858355559852491 ], [ 145.021446860343559, -37.858573700343563 ], [ 145.021228719852502, -37.858771411360088 ], [ 145.020992250699067, -37.85894678883691 ], [ 145.020739730210494, -37.859098143793048 ], [ 145.020473590297115, -37.859224018597537 ], [ 145.020196394031785, -37.8593232010072 ], [ 145.019910810966053, -37.859394735841207 ], [ 145.019619591420991, -37.859437934180015 ], [ 145.019325540000011, -37.85945238 ], [ 145.019031488579031, -37.859437934180015 ], [ 145.01874026903397, -37.859394735841207 ], [ 145.018454685968237, -37.8593232010072 ], [ 145.018177489702907, -37.859224018597537 ], [ 145.017911349789529, -37.859098143793048 ], [ 145.017564459789526, -37.858894053793051 ], [ 145.017311939300953, -37.858742698836913 ], [ 145.017075470147518, -37.858567321360091 ], [ 145.000142049300933, -37.847223818836909 ], [ 144.990675499300949, -37.840943758836907 ], [ 144.951906205968214, -37.821533921007202 ], [ 144.89051898096605, -37.818792795841205 ], [ 144.890227761420988, -37.818835994180013 ], [ 144.88993371, -37.81885044 ], [ 144.889639658579028, -37.818835994180013 ], [ 144.889348439033967, -37.818792795841205 ], [ 144.889062855968234, -37.818721261007198 ], [ 144.888785659702904, -37.818622078597535 ], [ 144.888519519789526, -37.818496203793046 ], [ 144.888266999300953, -37.818344848836908 ], [ 144.888030530147518, -37.818169471360086 ], [ 144.88781238965646, -37.817971760343561 ], [ 144.88761467863992, -37.817753619852489 ], [ 144.887439301163113, -37.817517150699054 ], [ 144.887287946206953, -37.817264630210474 ], [ 144.887162071402486, -37.816998490297095 ], [ 144.887062888992801, -37.816721294031758 ], [ 144.886991354158795, -37.816435710966047 ], [ 144.886972234158776, -37.816309210966047 ], [ 144.886929035819975, -37.816017991420985 ], [ 144.88691459, -37.81572394 ], [ 144.886929035819975, -37.815429888579011 ], [ 144.886972234158776, -37.815138669033949 ], [ 144.887043768992783, -37.814853085968238 ], [ 144.887142951402467, -37.814575889702901 ], [ 144.887268826206935, -37.814309749789523 ], [ 144.887420181163094, -37.814057229300943 ], [ 144.887595558639902, -37.813820760147507 ], [ 144.893284678639901, -37.807091730147512 ], [ 144.899701028639925, -37.799510250147506 ] ] ] } }
]
}
