{
"type": "FeatureCollection",
"name": "commute_mst_regional_train__geelong",
"crs": { "type": "name", "properties": { "name": "urn:ogc:def:crs:OGC:1.3:CRS84" } },
"features": [
{ "type": "Feature", "properties": { "from_stop": "Ardeer Station", "to_stop": "Ardeer Railway Station", "minutes": 48.1, "tier": 60, "centre": "geelong", "MODE": "REGIONAL TRAIN" }, "geometry": { "type": "LineString", "coordinates": [ [ 144.802185551246623, -37.783099832903403 ], [ 144.801540082786829, -37.783052767494873 ] ] } },
{ "type": "Feature", "properties": { "from_stop": "Deer Park Railway Station", "to_stop": "Ardeer Station", "minutes": 48.0, "tier": 60, "centre": "geelong", "MODE": "REGIONAL TRAIN" }, "geometry": { "type": "LineString", "coordinates": [ [ 144.771068834323756, -37.777322930903082 ], [ 144.77122312, -37.77736617 ], [ 144.772064660000012, -37.77759594 ], [ 144.77332771, -37.77795992 ], [ 144.77628605000001, -37.77878792 ], [ 144.776805309999986, -37.77893749 ], [ 144.77794032, -37.77924151 ], [ 144.77991517000001, -37.77987577 ], [ 144.781565230000012, -37.78039988 ], [ 144.78233427, -37.78061506 ], [ 144.78261457, -37.78068819 ], [ 144.78302631, -37.78078939 ], [ 144.783677430000012, -37.78094259 ], [ 144.78428157, -37.78106822 ], [ 144.78471878, -37.78114926 ], [ 144.78506006, -37.78120713 ], [ 144.78578576000001, -37.78131522 ], [ 144.78674195, -37.78143493 ], [ 144.78933565, -37.78170308 ], [ 144.79054002, -37.78183129 ], [ 144.79439176, -37.78222646 ], [ 144.79627125, -37.78242836 ], [ 144.79687146, -37.7824851 ], [ 144.79894622, -37.7827226 ], [ 144.800086060000012, -37.78288051 ], [ 144.800857330000014, -37.78298116 ], [ 144.801538060000013, -37.78305262 ], [ 144.801540082786829, -37.783052767494873 ] ] } },
{ "type": "Feature", "properties": { "from_stop": "Winchelsea Station", "to_stop": "Birregurra Railway Station", "minutes": 48.3, "tier": 60, "centre": "geelong", "MODE": "REGIONAL TRAIN" }, "geometry": { "type": "LineString", "coordinates": [ [ 143.984052293088979, -38.239969875396888 ], [ 143.9840221, -38.23998479 ], [ 143.98371866, -38.24013465 ], [ 143.98205228, -38.24099418 ], [ 143.980617919999986, -38.24175883 ], [ 143.979948220000011, -38.24207161 ], [ 143.97780595, -38.24296954 ], [ 143.97689864, -38.24327869 ], [ 143.97570013, -38.2436015 ], [ 143.95780302, -38.24849604 ], [ 143.91284345, -38.26083359 ], [ 143.91250075, -38.26093907 ], [ 143.91060457, -38.2615523 ], [ 143.83886838, -38.28665896 ], [ 143.83683585, -38.28733441 ], [ 143.83575832, -38.28778101 ], [ 143.834947199999988, -38.2882466 ], [ 143.83414806, -38.28883584 ], [ 143.833698410000011, -38.28917929 ], [ 143.81232147, -38.3051242 ], [ 143.80167085, -38.31301123 ], [ 143.79994245, -38.31440353 ], [ 143.79883401, -38.31544435 ], [ 143.79805264, -38.31632823 ], [ 143.79052196, -38.32597033 ], [ 143.789771, -38.3267222 ], [ 143.789162159999989, -38.32716408 ], [ 143.78834465, -38.32765123 ], [ 143.78785055, -38.32786399 ], [ 143.78727061, -38.32807836 ], [ 143.78675625, -38.32822687 ], [ 143.78622195, -38.32834519 ], [ 143.7857091, -38.32842851 ], [ 143.78528639000001, -38.32848277 ], [ 143.783610540343801, -38.328688052274103 ] ] } },
{ "type": "Feature", "properties": { "from_stop": "Winchelsea Railway Station", "to_stop": "Birregurra Station", "minutes": 48.3, "tier": 60, "centre": "geelong", "MODE": "REGIONAL TRAIN" }, "geometry": { "type": "LineString", "coordinates": [ [ 143.783610540343801, -38.328688052274103 ], [ 143.78528639000001, -38.32848277 ], [ 143.7857091, -38.32842851 ], [ 143.78622195, -38.32834519 ], [ 143.78675625, -38.32822687 ], [ 143.78727061, -38.32807836 ], [ 143.78785055, -38.32786399 ], [ 143.78834465, -38.32765123 ], [ 143.789162159999989, -38.32716408 ], [ 143.789771, -38.3267222 ], [ 143.79052196, -38.32597033 ], [ 143.79805264, -38.31632823 ], [ 143.79883401, -38.31544435 ], [ 143.79994245, -38.31440353 ], [ 143.80167085, -38.31301123 ], [ 143.81232147, -38.3051242 ], [ 143.833698410000011, -38.28917929 ], [ 143.83414806, -38.28883584 ], [ 143.834947199999988, -38.2882466 ], [ 143.83575832, -38.28778101 ], [ 143.83683585, -38.28733441 ], [ 143.83886838, -38.28665896 ], [ 143.91060457, -38.2615523 ], [ 143.91250075, -38.26093907 ], [ 143.91284345, -38.26083359 ], [ 143.95780302, -38.24849604 ], [ 143.97570013, -38.2436015 ], [ 143.97689864, -38.24327869 ], [ 143.97780595, -38.24296954 ], [ 143.979948220000011, -38.24207161 ], [ 143.980617919999986, -38.24175883 ], [ 143.98205228, -38.24099418 ], [ 143.98371866, -38.24013465 ], [ 143.9840221, -38.23998479 ], [ 143.984052293088979, -38.239969875396888 ] ] } },
{ "type": "Feature", "properties": { "from_stop": "Deer Park Station", "to_stop": "Caroline Springs Railway Station", "minutes": 51.7, "tier": 60, "centre": "geelong", "MODE": "REGIONAL TRAIN" }, "geometry": { "type": "LineString", "coordinates": [ [ 144.735724772169078, -37.766154926730032 ], [ 144.73813819, -37.76720543 ], [ 144.73851099, -37.7673729 ], [ 144.73946009, -37.76778366 ], [ 144.740656269999988, -37.76832009 ], [ 144.742245849999989, -37.76901174 ], [ 144.74344579000001, -37.76952649 ], [ 144.74417706, -37.76981526 ], [ 144.744869060000013, -37.77007399 ], [ 144.745416299999988, -37.77023297 ], [ 144.74639256, -37.7705256 ], [ 144.754073010000013, -37.77268269 ], [ 144.75463625, -37.77284284 ], [ 144.75560891, -37.77311451 ], [ 144.75584853, -37.77317594 ], [ 144.75602457, -37.77323363 ], [ 144.756658359999989, -37.77340746 ], [ 144.75794757, -37.77378003 ], [ 144.76106392, -37.77464251 ], [ 144.76324718, -37.77525406 ], [ 144.76442905, -37.77557001 ], [ 144.76579806, -37.77590066 ], [ 144.76698177, -37.77619391 ], [ 144.76752825, -37.77633584 ], [ 144.76806935, -37.77647919 ], [ 144.77083176, -37.77725649 ], [ 144.770834056375577, -37.77725713356724 ] ] } },
{ "type": "Feature", "properties": { "from_stop": "Caroline Springs Railway Station", "to_stop": "Caroline Springs Station", "minutes": 51.7, "tier": 60, "centre": "geelong", "MODE": "REGIONAL TRAIN" }, "geometry": { "type": "LineString", "coordinates": [ [ 144.735724772169078, -37.766154926730032 ], [ 144.735693278885662, -37.766141218454258 ] ] } },
{ "type": "Feature", "properties": { "from_stop": "North Shore Station", "to_stop": "Corio Railway Station", "minutes": 10.0, "tier": 15, "centre": "geelong", "MODE": "REGIONAL TRAIN" }, "geometry": { "type": "LineString", "coordinates": [ [ 144.365334092780074, -38.098380774170096 ], [ 144.365350479999989, -38.09832363 ], [ 144.36566025, -38.09708975 ], [ 144.365818639999986, -38.09647348 ], [ 144.365970080000011, -38.09593634 ], [ 144.366118949999986, -38.09551519 ], [ 144.366246389999986, -38.09522071 ], [ 144.36650923, -38.09472148 ], [ 144.36694637, -38.09398476 ], [ 144.36735545, -38.09330193 ], [ 144.367814079999988, -38.09253767 ], [ 144.36837417000001, -38.09161142 ], [ 144.36873282, -38.09100197 ], [ 144.36925978, -38.09014066 ], [ 144.37034212, -38.08832001 ], [ 144.37071486, -38.08769834 ], [ 144.371095849999989, -38.08707551 ], [ 144.371502209999989, -38.08638692 ], [ 144.3721956, -38.08523423 ], [ 144.37258096, -38.08461563 ], [ 144.37306063, -38.08380812 ], [ 144.37383166, -38.0825329 ], [ 144.37426363, -38.08180884 ], [ 144.37503605, -38.08052832 ], [ 144.37553091, -38.07970276 ], [ 144.37592919, -38.07902398 ], [ 144.37638247000001, -38.07827019 ], [ 144.376886829999989, -38.07743312 ], [ 144.37714256000001, -38.07701687 ], [ 144.377243130000011, -38.07687567 ], [ 144.37731593, -38.07678124 ], [ 144.377423709999988, -38.07662966 ], [ 144.377592240000013, -38.07634734 ], [ 144.37783882, -38.0759416 ], [ 144.378037400000011, -38.07560598 ], [ 144.378155529999987, -38.07540093 ], [ 144.378889, -38.07417619 ], [ 144.37916524, -38.07372444 ], [ 144.37971058, -38.07281033 ], [ 144.379716732738586, -38.072800118094221 ] ] } },
{ "type": "Feature", "properties": { "from_stop": "North Shore Railway Station", "to_stop": "Corio Station", "minutes": 10.0, "tier": 15, "centre": "geelong", "MODE": "REGIONAL TRAIN" }, "geometry": { "type": "LineString", "coordinates": [ [ 144.379716732738586, -38.072800118094221 ], [ 144.37971058, -38.07281033 ], [ 144.37916524, -38.07372444 ], [ 144.378889, -38.07417619 ], [ 144.378155529999987, -38.07540093 ], [ 144.378037400000011, -38.07560598 ], [ 144.37783882, -38.0759416 ], [ 144.377592240000013, -38.07634734 ], [ 144.377423709999988, -38.07662966 ], [ 144.37731593, -38.07678124 ], [ 144.377243130000011, -38.07687567 ], [ 144.37714256000001, -38.07701687 ], [ 144.376886829999989, -38.07743312 ], [ 144.37638247000001, -38.07827019 ], [ 144.37592919, -38.07902398 ], [ 144.37553091, -38.07970276 ], [ 144.37503605, -38.08052832 ], [ 144.37426363, -38.08180884 ], [ 144.37383166, -38.0825329 ], [ 144.37306063, -38.08380812 ], [ 144.37258096, -38.08461563 ], [ 144.3721956, -38.08523423 ], [ 144.371502209999989, -38.08638692 ], [ 144.371095849999989, -38.08707551 ], [ 144.37071486, -38.08769834 ], [ 144.37034212, -38.08832001 ], [ 144.36925978, -38.09014066 ], [ 144.36873282, -38.09100197 ], [ 144.36837417000001, -38.09161142 ], [ 144.367814079999988, -38.09253767 ], [ 144.36735545, -38.09330193 ], [ 144.36694637, -38.09398476 ], [ 144.36650923, -38.09472148 ], [ 144.366246389999986, -38.09522071 ], [ 144.366118949999986, -38.09551519 ], [ 144.365970080000011, -38.09593634 ], [ 144.365818639999986, -38.09647348 ], [ 144.36566025, -38.09708975 ], [ 144.365350479999989, -38.09832363 ], [ 144.365334092780074, -38.098380774170096 ] ] } },
{ "type": "Feature", "properties": { "from_stop": "Deer Park Station", "to_stop": "Deer Park Railway Station", "minutes": 46.1, "tier": 60, "centre": "geelong", "MODE": "REGIONAL TRAIN" }, "geometry": { "type": "LineString", "coordinates": [ [ 144.771068834323756, -37.777322930903082 ], [ 144.770834056375577, -37.77725713356724 ] ] } },
{ "type": "Feature", "properties": { "from_stop": "Tarneit Station", "to_stop": "Deer Park Station", "minutes": 46.1, "tier": 60, "centre": "geelong", "MODE": "REGIONAL TRAIN" }, "geometry": { "type": "LineString", "coordinates": [ [ 144.694715546318889, -37.832159523836872 ], [ 144.69471692, -37.83215971 ], [ 144.69614302, -37.83235407 ], [ 144.70026457, -37.83286757 ], [ 144.70095324, -37.83293959 ], [ 144.70164183, -37.83299251 ], [ 144.702322650000013, -37.83302851 ], [ 144.70301135, -37.83305601 ], [ 144.70343662, -37.83305989 ], [ 144.70440210000001, -37.83305808 ], [ 144.70506916, -37.83302847 ], [ 144.70575269, -37.83298826 ], [ 144.70644395, -37.83293316 ], [ 144.70713086, -37.83286048 ], [ 144.70781353000001, -37.83277447 ], [ 144.70849657, -37.83267287 ], [ 144.70918494, -37.83254182 ], [ 144.70987359, -37.83238734 ], [ 144.71055967, -37.8322201 ], [ 144.71193212, -37.83184316 ], [ 144.71261508, -37.83162962 ], [ 144.7133011, -37.83137558 ], [ 144.71398713, -37.83111739 ], [ 144.71468373, -37.8308148 ], [ 144.71513477, -37.83060899 ], [ 144.71604772, -37.83015442 ], [ 144.71673381, -37.82979034 ], [ 144.71741716, -37.82940078 ], [ 144.71810302, -37.82897757 ], [ 144.71879167, -37.82850781 ], [ 144.719477719999986, -37.82800403 ], [ 144.720157050000012, -37.8274638 ], [ 144.72084388, -37.82686766 ], [ 144.72119742000001, -37.82655046 ], [ 144.72153583, -37.82623016 ], [ 144.721908070000012, -37.8258515 ], [ 144.72258624, -37.82508523 ], [ 144.72290754, -37.82470008 ], [ 144.723306939999986, -37.82417298 ], [ 144.723593709999989, -37.82377283 ], [ 144.72395701, -37.82325909 ], [ 144.7242761, -37.82272016 ], [ 144.72458525, -37.82216418 ], [ 144.72722957, -37.81730612 ], [ 144.7315304, -37.80938386 ], [ 144.73185414, -37.80879282 ], [ 144.73209798, -37.80831487 ], [ 144.73238708, -37.80767891 ], [ 144.732629370000012, -37.80709504 ], [ 144.73284919, -37.80652552 ], [ 144.732942290000011, -37.80625553 ], [ 144.733137950000014, -37.80566247 ], [ 144.73326927, -37.80518622 ], [ 144.7334247, -37.80455318 ], [ 144.73353985, -37.80392226 ], [ 144.73651708, -37.78363212 ], [ 144.736691259999986, -37.78248957 ], [ 144.73677475, -37.78210485 ], [ 144.73686125, -37.78177435 ], [ 144.73696695000001, -37.78141719 ], [ 144.73707095, -37.7811009 ], [ 144.737192779999987, -37.78078054 ], [ 144.73731909, -37.78046243 ], [ 144.73756899, -37.77991888 ], [ 144.73786979, -37.77937758 ], [ 144.738038390000014, -37.77909848 ], [ 144.73821805, -37.77882141 ], [ 144.738372590000012, -37.7785935 ], [ 144.73858974, -37.77828939 ], [ 144.73874848, -37.77808418 ], [ 144.73902017, -37.77774867 ], [ 144.73925890000001, -37.77747417 ], [ 144.739522529999988, -37.77719086 ], [ 144.73981111, -37.77689704 ], [ 144.74013426, -37.77659009 ], [ 144.74064033, -37.7761486 ], [ 144.74095211, -37.77589784 ], [ 144.74126518, -37.77566099 ], [ 144.741594139999989, -37.77542759 ], [ 144.74201032, -37.77514882 ], [ 144.74230105, -37.7749666 ], [ 144.74282355, -37.77466301 ], [ 144.743148209999987, -37.77448892 ], [ 144.743511829999989, -37.77430268 ], [ 144.74392706, -37.77410292 ], [ 144.74423957, -37.77396589 ], [ 144.74473353, -37.7737607 ], [ 144.744986680000011, -37.77366407 ], [ 144.74556816, -37.77345532 ], [ 144.74617002, -37.77326679 ], [ 144.74663234, -37.77313109 ], [ 144.74694402, -37.77305117 ], [ 144.74728739, -37.77295934 ], [ 144.748937039999987, -37.77253697 ], [ 144.74935255, -37.7724283 ], [ 144.749696809999989, -37.77234422 ], [ 144.75001581, -37.77227741 ], [ 144.7502536, -37.77223753 ], [ 144.750566850000013, -37.77219908 ], [ 144.75086427, -37.77217728 ], [ 144.75108631, -37.77217043 ], [ 144.75131846, -37.77217081 ], [ 144.75152302, -37.77217877 ], [ 144.75171555, -37.77219029 ], [ 144.75195706, -37.77221517 ], [ 144.752230630000014, -37.77225383 ], [ 144.75245779, -37.77229502 ], [ 144.75277196, -37.77236139 ], [ 144.75308005, -37.77242954 ], [ 144.75335961, -37.77249516 ], [ 144.75368468, -37.77257597 ], [ 144.75385383, -37.77262119 ], [ 144.75463625, -37.77284284 ], [ 144.75560891, -37.77311451 ], [ 144.75584853, -37.77317594 ], [ 144.75602457, -37.77323363 ], [ 144.756658359999989, -37.77340746 ], [ 144.75794757, -37.77378003 ], [ 144.76106392, -37.77464251 ], [ 144.76324718, -37.77525406 ], [ 144.76442905, -37.77557001 ], [ 144.76579806, -37.77590066 ], [ 144.76698177, -37.77619391 ], [ 144.76752825, -37.77633584 ], [ 144.76806935, -37.77647919 ], [ 144.77083176, -37.77725649 ], [ 144.770834056375577, -37.77725713356724 ] ] } },
{ "type": "Feature", "properties": { "from_stop": "Geelong Station", "to_stop": "Geelong Railway Station ", "minutes": 0.0, "tier": 15, "centre": "geelong", "MODE": "REGIONAL TRAIN" }, "geometry": { "type": "Point", "coordinates": [ 144.35495856, -38.14423511 ] } },
{ "type": "Feature", "properties": { "from_stop": "Corio Station", "to_stop": "Lara Railway Station", "minutes": 15.0, "tier": 30, "centre": "geelong", "MODE": "REGIONAL TRAIN" }, "geometry": { "type": "LineString", "coordinates": [ [ 144.379716732738586, -38.072800118094221 ], [ 144.380207219999988, -38.07198604 ], [ 144.38114196, -38.07042446 ], [ 144.38528992, -38.063553 ], [ 144.38617252, -38.06205374 ], [ 144.39195659, -38.05241261 ], [ 144.39263662, -38.05128679 ], [ 144.40090763, -38.03752106 ], [ 144.401466809999988, -38.03659903 ], [ 144.402396149999987, -38.03504733 ], [ 144.40327467, -38.03358847 ], [ 144.40342892000001, -38.0333403 ], [ 144.403730599999989, -38.03288499 ], [ 144.40428448, -38.03215926 ], [ 144.40469490000001, -38.03168599 ], [ 144.40519505, -38.03117478 ], [ 144.405771750000014, -38.03059588 ], [ 144.40629693, -38.03007531 ], [ 144.40801375, -38.02838307 ], [ 144.40900205, -38.0274009 ], [ 144.40961653, -38.02680191 ], [ 144.4109255, -38.02550458 ], [ 144.411762259999989, -38.02470602 ], [ 144.412499919999988, -38.0240298 ], [ 144.41391424, -38.02276214 ], [ 144.4143365, -38.02237307 ], [ 144.414345970419475, -38.022364344138914 ] ] } },
{ "type": "Feature", "properties": { "from_stop": "Corio Railway Station", "to_stop": "Lara Station", "minutes": 15.0, "tier": 30, "centre": "geelong", "MODE": "REGIONAL TRAIN" }, "geometry": { "type": "LineString", "coordinates": [ [ 144.414345970419475, -38.022364344138914 ], [ 144.4143365, -38.02237307 ], [ 144.41391424, -38.02276214 ], [ 144.412499919999988, -38.0240298 ], [ 144.411762259999989, -38.02470602 ], [ 144.4109255, -38.02550458 ], [ 144.40961653, -38.02680191 ], [ 144.40900205, -38.0274009 ], [ 144.40801375, -38.02838307 ], [ 144.40629693, -38.03007531 ], [ 144.405771750000014, -38.03059588 ], [ 144.40519505, -38.03117478 ], [ 144.40469490000001, -38.03168599 ], [ 144.40428448, -38.03215926 ], [ 144.403730599999989, -38.03288499 ], [ 144.40342892000001, -38.0333403 ], [ 144.40327467, -38.03358847 ], [ 144.402396149999987, -38.03504733 ], [ 144.401466809999988, -38.03659903 ], [ 144.40090763, -38.03752106 ], [ 144.39263662, -38.05128679 ], [ 144.39195659, -38.05241261 ], [ 144.38617252, -38.06205374 ], [ 144.38528992, -38.063553 ], [ 144.38114196, -38.07042446 ], [ 144.380207219999988, -38.07198604 ], [ 144.379716732738586, -38.072800118094221 ] ] } },
{ "type": "Feature", "properties": { "from_stop": "Lara Station", "to_stop": "Little River Railway Station", "minutes": 21.0, "tier": 30, "centre": "geelong", "MODE": "REGIONAL TRAIN" }, "geometry": { "type": "LineString", "coordinates": [ [ 144.414345970419475, -38.022364344138914 ], [ 144.41438865, -38.02232502 ], [ 144.4151312, -38.02158302 ], [ 144.41555152, -38.02113858 ], [ 144.416010910000011, -38.02062589 ], [ 144.416611679999988, -38.01997934 ], [ 144.41721787, -38.01937922 ], [ 144.417687269999988, -38.01894387 ], [ 144.41844096, -38.0183205 ], [ 144.419125009999988, -38.01779227 ], [ 144.42022473, -38.01698933 ], [ 144.42134316, -38.01616517 ], [ 144.42247505, -38.01534309 ], [ 144.42504193, -38.01345819 ], [ 144.427206500000011, -38.01188377 ], [ 144.43193517, -38.00840951 ], [ 144.43817784, -38.00383011 ], [ 144.439803219999988, -38.00263169 ], [ 144.44144472, -38.00143333 ], [ 144.443204329999986, -38.00014399 ], [ 144.44464195, -37.99909785 ], [ 144.44697942, -37.99738263 ], [ 144.44907035, -37.99586179 ], [ 144.46812472, -37.98189081 ], [ 144.476652300000012, -37.97562047 ], [ 144.479511519999988, -37.97354634 ], [ 144.48084993, -37.97261808 ], [ 144.48318605, -37.97107879 ], [ 144.48522455, -37.96980593 ], [ 144.48667838, -37.96893684 ], [ 144.487925569999987, -37.96821163 ], [ 144.49049782, -37.96679898 ], [ 144.492066849999986, -37.96598922 ], [ 144.49335439, -37.96534628 ], [ 144.496165850000011, -37.96404239 ], [ 144.49648455, -37.9638914 ], [ 144.49815025, -37.9631303 ], [ 144.498502510285107, -37.962967185847369 ] ] } },
{ "type": "Feature", "properties": { "from_stop": "Little River Railway Station", "to_stop": "Little River Station", "minutes": 21.0, "tier": 30, "centre": "geelong", "MODE": "REGIONAL TRAIN" }, "geometry": { "type": "Point", "coordinates": [ 144.498485522103323, -37.962930506034127 ] } },
{ "type": "Feature", "properties": { "from_stop": "South Geelong Railway Station", "to_stop": "Marshall Railway Station", "minutes": 7.6, "tier": 15, "centre": "geelong", "MODE": "REGIONAL TRAIN" }, "geometry": { "type": "LineString", "coordinates": [ [ 144.355015182701777, -38.198524262706343 ], [ 144.35582523, -38.19716441 ], [ 144.356489430000011, -38.19602714 ], [ 144.35886634, -38.19202737 ], [ 144.35983615, -38.19040112 ], [ 144.36125001, -38.18801608 ], [ 144.36140813, -38.18774077 ], [ 144.36254075, -38.18586712 ], [ 144.3632168, -38.18476242 ], [ 144.36486595, -38.18201563 ], [ 144.365197310000013, -38.18143992 ], [ 144.36672435, -38.17873892 ], [ 144.369124449999987, -38.17466123 ], [ 144.370703240000012, -38.1719917 ], [ 144.37093945, -38.17155179 ], [ 144.37108736, -38.1712028 ], [ 144.37119224, -38.17090141 ], [ 144.371215580000012, -38.17083003 ], [ 144.37123806, -38.17074773 ], [ 144.37130839, -38.170458 ], [ 144.371357429999989, -38.17014148 ], [ 144.37138156, -38.16989261 ], [ 144.37139029, -38.16965286 ], [ 144.37137765, -38.16927081 ], [ 144.37134783, -38.16897956 ], [ 144.37128309, -38.16863733 ], [ 144.37119008, -38.16830358 ], [ 144.37109088, -38.16801528 ], [ 144.37099674000001, -38.1677989 ], [ 144.370921650000014, -38.1676399 ], [ 144.370747560000012, -38.16731072 ], [ 144.37060563, -38.16708724 ], [ 144.37042632, -38.16684003 ], [ 144.37019159, -38.16654383 ], [ 144.37002331, -38.1663612 ], [ 144.36991959, -38.16625571 ], [ 144.36978825, -38.16613148 ], [ 144.36955465, -38.16592144 ], [ 144.369444249999987, -38.16583031 ], [ 144.36926062, -38.16568752 ], [ 144.36891953, -38.16543578 ], [ 144.36738103, -38.16434373 ], [ 144.36326571, -38.1614329 ], [ 144.36155745, -38.16022046 ], [ 144.36105124, -38.15986551 ], [ 144.35994656, -38.15908172 ], [ 144.35938891, -38.15867606 ], [ 144.35914448, -38.1585081 ], [ 144.359107845790817, -38.158482915617256 ] ] } },
{ "type": "Feature", "properties": { "from_stop": "South Geelong Station", "to_stop": "Marshall Station", "minutes": 7.6, "tier": 15, "centre": "geelong", "MODE": "REGIONAL TRAIN" }, "geometry": { "type": "LineString", "coordinates": [ [ 144.359107845790817, -38.158482915617256 ], [ 144.35914448, -38.1585081 ], [ 144.35938891, -38.15867606 ], [ 144.35994656, -38.15908172 ], [ 144.36105124, -38.15986551 ], [ 144.36155745, -38.16022046 ], [ 144.36326571, -38.1614329 ], [ 144.36738103, -38.16434373 ], [ 144.36891953, -38.16543578 ], [ 144.36926062, -38.16568752 ], [ 144.369444249999987, -38.16583031 ], [ 144.36955465, -38.16592144 ], [ 144.36978825, -38.16613148 ], [ 144.36991959, -38.16625571 ], [ 144.37002331, -38.1663612 ], [ 144.37019159, -38.16654383 ], [ 144.37042632, -38.16684003 ], [ 144.37060563, -38.16708724 ], [ 144.370747560000012, -38.16731072 ], [ 144.370921650000014, -38.1676399 ], [ 144.37099674000001, -38.1677989 ], [ 144.37109088, -38.16801528 ], [ 144.37119008, -38.16830358 ], [ 144.37128309, -38.16863733 ], [ 144.37134783, -38.16897956 ], [ 144.37137765, -38.16927081 ], [ 144.37139029, -38.16965286 ], [ 144.37138156, -38.16989261 ], [ 144.371357429999989, -38.17014148 ], [ 144.37130839, -38.170458 ], [ 144.37123806, -38.17074773 ], [ 144.371215580000012, -38.17083003 ], [ 144.37119224, -38.17090141 ], [ 144.37108736, -38.1712028 ], [ 144.37093945, -38.17155179 ], [ 144.370703240000012, -38.1719917 ], [ 144.369124449999987, -38.17466123 ], [ 144.36672435, -38.17873892 ], [ 144.365197310000013, -38.18143992 ], [ 144.36486595, -38.18201563 ], [ 144.3632168, -38.18476242 ], [ 144.36254075, -38.18586712 ], [ 144.36140813, -38.18774077 ], [ 144.36125001, -38.18801608 ], [ 144.35983615, -38.19040112 ], [ 144.35886634, -38.19202737 ], [ 144.356489430000011, -38.19602714 ], [ 144.35582523, -38.19716441 ], [ 144.355015182701777, -38.198524262706343 ] ] } },
{ "type": "Feature", "properties": { "from_stop": "North Geelong Station", "to_stop": "North Geelong Railway Station", "minutes": 3.0, "tier": 15, "centre": "geelong", "MODE": "REGIONAL TRAIN" }, "geometry": { "type": "LineString", "coordinates": [ [ 144.352288490672578, -38.122678384121585 ], [ 144.35225892, -38.12282818 ], [ 144.352258066783577, -38.122832494238686 ] ] } },
{ "type": "Feature", "properties": { "from_stop": "Geelong Station", "to_stop": "North Geelong Station", "minutes": 3.0, "tier": 15, "centre": "geelong", "MODE": "REGIONAL TRAIN" }, "geometry": { "type": "LineString", "coordinates": [ [ 144.35495856, -38.14423511 ], [ 144.355031520000011, -38.14375038 ], [ 144.355044889999988, -38.14360138 ], [ 144.355064520000013, -38.14331376 ], [ 144.355052660000013, -38.14296001 ], [ 144.35503634, -38.14278953 ], [ 144.355011139999988, -38.14260614 ], [ 144.35498035, -38.14242578 ], [ 144.35493684, -38.14224054 ], [ 144.35489095, -38.14207713 ], [ 144.35483052, -38.14189593 ], [ 144.35460745, -38.14135658 ], [ 144.35436468, -38.1407248 ], [ 144.35417195, -38.14023642 ], [ 144.354073989999989, -38.13996714 ], [ 144.35390641, -38.1395469 ], [ 144.35354127, -38.13868377 ], [ 144.35335747, -38.13832732 ], [ 144.35323584, -38.13814464 ], [ 144.35308785, -38.13793704 ], [ 144.35288757, -38.13769582 ], [ 144.352283449999987, -38.13701569 ], [ 144.35214707, -38.13685926 ], [ 144.35203636, -38.13672197 ], [ 144.3519447, -38.13660349 ], [ 144.35187922, -38.13651208 ], [ 144.35176956, -38.13634247 ], [ 144.35167727000001, -38.13617838 ], [ 144.351589960000013, -38.13600602 ], [ 144.351528839999986, -38.13587264 ], [ 144.351332570000011, -38.13537886 ], [ 144.350981350000012, -38.13451387 ], [ 144.35085648, -38.13418478 ], [ 144.35078407, -38.13396636 ], [ 144.350690179999987, -38.13363203 ], [ 144.3506138, -38.13330287 ], [ 144.35058435, -38.1331993 ], [ 144.35054043, -38.132969 ], [ 144.35052801, -38.13289303 ], [ 144.35051324, -38.13277781 ], [ 144.3504983, -38.132658 ], [ 144.35048275, -38.13244446 ], [ 144.3504824, -38.13228073 ], [ 144.350495740000014, -38.13198432 ], [ 144.350529279999989, -38.13171954 ], [ 144.350614150000013, -38.13124643 ], [ 144.350816290000012, -38.13021516 ], [ 144.35122941, -38.12807154 ], [ 144.35137405, -38.12734271 ], [ 144.3514827, -38.1267794 ], [ 144.35158725, -38.12625717 ], [ 144.35182875000001, -38.1249817 ], [ 144.352040640000013, -38.1239319 ], [ 144.352258066783577, -38.122832494238686 ] ] } },
{ "type": "Feature", "properties": { "from_stop": "North Geelong Railway Station", "to_stop": "North Shore Railway Station", "minutes": 7.0, "tier": 15, "centre": "geelong", "MODE": "REGIONAL TRAIN" }, "geometry": { "type": "LineString", "coordinates": [ [ 144.352288490672578, -38.122678384121585 ], [ 144.352543739999987, -38.12138537 ], [ 144.35284927, -38.11980463 ], [ 144.35367949, -38.115547 ], [ 144.354225430000014, -38.11271049 ], [ 144.354335209999988, -38.11212106 ], [ 144.3543703, -38.11197048 ], [ 144.35439019, -38.11186794 ], [ 144.35444042, -38.11163597 ], [ 144.35451895, -38.1113213 ], [ 144.35456321, -38.1111693 ], [ 144.354667760000012, -38.11087602 ], [ 144.35475757, -38.11065332 ], [ 144.35487694, -38.11039174 ], [ 144.35500982, -38.11014163 ], [ 144.35521899, -38.1097934 ], [ 144.355404130000011, -38.10951996 ], [ 144.355657470000011, -38.1091803 ], [ 144.355972689999987, -38.10878769 ], [ 144.356309399999986, -38.1083525 ], [ 144.356561480000011, -38.10803488 ], [ 144.35701878, -38.10744292 ], [ 144.35741983, -38.10693736 ], [ 144.35785427, -38.10637182 ], [ 144.358145369999988, -38.10600876 ], [ 144.35897757, -38.10495849 ], [ 144.35931689, -38.1045575 ], [ 144.359624020000012, -38.10423039 ], [ 144.35996455, -38.10390961 ], [ 144.36033343, -38.10359614 ], [ 144.36088457, -38.10316134 ], [ 144.3619468, -38.10236769 ], [ 144.36286945, -38.10166912 ], [ 144.36336974, -38.10128713 ], [ 144.363735819999988, -38.10097152 ], [ 144.36407655, -38.10064749 ], [ 144.3643554, -38.1003383 ], [ 144.36456522, -38.10008098 ], [ 144.36469634, -38.09989723 ], [ 144.36479544, -38.09974456 ], [ 144.36491999, -38.09951831 ], [ 144.36503274, -38.09929026 ], [ 144.365104620000011, -38.09913347 ], [ 144.36517079, -38.0989516 ], [ 144.36533379, -38.09838183 ], [ 144.365334092780074, -38.098380774170096 ] ] } },
{ "type": "Feature", "properties": { "from_stop": "North Geelong Railway Station", "to_stop": "North Shore Station", "minutes": 7.0, "tier": 15, "centre": "geelong", "MODE": "REGIONAL TRAIN" }, "geometry": { "type": "LineString", "coordinates": [ [ 144.365334092780074, -38.098380774170096 ], [ 144.36533379, -38.09838183 ], [ 144.36517079, -38.0989516 ], [ 144.365104620000011, -38.09913347 ], [ 144.36503274, -38.09929026 ], [ 144.36491999, -38.09951831 ], [ 144.36479544, -38.09974456 ], [ 144.36469634, -38.09989723 ], [ 144.36456522, -38.10008098 ], [ 144.3643554, -38.1003383 ], [ 144.36407655, -38.10064749 ], [ 144.363735819999988, -38.10097152 ], [ 144.36336974, -38.10128713 ], [ 144.36286945, -38.10166912 ], [ 144.3619468, -38.10236769 ], [ 144.36088457, -38.10316134 ], [ 144.36033343, -38.10359614 ], [ 144.35996455, -38.10390961 ], [ 144.359624020000012, -38.10423039 ], [ 144.35931689, -38.1045575 ], [ 144.35897757, -38.10495849 ], [ 144.358145369999988, -38.10600876 ], [ 144.35785427, -38.10637182 ], [ 144.35741983, -38.10693736 ], [ 144.35701878, -38.10744292 ], [ 144.356561480000011, -38.10803488 ], [ 144.356309399999986, -38.1083525 ], [ 144.355972689999987, -38.10878769 ], [ 144.355657470000011, -38.1091803 ], [ 144.355404130000011, -38.10951996 ], [ 144.35521899, -38.1097934 ], [ 144.35500982, -38.11014163 ], [ 144.35487694, -38.11039174 ], [ 144.35475757, -38.11065332 ], [ 144.354667760000012, -38.11087602 ], [ 144.35456321, -38.1111693 ], [ 144.35451895, -38.1113213 ], [ 144.35444042, -38.11163597 ], [ 144.35439019, -38.11186794 ], [ 144.3543703, -38.11197048 ], [ 144.354335209999988, -38.11212106 ], [ 144.354225430000014, -38.11271049 ], [ 144.35367949, -38.115547 ], [ 144.35284927, -38.11980463 ], [ 144.352543739999987, -38.12138537 ], [ 144.352288490672578, -38.122678384121585 ] ] } },
{ "type": "Feature", "properties": { "from_stop": "Rockbank Station", "to_stop": "Rockbank Railway Station", "minutes": 57.1, "tier": 60, "centre": "geelong", "MODE": "REGIONAL TRAIN" }, "geometry": { "type": "LineString", "coordinates": [ [ 144.650717998456656, -37.729179763636552 ], [ 144.650675631671589, -37.729161091350655 ] ] } },
{ "type": "Feature", "properties": { "from_stop": "Caroline Springs Station", "to_stop": "Rockbank Station", "minutes": 57.1, "tier": 60, "centre": "geelong", "MODE": "REGIONAL TRAIN" }, "geometry": { "type": "LineString", "coordinates": [ [ 144.735693278885662, -37.766141218454258 ], [ 144.73568662, -37.76613832 ], [ 144.703934839999988, -37.75231566 ], [ 144.67030101, -37.73770598 ], [ 144.65300165, -37.73017694 ], [ 144.65124932, -37.72941399 ], [ 144.650723050000011, -37.72918199 ], [ 144.650717998456656, -37.729179763636552 ] ] } },
{ "type": "Feature", "properties": { "from_stop": "South Geelong Station", "to_stop": "South Geelong Railway Station", "minutes": 2.6, "tier": 15, "centre": "geelong", "MODE": "REGIONAL TRAIN" }, "geometry": { "type": "Point", "coordinates": [ 144.359107845790817, -38.158482915617256 ] } },
{ "type": "Feature", "properties": { "from_stop": "Geelong Railway Station ", "to_stop": "South Geelong Station", "minutes": 2.6, "tier": 15, "centre": "geelong", "MODE": "REGIONAL TRAIN" }, "geometry": { "type": "LineString", "coordinates": [ [ 144.359107845790817, -38.158482915617256 ], [ 144.35879461, -38.15826758 ], [ 144.35872315, -38.15821452 ], [ 144.35657086, -38.15669422 ], [ 144.35435671, -38.15512581 ], [ 144.35406855, -38.15490902 ], [ 144.35379914, -38.15468156 ], [ 144.353518939999987, -38.15439304 ], [ 144.35344874, -38.15430847 ], [ 144.353327259999986, -38.15414949 ], [ 144.353256640000012, -38.15404491 ], [ 144.3531748, -38.1539162 ], [ 144.35309325, -38.1537765 ], [ 144.35301838, -38.15362542 ], [ 144.35296335000001, -38.15349992 ], [ 144.35289033, -38.15331356 ], [ 144.35283593, -38.15313943 ], [ 144.35278397, -38.15293237 ], [ 144.35275324, -38.1527503 ], [ 144.352728250000013, -38.15252303 ], [ 144.3527206, -38.15234031 ], [ 144.35272451, -38.15216271 ], [ 144.352741259999988, -38.1519964 ], [ 144.3527718, -38.15179544 ], [ 144.35279046, -38.15171485 ], [ 144.35281698, -38.15160958 ], [ 144.35295696, -38.15113717 ], [ 144.35410596, -38.14742909 ], [ 144.354179710000011, -38.14720063 ], [ 144.35430922, -38.1468279 ], [ 144.35436109, -38.14669022 ], [ 144.35448564, -38.14634099 ], [ 144.35464983, -38.14587679 ], [ 144.35467123, -38.14580861 ], [ 144.35472073, -38.14562916 ], [ 144.35478405, -38.14535153 ], [ 144.35486665, -38.14483989 ], [ 144.354887191608185, -38.144704723491365 ] ] } },
{ "type": "Feature", "properties": { "from_stop": "Sunshine Station", "to_stop": "Sunshine Railway Station", "minutes": 52.9, "tier": 60, "centre": "geelong", "MODE": "REGIONAL TRAIN" }, "geometry": { "type": "LineString", "coordinates": [ [ 144.832740317933514, -37.788640108029945 ], [ 144.83249837, -37.78831865 ], [ 144.83249580906886, -37.788315263283756 ] ] } },
{ "type": "Feature", "properties": { "from_stop": "Ardeer Railway Station", "to_stop": "Sunshine Station", "minutes": 52.8, "tier": 60, "centre": "geelong", "MODE": "REGIONAL TRAIN" }, "geometry": { "type": "LineString", "coordinates": [ [ 144.83249580906886, -37.788315263283756 ], [ 144.83178196, -37.78737123 ], [ 144.83108209, -37.78663904 ], [ 144.83088702, -37.78645242 ], [ 144.830638810000011, -37.78625806 ], [ 144.83037318, -37.7860924 ], [ 144.83005169, -37.78594202 ], [ 144.82971515, -37.78582894 ], [ 144.829446850000011, -37.78576623 ], [ 144.82917907, -37.78572462 ], [ 144.82279091, -37.78506438 ], [ 144.821873399999987, -37.78498848 ], [ 144.82051476, -37.78490504 ], [ 144.819794730000012, -37.78485603 ], [ 144.818870589999989, -37.78477034 ], [ 144.81819783, -37.7846929 ], [ 144.81707932, -37.78459116 ], [ 144.81624377, -37.78452439 ], [ 144.815597419999989, -37.78446816 ], [ 144.81485844, -37.78438768 ], [ 144.81406185, -37.78429756 ], [ 144.81282466, -37.78414707 ], [ 144.80852707, -37.78370086 ], [ 144.80454125, -37.78327689 ], [ 144.80343757, -37.78318584 ], [ 144.802215819999986, -37.78310204 ], [ 144.802185551246623, -37.783099832903403 ] ] } },
{ "type": "Feature", "properties": { "from_stop": "Wyndham Vale Railway Station", "to_stop": "Tarneit Railway Station", "minutes": 39.1, "tier": 45, "centre": "geelong", "MODE": "REGIONAL TRAIN" }, "geometry": { "type": "LineString", "coordinates": [ [ 144.608385623165134, -37.872532359753293 ], [ 144.608708439999987, -37.87066312 ], [ 144.60891174, -37.86945589 ], [ 144.60897823, -37.86897117 ], [ 144.609041819999987, -37.86837881 ], [ 144.609071449999988, -37.86789506 ], [ 144.609087210000013, -37.86746033 ], [ 144.60908932000001, -37.86692727 ], [ 144.60908047, -37.86656836 ], [ 144.60905875, -37.86619242 ], [ 144.60902644, -37.86580996 ], [ 144.60895738, -37.86521076 ], [ 144.60889656, -37.86480663 ], [ 144.60880813, -37.86432157 ], [ 144.60871254, -37.86386438 ], [ 144.6085109, -37.86302756 ], [ 144.608467710000014, -37.8628589 ], [ 144.60822579, -37.86184464 ], [ 144.60814087, -37.8615287 ], [ 144.608015709999989, -37.86113191 ], [ 144.607901340000012, -37.86073571 ], [ 144.60771632, -37.85996222 ], [ 144.607634960000013, -37.85961003 ], [ 144.60754506, -37.8591672 ], [ 144.60749905, -37.85890989 ], [ 144.60742818, -37.85845492 ], [ 144.60740895, -37.85832207 ], [ 144.607362349999988, -37.85791796 ], [ 144.607323939999986, -37.85748563 ], [ 144.607307420000012, -37.8571426 ], [ 144.60729415, -37.85679387 ], [ 144.60729034, -37.85640902 ], [ 144.6072977, -37.85601277 ], [ 144.60731562, -37.85564151 ], [ 144.60734512, -37.85523877 ], [ 144.60738637, -37.8548314 ], [ 144.60744274000001, -37.85439911 ], [ 144.60751326, -37.85396161 ], [ 144.60761989, -37.85342996 ], [ 144.607680820000013, -37.85315527 ], [ 144.607790630000011, -37.85272209 ], [ 144.60793836, -37.85221289 ], [ 144.608090510000011, -37.85174578 ], [ 144.608289750000012, -37.85120024 ], [ 144.60847793, -37.85073314 ], [ 144.608699949999988, -37.8502351 ], [ 144.60881738, -37.84999139 ], [ 144.60903473, -37.84956381 ], [ 144.60929393, -37.84908923 ], [ 144.60961988, -37.84853608 ], [ 144.60997812, -37.84798583 ], [ 144.6103582, -37.8474454 ], [ 144.610773990000013, -37.84690019 ], [ 144.61122518, -37.846353 ], [ 144.61164681, -37.84587658 ], [ 144.61184284, -37.84566492 ], [ 144.61227005, -37.84523014 ], [ 144.61253381, -37.84497273 ], [ 144.61275631, -37.84476133 ], [ 144.61301855, -37.84452596 ], [ 144.6132811, -37.84429546 ], [ 144.61362301, -37.84400692 ], [ 144.614004670000014, -37.84369782 ], [ 144.614475199999987, -37.84333898 ], [ 144.61481686, -37.84308972 ], [ 144.61516863, -37.8428439 ], [ 144.615484360000011, -37.84263043 ], [ 144.61595179, -37.84233198 ], [ 144.61627425, -37.84213504 ], [ 144.616634080000011, -37.84192128 ], [ 144.6173779, -37.84150128 ], [ 144.61767995, -37.84134159 ], [ 144.61888307000001, -37.84069514 ], [ 144.62881063, -37.8353833 ], [ 144.62921028, -37.83516562 ], [ 144.64047464, -37.82911058 ], [ 144.64122692, -37.82874854 ], [ 144.64257106, -37.82815242 ], [ 144.642996399999987, -37.82799586 ], [ 144.64326306000001, -37.82788801 ], [ 144.643947379999986, -37.82764002 ], [ 144.644637280000012, -37.82741314 ], [ 144.64532465, -37.82720098 ], [ 144.64601201, -37.82701441 ], [ 144.64669955, -37.82684685 ], [ 144.64738655, -37.82670694 ], [ 144.64807346, -37.82656278 ], [ 144.648761150000013, -37.82644388 ], [ 144.64945126, -37.82635268 ], [ 144.65013305, -37.82627636 ], [ 144.65082314, -37.82621074 ], [ 144.65151044000001, -37.82616831 ], [ 144.65219625, -37.82613712 ], [ 144.65288426, -37.82611912 ], [ 144.653574850000012, -37.82611279 ], [ 144.65426026, -37.82612654 ], [ 144.654949140000014, -37.82615982 ], [ 144.65563685, -37.82619803 ], [ 144.65701388, -37.8263634 ], [ 144.65769832, -37.82645452 ], [ 144.65838786, -37.82656052 ], [ 144.66001072, -37.8268169 ], [ 144.68516163000001, -37.83087588 ], [ 144.68653715, -37.83107287 ], [ 144.68790812, -37.83124498 ], [ 144.69306124, -37.83193533 ], [ 144.694491036905106, -37.832129098016509 ] ] } },
{ "type": "Feature", "properties": { "from_stop": "Tarneit Railway Station", "to_stop": "Tarneit Station", "minutes": 39.1, "tier": 45, "centre": "geelong", "MODE": "REGIONAL TRAIN" }, "geometry": { "type": "LineString", "coordinates": [ [ 144.694715546318889, -37.832159523836872 ], [ 144.694491036905106, -37.832129098016509 ] ] } },
{ "type": "Feature", "properties": { "from_stop": "Marshall Railway Station", "to_stop": "Waurn Ponds Railway Station", "minutes": 12.1, "tier": 15, "centre": "geelong", "MODE": "REGIONAL TRAIN" }, "geometry": { "type": "LineString", "coordinates": [ [ 144.355015182701777, -38.198524262706343 ], [ 144.35501136, -38.19853068 ], [ 144.35422512, -38.19986459 ], [ 144.35398464, -38.20026229 ], [ 144.35124382, -38.20493329 ], [ 144.35057943000001, -38.20605214 ], [ 144.35026169, -38.20654179 ], [ 144.34997195, -38.20696756 ], [ 144.349564320000013, -38.20746068 ], [ 144.34914136, -38.20792632 ], [ 144.34883817, -38.20823474 ], [ 144.348400559999988, -38.2086032 ], [ 144.34776187, -38.20907829 ], [ 144.347297590000011, -38.2093791 ], [ 144.34670645, -38.20970478 ], [ 144.34623774, -38.20994503 ], [ 144.34573255, -38.21016751 ], [ 144.34512111, -38.21040416 ], [ 144.344584309999988, -38.21058213 ], [ 144.343882220000012, -38.21077076 ], [ 144.34276574, -38.21103057 ], [ 144.33993602000001, -38.21164536 ], [ 144.33791105, -38.2120621 ], [ 144.33480008, -38.21274608 ], [ 144.33204379, -38.21332622 ], [ 144.330358679999989, -38.21371244 ], [ 144.329357460000011, -38.21391599 ], [ 144.32861155, -38.21402056 ], [ 144.327320320000013, -38.21412522 ], [ 144.32522644, -38.21404992 ], [ 144.322617939999986, -38.21388824 ], [ 144.32125971, -38.21382993 ], [ 144.32032525, -38.21389374 ], [ 144.313482670000013, -38.2148891 ], [ 144.31070419, -38.21529 ], [ 144.30990872000001, -38.21540899 ], [ 144.30826449, -38.21566401 ], [ 144.306840906983581, -38.21587243907905 ] ] } },
{ "type": "Feature", "properties": { "from_stop": "Waurn Ponds Railway Station", "to_stop": "Waurn Ponds Station", "minutes": 12.1, "tier": 15, "centre": "geelong", "MODE": "REGIONAL TRAIN" }, "geometry": { "type": "LineString", "coordinates": [ [ 144.30643328347378, -38.21593211989272 ], [ 144.306840906983581, -38.21587243907905 ] ] } },
{ "type": "Feature", "properties": { "from_stop": "Winchelsea Station", "to_stop": "Winchelsea Railway Station", "minutes": 31.3, "tier": 45, "centre": "geelong", "MODE": "REGIONAL TRAIN" }, "geometry": { "type": "Point", "coordinates": [ 143.984052293088979, -38.239969875396888 ] } },
{ "type": "Feature", "properties": { "from_stop": "Waurn Ponds Station", "to_stop": "Winchelsea Station", "minutes": 31.3, "tier": 45, "centre": "geelong", "MODE": "REGIONAL TRAIN" }, "geometry": { "type": "LineString", "coordinates": [ [ 143.984052293088979, -38.239969875396888 ], [ 143.98546918, -38.23926997 ], [ 143.98838691, -38.23779592 ], [ 143.99071831, -38.23656263 ], [ 143.99421658, -38.23485232 ], [ 143.9950618, -38.23444882 ], [ 143.99600275, -38.2340838 ], [ 143.99693681, -38.23385266 ], [ 143.998053019999986, -38.23365834 ], [ 144.00384822, -38.23290766 ], [ 144.021249759999989, -38.23073033 ], [ 144.02235445, -38.23061954 ], [ 144.02357931, -38.23052828 ], [ 144.03707069, -38.23013897 ], [ 144.050314320000012, -38.23001558 ], [ 144.050966069999987, -38.23002953 ], [ 144.05108924000001, -38.23003723 ], [ 144.05155765, -38.23004864 ], [ 144.05222625, -38.2301205 ], [ 144.06829862, -38.23192927 ], [ 144.06888038, -38.231983 ], [ 144.06946210000001, -38.23199204 ], [ 144.070072360000012, -38.23198747 ], [ 144.07064283, -38.2319382 ], [ 144.07126439000001, -38.23187102 ], [ 144.07198313, -38.23172769 ], [ 144.07438968, -38.2312614 ], [ 144.08037535, -38.23005892 ], [ 144.081881149999987, -38.22979007 ], [ 144.08322723, -38.22960191 ], [ 144.08473296, -38.22949438 ], [ 144.09342895, -38.2293019 ], [ 144.11222243, -38.22899501 ], [ 144.11918234, -38.22898363 ], [ 144.120528330000013, -38.2289747 ], [ 144.12187425, -38.22911802 ], [ 144.12347127000001, -38.22942272 ], [ 144.13063978, -38.23094872 ], [ 144.16378255, -38.23826683 ], [ 144.17203604, -38.24007578 ], [ 144.17441724, -38.24061268 ], [ 144.17503342, -38.24074033 ], [ 144.17875869, -38.24154098 ], [ 144.17982335, -38.24178806 ], [ 144.18104853, -38.2419405 ], [ 144.18221771, -38.24205248 ], [ 144.18356365, -38.24206598 ], [ 144.18464737, -38.24202119 ], [ 144.18568542, -38.24190474 ], [ 144.18686631, -38.24165971 ], [ 144.192451190000014, -38.24036789 ], [ 144.20400245, -38.23786247 ], [ 144.21778684, -38.23490262 ], [ 144.22336321, -38.23365363 ], [ 144.24132923, -38.22978789 ], [ 144.24591467, -38.22879228 ], [ 144.262052860000011, -38.22525431 ], [ 144.27110869, -38.22327661 ], [ 144.27376081, -38.22270072 ], [ 144.274068340000014, -38.22263786 ], [ 144.28961813, -38.21923726 ], [ 144.29808404, -38.21740662 ], [ 144.29865689, -38.21732044 ], [ 144.29909412, -38.21722337 ], [ 144.300105190000011, -38.21700427 ], [ 144.30082121, -38.21685433 ], [ 144.30207675, -38.21660183 ], [ 144.30339095, -38.2163721 ], [ 144.305241740000014, -38.21610648 ], [ 144.30642857, -38.21593281 ], [ 144.30643328347378, -38.21593211989272 ] ] } },
{ "type": "Feature", "properties": { "from_stop": "Wyndham Vale Station", "to_stop": "Wyndham Vale Railway Station", "minutes": 30.3, "tier": 45, "centre": "geelong", "MODE": "REGIONAL TRAIN" }, "geometry": { "type": "LineString", "coordinates": [ [ 144.608385623165134, -37.872532359753293 ], [ 144.608336268547845, -37.872818142905473 ] ] } },
{ "type": "Feature", "properties": { "from_stop": "Little River Station", "to_stop": "Wyndham Vale Station", "minutes": 30.2, "tier": 45, "centre": "geelong", "MODE": "REGIONAL TRAIN" }, "geometry": { "type": "LineString", "coordinates": [ [ 144.498502510285107, -37.962967185847369 ], [ 144.50054809, -37.96201998 ], [ 144.50464116, -37.96013787 ], [ 144.50567645000001, -37.95966839 ], [ 144.506676879999986, -37.9592433 ], [ 144.50971046, -37.95806112 ], [ 144.51796098, -37.95491002 ], [ 144.525350479999986, -37.95206749 ], [ 144.53526657, -37.9482477 ], [ 144.54302027, -37.94526389 ], [ 144.54682104, -37.94378957 ], [ 144.54866915, -37.94308101 ], [ 144.55929656, -37.93899356 ], [ 144.575904689999987, -37.93258802 ], [ 144.58149035, -37.93044909 ], [ 144.58217112, -37.93017861 ], [ 144.58683911, -37.92843064 ], [ 144.5873987, -37.92820477 ], [ 144.58785935, -37.92800904 ], [ 144.58833958, -37.92779217 ], [ 144.58896908, -37.92749104 ], [ 144.58931256, -37.92731606 ], [ 144.590326690000012, -37.9267532 ], [ 144.59076546, -37.92648852 ], [ 144.59122059, -37.92617912 ], [ 144.59174439, -37.92582923 ], [ 144.59214985, -37.92552512 ], [ 144.59241425, -37.92532228 ], [ 144.59291264, -37.92493104 ], [ 144.59339436, -37.92451396 ], [ 144.59378976, -37.92416223 ], [ 144.59415456, -37.92382439 ], [ 144.594571519999988, -37.9234076 ], [ 144.59488345, -37.92308616 ], [ 144.59519459, -37.92274352 ], [ 144.59545922, -37.92241768 ], [ 144.59580166, -37.92202883 ], [ 144.59609396, -37.92167049 ], [ 144.59642514, -37.92121481 ], [ 144.5967733, -37.92070586 ], [ 144.597051349999987, -37.92028549 ], [ 144.59731824, -37.91983381 ], [ 144.59757013, -37.91938147 ], [ 144.59780483, -37.91894346 ], [ 144.59804896, -37.91843589 ], [ 144.59825569, -37.91795874 ], [ 144.59847005, -37.9174257 ], [ 144.59863539, -37.91694789 ], [ 144.59879855, -37.91644308 ], [ 144.598924509999989, -37.91597302 ], [ 144.599056780000012, -37.91543136 ], [ 144.59915725, -37.91492997 ], [ 144.599649660000011, -37.91229526 ], [ 144.59979665, -37.91161189 ], [ 144.60022976, -37.90969407 ], [ 144.60033855, -37.90916742 ], [ 144.600558119999988, -37.90800353 ], [ 144.600866450000012, -37.90631591 ], [ 144.60111475, -37.90500572 ], [ 144.60180931, -37.90125036 ], [ 144.60201564, -37.90021937 ], [ 144.6022122, -37.89938399 ], [ 144.60241188, -37.89864149 ], [ 144.60268018, -37.89781694 ], [ 144.60451315, -37.89210844 ], [ 144.60473735, -37.89140428 ], [ 144.604866179999988, -37.89097977 ], [ 144.60506419, -37.89026616 ], [ 144.605278950000013, -37.88943908 ], [ 144.6056034, -37.88817421 ], [ 144.605675459999986, -37.88791183 ], [ 144.605860549999989, -37.8871893 ], [ 144.60650403, -37.88471262 ], [ 144.60690501, -37.88314041 ], [ 144.60699438, -37.88276096 ], [ 144.60707715, -37.88237814 ], [ 144.60715468, -37.88198161 ], [ 144.60725775, -37.88128786 ], [ 144.607295599999986, -37.88094738 ], [ 144.60732647, -37.88063992 ], [ 144.60734667, -37.88040568 ], [ 144.60736767, -37.88012568 ], [ 144.60747059, -37.87887423 ], [ 144.60752756, -37.8781363 ], [ 144.6075791, -37.87756946 ], [ 144.607615579999987, -37.87720453 ], [ 144.6076597, -37.87685301 ], [ 144.60771015, -37.87649196 ], [ 144.60776546, -37.87612471 ], [ 144.607874149999986, -37.87548136 ], [ 144.60833205, -37.87284257 ], [ 144.608336268547845, -37.872818142905473 ] ] } }
]
}
