{
"type": "FeatureCollection",
"name": "commute_times_regional_train__southern-cross",
"crs": { "type": "name", "properties": { "name": "urn:ogc:def:crs:OGC:1.3:CRS84" } },
"features": [
{ "type": "Feature", "properties": { "STOP_NAME": "Ardeer Railway Station", "minutes": 22.2, "tier": 30, "centre": "southern-cross", "MODE": "REGIONAL TRAIN" }, "geometry": { "type": "Point", "coordinates": [ 144.80218807, -37.78306529 ] } },
{ "type": "Feature", "properties": { "STOP_NAME": "Ardeer Station", "minutes": 22.3, "tier": 30, "centre": "southern-cross", "MODE": "REGIONAL TRAIN" }, "geometry": { "type": "Point", "coordinates": [ 144.80154202, -37.7830262 ] } },
{ "type": "Feature", "properties": { "STOP_NAME": "Bacchus Marsh Railway Station", "minutes": 51.0, "tier": 60, "centre": "southern-cross", "MODE": "REGIONAL TRAIN" }, "geometry": { "type": "Point", "coordinates": [ 144.43678516, -37.68757821 ] } },
{ "type": "Feature", "properties": { "STOP_NAME": "Bacchus Marsh Station", "minutes": 51.0, "tier": 60, "centre": "southern-cross", "MODE": "REGIONAL TRAIN" }, "geometry": { "type": "Point", "coordinates": [ 144.43750226, -37.68782809 ] } },
{ "type": "Feature", "properties": { "STOP_NAME": "Broadmeadows Railway Station", "minutes": 23.7, "tier": 30, "centre": "southern-cross", "MODE": "REGIONAL TRAIN" }, "geometry": { "type": "Point", "coordinates": [ 144.91961322, -37.68304926 ] } },
{ "type": "Feature", "properties": { "STOP_NAME": "Broadmeadows Station", "minutes": 23.8, "tier": 30, "centre": "southern-cross", "MODE": "REGIONAL TRAIN" }, "geometry": { "type": "Point", "coordinates": [ 144.91959307, -37.68295879 ] } },
{ "type": "Feature", "properties": { "STOP_NAME": "Caroline Springs Railway Station", "minutes": 29.8, "tier": 30, "centre": "southern-cross", "MODE": "REGIONAL TRAIN" }, "geometry": { "type": "Point", "coordinates": [ 144.73573715, -37.76612649 ] } },
{ "type": "Feature", "properties": { "STOP_NAME": "Caroline Springs Station", "minutes": 29.8, "tier": 30, "centre": "southern-cross", "MODE": "REGIONAL TRAIN" }, "geometry": { "type": "Point", "coordinates": [ 144.735715559999988, -37.76609003 ] } },
{ "type": "Feature", "properties": { "STOP_NAME": "Caulfield Railway Station", "minutes": 18.5, "tier": 30, "centre": "southern-cross", "MODE": "REGIONAL TRAIN" }, "geometry": { "type": "Point", "coordinates": [ 145.04252478, -37.87745946 ] } },
{ "type": "Feature", "properties": { "STOP_NAME": "Caulfield Station", "minutes": 18.5, "tier": 30, "centre": "southern-cross", "MODE": "REGIONAL TRAIN" }, "geometry": { "type": "Point", "coordinates": [ 145.04251962, -37.87722507 ] } },
{ "type": "Feature", "properties": { "STOP_NAME": "Clayton Railway Station", "minutes": 32.3, "tier": 45, "centre": "southern-cross", "MODE": "REGIONAL TRAIN" }, "geometry": { "type": "Point", "coordinates": [ 145.12053436, -37.92468255 ] } },
{ "type": "Feature", "properties": { "STOP_NAME": "Clayton Station", "minutes": 32.3, "tier": 45, "centre": "southern-cross", "MODE": "REGIONAL TRAIN" }, "geometry": { "type": "Point", "coordinates": [ 145.12068518, -37.92456781 ] } },
{ "type": "Feature", "properties": { "STOP_NAME": "Cobblebank Railway Station", "minutes": 39.3, "tier": 45, "centre": "southern-cross", "MODE": "REGIONAL TRAIN" }, "geometry": { "type": "Point", "coordinates": [ 144.60410782, -37.71254554 ] } },
{ "type": "Feature", "properties": { "STOP_NAME": "Cobblebank Station", "minutes": 39.4, "tier": 45, "centre": "southern-cross", "MODE": "REGIONAL TRAIN" }, "geometry": { "type": "Point", "coordinates": [ 144.60384768, -37.71252223 ] } },
{ "type": "Feature", "properties": { "STOP_NAME": "Craigieburn Railway Station", "minutes": 36.7, "tier": 45, "centre": "southern-cross", "MODE": "REGIONAL TRAIN" }, "geometry": { "type": "Point", "coordinates": [ 144.943306009999986, -37.6019248 ] } },
{ "type": "Feature", "properties": { "STOP_NAME": "Craigieburn Station", "minutes": 36.6, "tier": 45, "centre": "southern-cross", "MODE": "REGIONAL TRAIN" }, "geometry": { "type": "Point", "coordinates": [ 144.943126510000013, -37.60227314 ] } },
{ "type": "Feature", "properties": { "STOP_NAME": "Dandenong Railway Station", "minutes": 48.9, "tier": 60, "centre": "southern-cross", "MODE": "REGIONAL TRAIN" }, "geometry": { "type": "Point", "coordinates": [ 145.20972537, -37.98996792 ] } },
{ "type": "Feature", "properties": { "STOP_NAME": "Dandenong Station", "minutes": 48.9, "tier": 60, "centre": "southern-cross", "MODE": "REGIONAL TRAIN" }, "geometry": { "type": "Point", "coordinates": [ 145.20972537, -37.98996792 ] } },
{ "type": "Feature", "properties": { "STOP_NAME": "Deer Park Railway Station", "minutes": 24.2, "tier": 30, "centre": "southern-cross", "MODE": "REGIONAL TRAIN" }, "geometry": { "type": "Point", "coordinates": [ 144.771080579999989, -37.77728102 ] } },
{ "type": "Feature", "properties": { "STOP_NAME": "Deer Park Station", "minutes": 24.2, "tier": 30, "centre": "southern-cross", "MODE": "REGIONAL TRAIN" }, "geometry": { "type": "Point", "coordinates": [ 144.770831210000011, -37.77726729 ] } },
{ "type": "Feature", "properties": { "STOP_NAME": "Donnybrook Railway Station", "minutes": 40.5, "tier": 45, "centre": "southern-cross", "MODE": "REGIONAL TRAIN" }, "geometry": { "type": "Point", "coordinates": [ 144.97020358, -37.54202766 ] } },
{ "type": "Feature", "properties": { "STOP_NAME": "Donnybrook Station", "minutes": 40.5, "tier": 45, "centre": "southern-cross", "MODE": "REGIONAL TRAIN" }, "geometry": { "type": "Point", "coordinates": [ 144.97012439, -37.5420263 ] } },
{ "type": "Feature", "properties": { "STOP_NAME": "Essendon Railway Station", "minutes": 11.3, "tier": 15, "centre": "southern-cross", "MODE": "REGIONAL TRAIN" }, "geometry": { "type": "Point", "coordinates": [ 144.91619750000001, -37.7560117 ] } },
{ "type": "Feature", "properties": { "STOP_NAME": "Essendon Station", "minutes": 11.3, "tier": 15, "centre": "southern-cross", "MODE": "REGIONAL TRAIN" }, "geometry": { "type": "Point", "coordinates": [ 144.916095649999988, -37.75600088 ] } },
{ "type": "Feature", "properties": { "STOP_NAME": "Flinders Street Railway Station", "minutes": 2.4, "tier": 15, "centre": "southern-cross", "MODE": "REGIONAL TRAIN" }, "geometry": { "type": "Point", "coordinates": [ 144.966964350000012, -37.81830513 ] } },
{ "type": "Feature", "properties": { "STOP_NAME": "Flinders Street Station", "minutes": 2.4, "tier": 15, "centre": "southern-cross", "MODE": "REGIONAL TRAIN" }, "geometry": { "type": "Point", "coordinates": [ 144.966964350000012, -37.81830513 ] } },
{ "type": "Feature", "properties": { "STOP_NAME": "Footscray Railway Station", "minutes": 6.4, "tier": 15, "centre": "southern-cross", "MODE": "REGIONAL TRAIN" }, "geometry": { "type": "Point", "coordinates": [ 144.902020060000012, -37.80141343 ] } },
{ "type": "Feature", "properties": { "STOP_NAME": "Footscray Station", "minutes": 6.4, "tier": 15, "centre": "southern-cross", "MODE": "REGIONAL TRAIN" }, "geometry": { "type": "Point", "coordinates": [ 144.902140339999988, -37.80157779 ] } },
{ "type": "Feature", "properties": { "STOP_NAME": "Heathcote Junction Railway Station", "minutes": 52.9, "tier": 60, "centre": "southern-cross", "MODE": "REGIONAL TRAIN" }, "geometry": { "type": "Point", "coordinates": [ 145.028249859999988, -37.37172322 ] } },
{ "type": "Feature", "properties": { "STOP_NAME": "Heathcote Junction Station", "minutes": 52.9, "tier": 60, "centre": "southern-cross", "MODE": "REGIONAL TRAIN" }, "geometry": { "type": "Point", "coordinates": [ 145.02794651, -37.37166409 ] } },
{ "type": "Feature", "properties": { "STOP_NAME": "Lara Railway Station", "minutes": 55.3, "tier": 60, "centre": "southern-cross", "MODE": "REGIONAL TRAIN" }, "geometry": { "type": "Point", "coordinates": [ 144.41440429, -38.02242764 ] } },
{ "type": "Feature", "properties": { "STOP_NAME": "Lara Station", "minutes": 55.3, "tier": 60, "centre": "southern-cross", "MODE": "REGIONAL TRAIN" }, "geometry": { "type": "Point", "coordinates": [ 144.41440429, -38.02242764 ] } },
{ "type": "Feature", "properties": { "STOP_NAME": "Little River Railway Station", "minutes": 49.3, "tier": 60, "centre": "southern-cross", "MODE": "REGIONAL TRAIN" }, "geometry": { "type": "Point", "coordinates": [ 144.49848487, -37.96292909 ] } },
{ "type": "Feature", "properties": { "STOP_NAME": "Little River Station", "minutes": 49.3, "tier": 60, "centre": "southern-cross", "MODE": "REGIONAL TRAIN" }, "geometry": { "type": "Point", "coordinates": [ 144.49848487, -37.96292909 ] } },
{ "type": "Feature", "properties": { "STOP_NAME": "Melton Railway Station", "minutes": 42.4, "tier": 45, "centre": "southern-cross", "MODE": "REGIONAL TRAIN" }, "geometry": { "type": "Point", "coordinates": [ 144.572098610000012, -37.70347382 ] } },
{ "type": "Feature", "properties": { "STOP_NAME": "Melton Station", "minutes": 42.4, "tier": 45, "centre": "southern-cross", "MODE": "REGIONAL TRAIN" }, "geometry": { "type": "Point", "coordinates": [ 144.572215770000014, -37.70335908 ] } },
{ "type": "Feature", "properties": { "STOP_NAME": "North Melbourne Railway Station", "minutes": 2.4, "tier": 15, "centre": "southern-cross", "MODE": "REGIONAL TRAIN" }, "geometry": { "type": "Point", "coordinates": [ 144.941510169999987, -37.80630984 ] } },
{ "type": "Feature", "properties": { "STOP_NAME": "North Melbourne Station", "minutes": 2.2, "tier": 15, "centre": "southern-cross", "MODE": "REGIONAL TRAIN" }, "geometry": { "type": "Point", "coordinates": [ 144.94216843, -37.80755595 ] } },
{ "type": "Feature", "properties": { "STOP_NAME": "Richmond Railway Station", "minutes": 6.2, "tier": 15, "centre": "southern-cross", "MODE": "REGIONAL TRAIN" }, "geometry": { "type": "Point", "coordinates": [ 144.99016426, -37.82407446 ] } },
{ "type": "Feature", "properties": { "STOP_NAME": "Richmond Station", "minutes": 6.2, "tier": 15, "centre": "southern-cross", "MODE": "REGIONAL TRAIN" }, "geometry": { "type": "Point", "coordinates": [ 144.99016426, -37.82407446 ] } },
{ "type": "Feature", "properties": { "STOP_NAME": "Rockbank Railway Station", "minutes": 35.2, "tier": 45, "centre": "southern-cross", "MODE": "REGIONAL TRAIN" }, "geometry": { "type": "Point", "coordinates": [ 144.650631479999987, -37.72926127 ] } },
{ "type": "Feature", "properties": { "STOP_NAME": "Rockbank Station", "minutes": 35.2, "tier": 45, "centre": "southern-cross", "MODE": "REGIONAL TRAIN" }, "geometry": { "type": "Point", "coordinates": [ 144.650713130000014, -37.72919081 ] } },
{ "type": "Feature", "properties": { "STOP_NAME": "Southern Cross Railway Station", "minutes": 0.0, "tier": 15, "centre": "southern-cross", "MODE": "REGIONAL TRAIN" }, "geometry": { "type": "Point", "coordinates": [ 144.952777059999988, -37.8186631 ] } },
{ "type": "Feature", "properties": { "STOP_NAME": "Southern Cross Station", "minutes": 0.0, "tier": 15, "centre": "southern-cross", "MODE": "REGIONAL TRAIN" }, "geometry": { "type": "Point", "coordinates": [ 144.95205759000001, -37.81838925 ] } },
{ "type": "Feature", "properties": { "STOP_NAME": "Sunbury Railway Station", "minutes": 55.1, "tier": 60, "centre": "southern-cross", "MODE": "REGIONAL TRAIN" }, "geometry": { "type": "Point", "coordinates": [ 144.727980980000012, -37.57928396 ] } },
{ "type": "Feature", "properties": { "STOP_NAME": "Sunbury Station", "minutes": 55.1, "tier": 60, "centre": "southern-cross", "MODE": "REGIONAL TRAIN" }, "geometry": { "type": "Point", "coordinates": [ 144.728030350000012, -37.57914973 ] } },
{ "type": "Feature", "properties": { "STOP_NAME": "Sunshine Railway Station", "minutes": 17.4, "tier": 30, "centre": "southern-cross", "MODE": "REGIONAL TRAIN" }, "geometry": { "type": "Point", "coordinates": [ 144.83287820000001, -37.78853633 ] } },
{ "type": "Feature", "properties": { "STOP_NAME": "Sunshine Station", "minutes": 17.5, "tier": 30, "centre": "southern-cross", "MODE": "REGIONAL TRAIN" }, "geometry": { "type": "Point", "coordinates": [ 144.83246381, -37.78833946 ] } },
{ "type": "Feature", "properties": { "STOP_NAME": "Tarneit Railway Station", "minutes": 31.2, "tier": 45, "centre": "southern-cross", "MODE": "REGIONAL TRAIN" }, "geometry": { "type": "Point", "coordinates": [ 144.69448757, -37.83215468 ] } },
{ "type": "Feature", "properties": { "STOP_NAME": "Tarneit Station", "minutes": 31.2, "tier": 45, "centre": "southern-cross", "MODE": "REGIONAL TRAIN" }, "geometry": { "type": "Point", "coordinates": [ 144.69471438, -37.83216813 ] } },
{ "type": "Feature", "properties": { "STOP_NAME": "Wallan Railway Station", "minutes": 49.6, "tier": 60, "centre": "southern-cross", "MODE": "REGIONAL TRAIN" }, "geometry": { "type": "Point", "coordinates": [ 145.005358269999988, -37.41653632 ] } },
{ "type": "Feature", "properties": { "STOP_NAME": "Wallan Station", "minutes": 49.5, "tier": 60, "centre": "southern-cross", "MODE": "REGIONAL TRAIN" }, "geometry": { "type": "Point", "coordinates": [ 145.00537226, -37.416861 ] } },
{ "type": "Feature", "properties": { "STOP_NAME": "Wandong Railway Station", "minutes": 55.6, "tier": 60, "centre": "southern-cross", "MODE": "REGIONAL TRAIN" }, "geometry": { "type": "Point", "coordinates": [ 145.02641544, -37.3546771 ] } },
{ "type": "Feature", "properties": { "STOP_NAME": "Wandong Station", "minutes": 55.5, "tier": 60, "centre": "southern-cross", "MODE": "REGIONAL TRAIN" }, "geometry": { "type": "Point", "coordinates": [ 145.026614990000013, -37.35524821 ] } },
{ "type": "Feature", "properties": { "STOP_NAME": "Watergardens Railway Station", "minutes": 33.5, "tier": 45, "centre": "southern-cross", "MODE": "REGIONAL TRAIN" }, "geometry": { "type": "Point", "coordinates": [ 144.77418099, -37.70111071 ] } },
{ "type": "Feature", "properties": { "STOP_NAME": "Watergardens Station", "minutes": 33.5, "tier": 45, "centre": "southern-cross", "MODE": "REGIONAL TRAIN" }, "geometry": { "type": "Point", "coordinates": [ 144.774094350000013, -37.70097389 ] } },
{ "type": "Feature", "properties": { "STOP_NAME": "Wyndham Vale Railway Station", "minutes": 40.0, "tier": 45, "centre": "southern-cross", "MODE": "REGIONAL TRAIN" }, "geometry": { "type": "Point", "coordinates": [ 144.60835702, -37.87252742 ] } },
{ "type": "Feature", "properties": { "STOP_NAME": "Wyndham Vale Station", "minutes": 40.1, "tier": 45, "centre": "southern-cross", "MODE": "REGIONAL TRAIN" }, "geometry": { "type": "Point", "coordinates": [ 144.608731909999989, -37.87288647 ] } }
]
}
