{
"type": "FeatureCollection",
"name": "commute_times_regional_train__bendigo",
"crs": { "type": "name", "properties": { "name": "urn:ogc:def:crs:OGC:1.3:CRS84" } },
"features": [
{ "type": "Feature", "properties": { "STOP_NAME": "Bendigo Railway Station", "minutes": 0.0, "tier": 15, "centre": "bendigo", "MODE": "REGIONAL TRAIN" }, "geometry": { "type": "Point", "coordinates": [ 144.28300893, -36.76566973 ] } },
{ "type": "Feature", "properties": { "STOP_NAME": "Bendigo Station", "minutes": 0.0, "tier": 15, "centre": "bendigo", "MODE": "REGIONAL TRAIN" }, "geometry": { "type": "Point", "coordinates": [ 144.28285447, -36.76560312 ] } },
{ "type": "Feature", "properties": { "STOP_NAME": "Castlemaine Railway Station", "minutes": 26.0, "tier": 30, "centre": "bendigo", "MODE": "REGIONAL TRAIN" }, "geometry": { "type": "Point", "coordinates": [ 144.21397878, -37.06284167 ] } },
{ "type": "Feature", "properties": { "STOP_NAME": "Castlemaine Station", "minutes": 26.0, "tier": 30, "centre": "bendigo", "MODE": "REGIONAL TRAIN" }, "geometry": { "type": "Point", "coordinates": [ 144.21394343, -37.0628859 ] } },
{ "type": "Feature", "properties": { "STOP_NAME": "Dingee Railway Station", "minutes": 37.8, "tier": 45, "centre": "bendigo", "MODE": "REGIONAL TRAIN" }, "geometry": { "type": "Point", "coordinates": [ 144.23112034, -36.36923291 ] } },
{ "type": "Feature", "properties": { "STOP_NAME": "Dingee Station", "minutes": 37.8, "tier": 45, "centre": "bendigo", "MODE": "REGIONAL TRAIN" }, "geometry": { "type": "Point", "coordinates": [ 144.23112034, -36.36923291 ] } },
{ "type": "Feature", "properties": { "STOP_NAME": "Eaglehawk Railway Station", "minutes": 12.1, "tier": 15, "centre": "bendigo", "MODE": "REGIONAL TRAIN" }, "geometry": { "type": "Point", "coordinates": [ 144.2483799, -36.71852539 ] } },
{ "type": "Feature", "properties": { "STOP_NAME": "Eaglehawk Station", "minutes": 12.1, "tier": 15, "centre": "bendigo", "MODE": "REGIONAL TRAIN" }, "geometry": { "type": "Point", "coordinates": [ 144.2483799, -36.71852539 ] } },
{ "type": "Feature", "properties": { "STOP_NAME": "Elmore Railway Station", "minutes": 38.7, "tier": 45, "centre": "bendigo", "MODE": "REGIONAL TRAIN" }, "geometry": { "type": "Point", "coordinates": [ 144.60775752, -36.49502002 ] } },
{ "type": "Feature", "properties": { "STOP_NAME": "Elmore Station", "minutes": 38.7, "tier": 45, "centre": "bendigo", "MODE": "REGIONAL TRAIN" }, "geometry": { "type": "Point", "coordinates": [ 144.60764035, -36.49483741 ] } },
{ "type": "Feature", "properties": { "STOP_NAME": "Epsom Railway Station", "minutes": 10.9, "tier": 15, "centre": "bendigo", "MODE": "REGIONAL TRAIN" }, "geometry": { "type": "Point", "coordinates": [ 144.3210526, -36.70628781 ] } },
{ "type": "Feature", "properties": { "STOP_NAME": "Epsom Station", "minutes": 10.9, "tier": 15, "centre": "bendigo", "MODE": "REGIONAL TRAIN" }, "geometry": { "type": "Point", "coordinates": [ 144.3209245, -36.70675355 ] } },
{ "type": "Feature", "properties": { "STOP_NAME": "Goornong Railway Station", "minutes": 26.1, "tier": 30, "centre": "bendigo", "MODE": "REGIONAL TRAIN" }, "geometry": { "type": "Point", "coordinates": [ 144.50347417, -36.61518327 ] } },
{ "type": "Feature", "properties": { "STOP_NAME": "Goornong Station", "minutes": 26.2, "tier": 30, "centre": "bendigo", "MODE": "REGIONAL TRAIN" }, "geometry": { "type": "Point", "coordinates": [ 144.50455978, -36.61480046 ] } },
{ "type": "Feature", "properties": { "STOP_NAME": "Huntly Railway Station", "minutes": 17.6, "tier": 30, "centre": "bendigo", "MODE": "REGIONAL TRAIN" }, "geometry": { "type": "Point", "coordinates": [ 144.36982046, -36.66584794 ] } },
{ "type": "Feature", "properties": { "STOP_NAME": "Huntly Station", "minutes": 17.5, "tier": 30, "centre": "bendigo", "MODE": "REGIONAL TRAIN" }, "geometry": { "type": "Point", "coordinates": [ 144.36825821, -36.66639019 ] } },
{ "type": "Feature", "properties": { "STOP_NAME": "Kangaroo Flat Railway Station", "minutes": 4.0, "tier": 15, "centre": "bendigo", "MODE": "REGIONAL TRAIN" }, "geometry": { "type": "Point", "coordinates": [ 144.24899016, -36.79483364 ] } },
{ "type": "Feature", "properties": { "STOP_NAME": "Kangaroo Flat Station", "minutes": 4.0, "tier": 15, "centre": "bendigo", "MODE": "REGIONAL TRAIN" }, "geometry": { "type": "Point", "coordinates": [ 144.24895657, -36.79483286 ] } },
{ "type": "Feature", "properties": { "STOP_NAME": "Kyneton Railway Station", "minutes": 49.0, "tier": 60, "centre": "bendigo", "MODE": "REGIONAL TRAIN" }, "geometry": { "type": "Point", "coordinates": [ 144.45060159, -37.25827885 ] } },
{ "type": "Feature", "properties": { "STOP_NAME": "Kyneton Station", "minutes": 49.0, "tier": 60, "centre": "bendigo", "MODE": "REGIONAL TRAIN" }, "geometry": { "type": "Point", "coordinates": [ 144.45080164, -37.25836427 ] } },
{ "type": "Feature", "properties": { "STOP_NAME": "Malmsbury Railway Station", "minutes": 40.0, "tier": 45, "centre": "bendigo", "MODE": "REGIONAL TRAIN" }, "geometry": { "type": "Point", "coordinates": [ 144.37532317, -37.18974032 ] } },
{ "type": "Feature", "properties": { "STOP_NAME": "Malmsbury Station", "minutes": 40.0, "tier": 45, "centre": "bendigo", "MODE": "REGIONAL TRAIN" }, "geometry": { "type": "Point", "coordinates": [ 144.37532192, -37.18977634 ] } },
{ "type": "Feature", "properties": { "STOP_NAME": "Raywood Railway Station", "minutes": 24.9, "tier": 30, "centre": "bendigo", "MODE": "REGIONAL TRAIN" }, "geometry": { "type": "Point", "coordinates": [ 144.201161039999988, -36.53195927 ] } },
{ "type": "Feature", "properties": { "STOP_NAME": "Raywood Station", "minutes": 24.8, "tier": 30, "centre": "bendigo", "MODE": "REGIONAL TRAIN" }, "geometry": { "type": "Point", "coordinates": [ 144.20141492, -36.53420922 ] } },
{ "type": "Feature", "properties": { "STOP_NAME": "Rochester Railway Station", "minutes": 48.8, "tier": 60, "centre": "bendigo", "MODE": "REGIONAL TRAIN" }, "geometry": { "type": "Point", "coordinates": [ 144.69868134, -36.3623605 ] } },
{ "type": "Feature", "properties": { "STOP_NAME": "Rochester Station", "minutes": 48.8, "tier": 60, "centre": "bendigo", "MODE": "REGIONAL TRAIN" }, "geometry": { "type": "Point", "coordinates": [ 144.698505, -36.36229401 ] } },
{ "type": "Feature", "properties": { "STOP_NAME": "Woodend Railway Station", "minutes": 56.7, "tier": 60, "centre": "bendigo", "MODE": "REGIONAL TRAIN" }, "geometry": { "type": "Point", "coordinates": [ 144.525890120000014, -37.35879859 ] } },
{ "type": "Feature", "properties": { "STOP_NAME": "Woodend Station", "minutes": 56.8, "tier": 60, "centre": "bendigo", "MODE": "REGIONAL TRAIN" }, "geometry": { "type": "Point", "coordinates": [ 144.52617876, -37.35929126 ] } }
]
}
