{
"type": "FeatureCollection",
"name": "commute_times_metro_train__southern-cross",
"crs": { "type": "name", "properties": { "name": "urn:ogc:def:crs:OGC:1.3:CRS84" } },
"features": [
{ "type": "Feature", "properties": { "STOP_NAME": "Aircraft Railway Station", "minutes": 27.7, "tier": 30, "centre": "southern-cross", "MODE": "METRO TRAIN" }, "geometry": { "type": "Point", "coordinates": [ 144.76080944, -37.86660595 ] } },
{ "type": "Feature", "properties": { "STOP_NAME": "Aircraft Station", "minutes": 27.1, "tier": 30, "centre": "southern-cross", "MODE": "METRO TRAIN" }, "geometry": { "type": "Point", "coordinates": [ 144.76028358, -37.86670408 ] } },
{ "type": "Feature", "properties": { "STOP_NAME": "Alamein Railway Station", "minutes": 33.4, "tier": 45, "centre": "southern-cross", "MODE": "METRO TRAIN" }, "geometry": { "type": "Point", "coordinates": [ 145.07965567, -37.86832039 ] } },
{ "type": "Feature", "properties": { "STOP_NAME": "Alamein Station", "minutes": 33.4, "tier": 45, "centre": "southern-cross", "MODE": "METRO TRAIN" }, "geometry": { "type": "Point", "coordinates": [ 145.079726889999989, -37.8682044 ] } },
{ "type": "Feature", "properties": { "STOP_NAME": "Albion Railway Station", "minutes": 47.9, "tier": 60, "centre": "southern-cross", "MODE": "METRO TRAIN" }, "geometry": { "type": "Point", "coordinates": [ 144.82470361, -37.77765281 ] } },
{ "type": "Feature", "properties": { "STOP_NAME": "Albion Station", "minutes": 45.0, "tier": 45, "centre": "southern-cross", "MODE": "METRO TRAIN" }, "geometry": { "type": "Point", "coordinates": [ 144.82460703000001, -37.77746178 ] } },
{ "type": "Feature", "properties": { "STOP_NAME": "Alphington Railway Station", "minutes": 26.4, "tier": 30, "centre": "southern-cross", "MODE": "METRO TRAIN" }, "geometry": { "type": "Point", "coordinates": [ 145.031254929999989, -37.77839363 ] } },
{ "type": "Feature", "properties": { "STOP_NAME": "Alphington Station", "minutes": 26.4, "tier": 30, "centre": "southern-cross", "MODE": "METRO TRAIN" }, "geometry": { "type": "Point", "coordinates": [ 145.03128755, -37.77844825 ] } },
{ "type": "Feature", "properties": { "STOP_NAME": "Altona Railway Station", "minutes": 30.1, "tier": 45, "centre": "southern-cross", "MODE": "METRO TRAIN" }, "geometry": { "type": "Point", "coordinates": [ 144.82964474, -37.8671476 ] } },
{ "type": "Feature", "properties": { "STOP_NAME": "Altona Station", "minutes": 30.1, "tier": 45, "centre": "southern-cross", "MODE": "METRO TRAIN" }, "geometry": { "type": "Point", "coordinates": [ 144.82943997000001, -37.86715283 ] } },
{ "type": "Feature", "properties": { "STOP_NAME": "Anstey Railway Station", "minutes": 29.2, "tier": 30, "centre": "southern-cross", "MODE": "METRO TRAIN" }, "geometry": { "type": "Point", "coordinates": [ 144.96068404, -37.76124203 ] } },
{ "type": "Feature", "properties": { "STOP_NAME": "Anstey Station", "minutes": 29.2, "tier": 30, "centre": "southern-cross", "MODE": "METRO TRAIN" }, "geometry": { "type": "Point", "coordinates": [ 144.96073879, -37.76131507 ] } },
{ "type": "Feature", "properties": { "STOP_NAME": "Armadale Railway Station", "minutes": 21.2, "tier": 30, "centre": "southern-cross", "MODE": "METRO TRAIN" }, "geometry": { "type": "Point", "coordinates": [ 145.019325540000011, -37.85645238 ] } },
{ "type": "Feature", "properties": { "STOP_NAME": "Armadale Station", "minutes": 21.1, "tier": 30, "centre": "southern-cross", "MODE": "METRO TRAIN" }, "geometry": { "type": "Point", "coordinates": [ 145.01897865, -37.85624829 ] } },
{ "type": "Feature", "properties": { "STOP_NAME": "Ascot Vale Railway Station", "minutes": 18.1, "tier": 30, "centre": "southern-cross", "MODE": "METRO TRAIN" }, "geometry": { "type": "Point", "coordinates": [ 144.921820739999987, -37.77530609 ] } },
{ "type": "Feature", "properties": { "STOP_NAME": "Ascot Vale Station", "minutes": 18.1, "tier": 30, "centre": "southern-cross", "MODE": "METRO TRAIN" }, "geometry": { "type": "Point", "coordinates": [ 144.921899419999988, -37.77533451 ] } },
{ "type": "Feature", "properties": { "STOP_NAME": "Ashburton Railway Station", "minutes": 32.4, "tier": 45, "centre": "southern-cross", "MODE": "METRO TRAIN" }, "geometry": { "type": "Point", "coordinates": [ 145.08134376000001, -37.86196753 ] } },
{ "type": "Feature", "properties": { "STOP_NAME": "Ashburton Station", "minutes": 32.4, "tier": 45, "centre": "southern-cross", "MODE": "METRO TRAIN" }, "geometry": { "type": "Point", "coordinates": [ 145.08139014, -37.86193224 ] } },
{ "type": "Feature", "properties": { "STOP_NAME": "Aspendale Railway Station", "minutes": 49.7, "tier": 60, "centre": "southern-cross", "MODE": "METRO TRAIN" }, "geometry": { "type": "Point", "coordinates": [ 145.10214962, -38.02722019 ] } },
{ "type": "Feature", "properties": { "STOP_NAME": "Aspendale Station", "minutes": 47.0, "tier": 60, "centre": "southern-cross", "MODE": "METRO TRAIN" }, "geometry": { "type": "Point", "coordinates": [ 145.10181775, -38.02683635 ] } },
{ "type": "Feature", "properties": { "STOP_NAME": "Auburn Railway Station", "minutes": 19.7, "tier": 30, "centre": "southern-cross", "MODE": "METRO TRAIN" }, "geometry": { "type": "Point", "coordinates": [ 145.04584366, -37.82239831 ] } },
{ "type": "Feature", "properties": { "STOP_NAME": "Auburn Station", "minutes": 19.4, "tier": 30, "centre": "southern-cross", "MODE": "METRO TRAIN" }, "geometry": { "type": "Point", "coordinates": [ 145.046055380000013, -37.82255502 ] } },
{ "type": "Feature", "properties": { "STOP_NAME": "Balaclava Railway Station", "minutes": 24.4, "tier": 30, "centre": "southern-cross", "MODE": "METRO TRAIN" }, "geometry": { "type": "Point", "coordinates": [ 144.9935121, -37.86948773 ] } },
{ "type": "Feature", "properties": { "STOP_NAME": "Balaclava Station", "minutes": 24.4, "tier": 30, "centre": "southern-cross", "MODE": "METRO TRAIN" }, "geometry": { "type": "Point", "coordinates": [ 144.99355315, -37.86965064 ] } },
{ "type": "Feature", "properties": { "STOP_NAME": "Batman Railway Station", "minutes": 37.9, "tier": 45, "centre": "southern-cross", "MODE": "METRO TRAIN" }, "geometry": { "type": "Point", "coordinates": [ 144.96284055000001, -37.73352285 ] } },
{ "type": "Feature", "properties": { "STOP_NAME": "Batman Station", "minutes": 35.2, "tier": 45, "centre": "southern-cross", "MODE": "METRO TRAIN" }, "geometry": { "type": "Point", "coordinates": [ 144.9627671, -37.73289075 ] } },
{ "type": "Feature", "properties": { "STOP_NAME": "Bayswater Railway Station", "minutes": 44.4, "tier": 45, "centre": "southern-cross", "MODE": "METRO TRAIN" }, "geometry": { "type": "Point", "coordinates": [ 145.26813639, -37.84173004 ] } },
{ "type": "Feature", "properties": { "STOP_NAME": "Bayswater Station", "minutes": 44.4, "tier": 45, "centre": "southern-cross", "MODE": "METRO TRAIN" }, "geometry": { "type": "Point", "coordinates": [ 145.26817867, -37.84186584 ] } },
{ "type": "Feature", "properties": { "STOP_NAME": "Bell Railway Station", "minutes": 29.7, "tier": 30, "centre": "southern-cross", "MODE": "METRO TRAIN" }, "geometry": { "type": "Point", "coordinates": [ 145.00015503, -37.74556212 ] } },
{ "type": "Feature", "properties": { "STOP_NAME": "Bell St", "minutes": 28.4, "tier": 30, "centre": "southern-cross", "MODE": "METRO TRAIN" }, "geometry": { "type": "Point", "coordinates": [ 145.000286069999987, -37.7457536 ] } },
{ "type": "Feature", "properties": { "STOP_NAME": "Bell Station", "minutes": 28.4, "tier": 30, "centre": "southern-cross", "MODE": "METRO TRAIN" }, "geometry": { "type": "Point", "coordinates": [ 145.000369299999988, -37.74603438 ] } },
{ "type": "Feature", "properties": { "STOP_NAME": "Bentleigh Railway Station", "minutes": 38.4, "tier": 45, "centre": "southern-cross", "MODE": "METRO TRAIN" }, "geometry": { "type": "Point", "coordinates": [ 145.03699513, -37.91742457 ] } },
{ "type": "Feature", "properties": { "STOP_NAME": "Bentleigh Station", "minutes": 36.0, "tier": 45, "centre": "southern-cross", "MODE": "METRO TRAIN" }, "geometry": { "type": "Point", "coordinates": [ 145.03698125, -37.91709091 ] } },
{ "type": "Feature", "properties": { "STOP_NAME": "Bike & Ride", "minutes": 29.4, "tier": 30, "centre": "southern-cross", "MODE": "METRO TRAIN" }, "geometry": { "type": "Point", "coordinates": [ 145.0001622, -37.74613901 ] } },
{ "type": "Feature", "properties": { "STOP_NAME": "Bike & Ride 1", "minutes": 31.4, "tier": 45, "centre": "southern-cross", "MODE": "METRO TRAIN" }, "geometry": { "type": "Point", "coordinates": [ 145.0005372, -37.73853031 ] } },
{ "type": "Feature", "properties": { "STOP_NAME": "Bike & Ride 2", "minutes": 31.9, "tier": 45, "centre": "southern-cross", "MODE": "METRO TRAIN" }, "geometry": { "type": "Point", "coordinates": [ 145.00058611, -37.73924308 ] } },
{ "type": "Feature", "properties": { "STOP_NAME": "Bike and Ride", "minutes": 47.9, "tier": 60, "centre": "southern-cross", "MODE": "METRO TRAIN" }, "geometry": { "type": "Point", "coordinates": [ 145.03103116, -37.65228518 ] } },
{ "type": "Feature", "properties": { "STOP_NAME": "Bike and Ride 1", "minutes": 57.5, "tier": 60, "centre": "southern-cross", "MODE": "METRO TRAIN" }, "geometry": { "type": "Point", "coordinates": [ 145.097467279999989, -37.62242793 ] } },
{ "type": "Feature", "properties": { "STOP_NAME": "Blackburn Railway Station", "minutes": 28.4, "tier": 30, "centre": "southern-cross", "MODE": "METRO TRAIN" }, "geometry": { "type": "Point", "coordinates": [ 145.15001354, -37.82007075 ] } },
{ "type": "Feature", "properties": { "STOP_NAME": "Blackburn Station", "minutes": 28.4, "tier": 30, "centre": "southern-cross", "MODE": "METRO TRAIN" }, "geometry": { "type": "Point", "coordinates": [ 145.15006717, -37.82019776 ] } },
{ "type": "Feature", "properties": { "STOP_NAME": "Bonbeach Railway Station", "minutes": 53.0, "tier": 60, "centre": "southern-cross", "MODE": "METRO TRAIN" }, "geometry": { "type": "Point", "coordinates": [ 145.1201058, -38.06547485 ] } },
{ "type": "Feature", "properties": { "STOP_NAME": "Bonbeach Station", "minutes": 53.0, "tier": 60, "centre": "southern-cross", "MODE": "METRO TRAIN" }, "geometry": { "type": "Point", "coordinates": [ 145.12005815, -38.06555519 ] } },
{ "type": "Feature", "properties": { "STOP_NAME": "Boronia Railway Station", "minutes": 47.4, "tier": 60, "centre": "southern-cross", "MODE": "METRO TRAIN" }, "geometry": { "type": "Point", "coordinates": [ 145.28470457, -37.86040238 ] } },
{ "type": "Feature", "properties": { "STOP_NAME": "Boronia Station", "minutes": 47.4, "tier": 60, "centre": "southern-cross", "MODE": "METRO TRAIN" }, "geometry": { "type": "Point", "coordinates": [ 145.28473574, -37.86052901 ] } },
{ "type": "Feature", "properties": { "STOP_NAME": "Box Hill Railway Station", "minutes": 24.4, "tier": 30, "centre": "southern-cross", "MODE": "METRO TRAIN" }, "geometry": { "type": "Point", "coordinates": [ 145.12142893, -37.81922165 ] } },
{ "type": "Feature", "properties": { "STOP_NAME": "Box Hill Station", "minutes": 26.2, "tier": 30, "centre": "southern-cross", "MODE": "METRO TRAIN" }, "geometry": { "type": "Point", "coordinates": [ 145.12183478, -37.81934528 ] } },
{ "type": "Feature", "properties": { "STOP_NAME": "Bridge St", "minutes": 21.4, "tier": 30, "centre": "southern-cross", "MODE": "METRO TRAIN" }, "geometry": { "type": "Point", "coordinates": [ 144.99319653, -37.77795864 ] } },
{ "type": "Feature", "properties": { "STOP_NAME": "Bridge St/Railway St", "minutes": 23.2, "tier": 30, "centre": "southern-cross", "MODE": "METRO TRAIN" }, "geometry": { "type": "Point", "coordinates": [ 144.993267550000013, -37.7778517 ] } },
{ "type": "Feature", "properties": { "STOP_NAME": "Brighton Beach Railway Station", "minutes": 38.0, "tier": 45, "centre": "southern-cross", "MODE": "METRO TRAIN" }, "geometry": { "type": "Point", "coordinates": [ 144.98915355, -37.92648432 ] } },
{ "type": "Feature", "properties": { "STOP_NAME": "Brighton Beach Station", "minutes": 38.0, "tier": 45, "centre": "southern-cross", "MODE": "METRO TRAIN" }, "geometry": { "type": "Point", "coordinates": [ 144.98921409, -37.92635018 ] } },
{ "type": "Feature", "properties": { "STOP_NAME": "Broadmeadows Railway Station", "minutes": 39.0, "tier": 45, "centre": "southern-cross", "MODE": "METRO TRAIN" }, "geometry": { "type": "Point", "coordinates": [ 144.91961322, -37.68304926 ] } },
{ "type": "Feature", "properties": { "STOP_NAME": "Broadmeadows Station", "minutes": 39.0, "tier": 45, "centre": "southern-cross", "MODE": "METRO TRAIN" }, "geometry": { "type": "Point", "coordinates": [ 144.9197394, -37.68299742 ] } },
{ "type": "Feature", "properties": { "STOP_NAME": "Brunswick Railway Station", "minutes": 27.2, "tier": 30, "centre": "southern-cross", "MODE": "METRO TRAIN" }, "geometry": { "type": "Point", "coordinates": [ 144.95958654, -37.76772055 ] } },
{ "type": "Feature", "properties": { "STOP_NAME": "Brunswick Station", "minutes": 27.2, "tier": 30, "centre": "southern-cross", "MODE": "METRO TRAIN" }, "geometry": { "type": "Point", "coordinates": [ 144.95965388, -37.76774875 ] } },
{ "type": "Feature", "properties": { "STOP_NAME": "Burnley Railway Station", "minutes": 15.1, "tier": 30, "centre": "southern-cross", "MODE": "METRO TRAIN" }, "geometry": { "type": "Point", "coordinates": [ 145.00755515, -37.82756022 ] } },
{ "type": "Feature", "properties": { "STOP_NAME": "Burnley Station", "minutes": 15.1, "tier": 30, "centre": "southern-cross", "MODE": "METRO TRAIN" }, "geometry": { "type": "Point", "coordinates": [ 145.00765396, -37.82768805 ] } },
{ "type": "Feature", "properties": { "STOP_NAME": "Burwood Railway Station", "minutes": 30.4, "tier": 45, "centre": "southern-cross", "MODE": "METRO TRAIN" }, "geometry": { "type": "Point", "coordinates": [ 145.08051107, -37.85156328 ] } },
{ "type": "Feature", "properties": { "STOP_NAME": "Burwood Station", "minutes": 30.4, "tier": 45, "centre": "southern-cross", "MODE": "METRO TRAIN" }, "geometry": { "type": "Point", "coordinates": [ 145.08061168, -37.85162801 ] } },
{ "type": "Feature", "properties": { "STOP_NAME": "Camberwell Railway Station", "minutes": 19.4, "tier": 30, "centre": "southern-cross", "MODE": "METRO TRAIN" }, "geometry": { "type": "Point", "coordinates": [ 145.05869718, -37.82656714 ] } },
{ "type": "Feature", "properties": { "STOP_NAME": "Camberwell Station", "minutes": 24.8, "tier": 30, "centre": "southern-cross", "MODE": "METRO TRAIN" }, "geometry": { "type": "Point", "coordinates": [ 145.05836453, -37.82668783 ] } },
{ "type": "Feature", "properties": { "STOP_NAME": "Canterbury Railway Station", "minutes": 28.5, "tier": 30, "centre": "southern-cross", "MODE": "METRO TRAIN" }, "geometry": { "type": "Point", "coordinates": [ 145.081224240000012, -37.82448518 ] } },
{ "type": "Feature", "properties": { "STOP_NAME": "Canterbury Station", "minutes": 25.4, "tier": 30, "centre": "southern-cross", "MODE": "METRO TRAIN" }, "geometry": { "type": "Point", "coordinates": [ 145.080661709999987, -37.82471032 ] } },
{ "type": "Feature", "properties": { "STOP_NAME": "Carnegie Railway Station", "minutes": 47.4, "tier": 60, "centre": "southern-cross", "MODE": "METRO TRAIN" }, "geometry": { "type": "Point", "coordinates": [ 145.05857506000001, -37.88624148 ] } },
{ "type": "Feature", "properties": { "STOP_NAME": "Carnegie Station", "minutes": 47.5, "tier": 60, "centre": "southern-cross", "MODE": "METRO TRAIN" }, "geometry": { "type": "Point", "coordinates": [ 145.05872045000001, -37.886334 ] } },
{ "type": "Feature", "properties": { "STOP_NAME": "Carrum Railway Station", "minutes": 57.7, "tier": 60, "centre": "southern-cross", "MODE": "METRO TRAIN" }, "geometry": { "type": "Point", "coordinates": [ 145.122809600000011, -38.07653027 ] } },
{ "type": "Feature", "properties": { "STOP_NAME": "Carrum Station", "minutes": 55.0, "tier": 60, "centre": "southern-cross", "MODE": "METRO TRAIN" }, "geometry": { "type": "Point", "coordinates": [ 145.12304429, -38.07760641 ] } },
{ "type": "Feature", "properties": { "STOP_NAME": "Caulfield Railway Station", "minutes": 27.3, "tier": 30, "centre": "southern-cross", "MODE": "METRO TRAIN" }, "geometry": { "type": "Point", "coordinates": [ 145.04252478, -37.87745946 ] } },
{ "type": "Feature", "properties": { "STOP_NAME": "Caulfield Station", "minutes": 26.9, "tier": 30, "centre": "southern-cross", "MODE": "METRO TRAIN" }, "geometry": { "type": "Point", "coordinates": [ 145.0420269, -37.87737007 ] } },
{ "type": "Feature", "properties": { "STOP_NAME": "Chatham Railway Station", "minutes": 27.4, "tier": 30, "centre": "southern-cross", "MODE": "METRO TRAIN" }, "geometry": { "type": "Point", "coordinates": [ 145.08864793, -37.82429952 ] } },
{ "type": "Feature", "properties": { "STOP_NAME": "Chatham Station", "minutes": 27.4, "tier": 30, "centre": "southern-cross", "MODE": "METRO TRAIN" }, "geometry": { "type": "Point", "coordinates": [ 145.08866022, -37.82426367 ] } },
{ "type": "Feature", "properties": { "STOP_NAME": "Chelsea Railway Station", "minutes": 51.0, "tier": 60, "centre": "southern-cross", "MODE": "METRO TRAIN" }, "geometry": { "type": "Point", "coordinates": [ 145.1166795, -38.05329032 ] } },
{ "type": "Feature", "properties": { "STOP_NAME": "Chelsea Station", "minutes": 51.0, "tier": 60, "centre": "southern-cross", "MODE": "METRO TRAIN" }, "geometry": { "type": "Point", "coordinates": [ 145.116544870000013, -38.05320706 ] } },
{ "type": "Feature", "properties": { "STOP_NAME": "Cheltenham Railway Station", "minutes": 36.0, "tier": 45, "centre": "southern-cross", "MODE": "METRO TRAIN" }, "geometry": { "type": "Point", "coordinates": [ 145.054557929999987, -37.96664989 ] } },
{ "type": "Feature", "properties": { "STOP_NAME": "Cheltenham Station", "minutes": 36.0, "tier": 45, "centre": "southern-cross", "MODE": "METRO TRAIN" }, "geometry": { "type": "Point", "coordinates": [ 145.05446762, -37.96662137 ] } },
{ "type": "Feature", "properties": { "STOP_NAME": "Clapham St", "minutes": 29.5, "tier": 30, "centre": "southern-cross", "MODE": "METRO TRAIN" }, "geometry": { "type": "Point", "coordinates": [ 144.99841414, -37.75499505 ] } },
{ "type": "Feature", "properties": { "STOP_NAME": "Clifton Hill Railway Station", "minutes": 19.2, "tier": 30, "centre": "southern-cross", "MODE": "METRO TRAIN" }, "geometry": { "type": "Point", "coordinates": [ 144.9954167, -37.78865745 ] } },
{ "type": "Feature", "properties": { "STOP_NAME": "Clifton Hill Station", "minutes": 20.1, "tier": 30, "centre": "southern-cross", "MODE": "METRO TRAIN" }, "geometry": { "type": "Point", "coordinates": [ 144.99550102, -37.78847865 ] } },
{ "type": "Feature", "properties": { "STOP_NAME": "Coburg Railway Station", "minutes": 32.2, "tier": 45, "centre": "southern-cross", "MODE": "METRO TRAIN" }, "geometry": { "type": "Point", "coordinates": [ 144.963336340000012, -37.74234502 ] } },
{ "type": "Feature", "properties": { "STOP_NAME": "Coburg Station", "minutes": 32.2, "tier": 45, "centre": "southern-cross", "MODE": "METRO TRAIN" }, "geometry": { "type": "Point", "coordinates": [ 144.96338122, -37.74236382 ] } },
{ "type": "Feature", "properties": { "STOP_NAME": "Collingwood Railway Station", "minutes": 13.4, "tier": 15, "centre": "southern-cross", "MODE": "METRO TRAIN" }, "geometry": { "type": "Point", "coordinates": [ 144.99374967, -37.80452593 ] } },
{ "type": "Feature", "properties": { "STOP_NAME": "Collingwood Station", "minutes": 13.4, "tier": 15, "centre": "southern-cross", "MODE": "METRO TRAIN" }, "geometry": { "type": "Point", "coordinates": [ 144.993707910000012, -37.80439004 ] } },
{ "type": "Feature", "properties": { "STOP_NAME": "Concourse", "minutes": 28.4, "tier": 30, "centre": "southern-cross", "MODE": "METRO TRAIN" }, "geometry": { "type": "Point", "coordinates": [ 145.00025829, -37.74594237 ] } },
{ "type": "Feature", "properties": { "STOP_NAME": "Connex", "minutes": 29.7, "tier": 30, "centre": "southern-cross", "MODE": "METRO TRAIN" }, "geometry": { "type": "Point", "coordinates": [ 145.00015503, -37.74556212 ] } },
{ "type": "Feature", "properties": { "STOP_NAME": "Coolaroo Railway Station", "minutes": 46.8, "tier": 60, "centre": "southern-cross", "MODE": "METRO TRAIN" }, "geometry": { "type": "Point", "coordinates": [ 144.92604123000001, -37.66111042 ] } },
{ "type": "Feature", "properties": { "STOP_NAME": "Coolaroo Station", "minutes": 46.2, "tier": 60, "centre": "southern-cross", "MODE": "METRO TRAIN" }, "geometry": { "type": "Point", "coordinates": [ 144.92601811, -37.66153357 ] } },
{ "type": "Feature", "properties": { "STOP_NAME": "Cooper St", "minutes": 47.9, "tier": 60, "centre": "southern-cross", "MODE": "METRO TRAIN" }, "geometry": { "type": "Point", "coordinates": [ 145.03101088, -37.65219472 ] } },
{ "type": "Feature", "properties": { "STOP_NAME": "Craigieburn Railway Station", "minutes": 56.2, "tier": 60, "centre": "southern-cross", "MODE": "METRO TRAIN" }, "geometry": { "type": "Point", "coordinates": [ 144.943306009999986, -37.6019248 ] } },
{ "type": "Feature", "properties": { "STOP_NAME": "Craigieburn Station", "minutes": 52.2, "tier": 60, "centre": "southern-cross", "MODE": "METRO TRAIN" }, "geometry": { "type": "Point", "coordinates": [ 144.94314122, -37.60256178 ] } },
{ "type": "Feature", "properties": { "STOP_NAME": "Cramer St", "minutes": 30.4, "tier": 45, "centre": "southern-cross", "MODE": "METRO TRAIN" }, "geometry": { "type": "Point", "coordinates": [ 145.00050288, -37.7389623 ] } },
{ "type": "Feature", "properties": { "STOP_NAME": "Croxton Railway Station", "minutes": 25.4, "tier": 30, "centre": "southern-cross", "MODE": "METRO TRAIN" }, "geometry": { "type": "Point", "coordinates": [ 144.99705619, -37.764101 ] } },
{ "type": "Feature", "properties": { "STOP_NAME": "Croxton Station", "minutes": 25.4, "tier": 30, "centre": "southern-cross", "MODE": "METRO TRAIN" }, "geometry": { "type": "Point", "coordinates": [ 144.99710084, -37.7641288 ] } },
{ "type": "Feature", "properties": { "STOP_NAME": "Croydon Railway Station", "minutes": 45.4, "tier": 60, "centre": "southern-cross", "MODE": "METRO TRAIN" }, "geometry": { "type": "Point", "coordinates": [ 145.28048737, -37.79530018 ] } },
{ "type": "Feature", "properties": { "STOP_NAME": "Croydon Station", "minutes": 45.4, "tier": 60, "centre": "southern-cross", "MODE": "METRO TRAIN" }, "geometry": { "type": "Point", "coordinates": [ 145.28070162, -37.79536639 ] } },
{ "type": "Feature", "properties": { "STOP_NAME": "Darebin Railway Station", "minutes": 28.4, "tier": 30, "centre": "southern-cross", "MODE": "METRO TRAIN" }, "geometry": { "type": "Point", "coordinates": [ 145.038475979999987, -37.77496341 ] } },
{ "type": "Feature", "properties": { "STOP_NAME": "Darebin Station", "minutes": 28.4, "tier": 30, "centre": "southern-cross", "MODE": "METRO TRAIN" }, "geometry": { "type": "Point", "coordinates": [ 145.03862494, -37.77491182 ] } },
{ "type": "Feature", "properties": { "STOP_NAME": "Darling Railway Station", "minutes": 32.4, "tier": 45, "centre": "southern-cross", "MODE": "METRO TRAIN" }, "geometry": { "type": "Point", "coordinates": [ 145.06295083, -37.86895684 ] } },
{ "type": "Feature", "properties": { "STOP_NAME": "Darling Station", "minutes": 32.4, "tier": 45, "centre": "southern-cross", "MODE": "METRO TRAIN" }, "geometry": { "type": "Point", "coordinates": [ 145.062860160000014, -37.86894634 ] } },
{ "type": "Feature", "properties": { "STOP_NAME": "Dennis Railway Station", "minutes": 21.4, "tier": 30, "centre": "southern-cross", "MODE": "METRO TRAIN" }, "geometry": { "type": "Point", "coordinates": [ 145.008241629999986, -37.77918729 ] } },
{ "type": "Feature", "properties": { "STOP_NAME": "Dennis Station", "minutes": 21.4, "tier": 30, "centre": "southern-cross", "MODE": "METRO TRAIN" }, "geometry": { "type": "Point", "coordinates": [ 145.00825153, -37.77924153 ] } },
{ "type": "Feature", "properties": { "STOP_NAME": "Eaglemont Railway Station", "minutes": 31.4, "tier": 45, "centre": "southern-cross", "MODE": "METRO TRAIN" }, "geometry": { "type": "Point", "coordinates": [ 145.053942690000014, -37.76358553 ] } },
{ "type": "Feature", "properties": { "STOP_NAME": "Eaglemont Station", "minutes": 31.4, "tier": 45, "centre": "southern-cross", "MODE": "METRO TRAIN" }, "geometry": { "type": "Point", "coordinates": [ 145.053882179999988, -37.76372873 ] } },
{ "type": "Feature", "properties": { "STOP_NAME": "East Camberwell Railway Station", "minutes": 23.4, "tier": 30, "centre": "southern-cross", "MODE": "METRO TRAIN" }, "geometry": { "type": "Point", "coordinates": [ 145.068190249999986, -37.82589419 ] } },
{ "type": "Feature", "properties": { "STOP_NAME": "East Camberwell Station", "minutes": 23.4, "tier": 30, "centre": "southern-cross", "MODE": "METRO TRAIN" }, "geometry": { "type": "Point", "coordinates": [ 145.06824844, -37.82584107 ] } },
{ "type": "Feature", "properties": { "STOP_NAME": "East Malvern Railway Station", "minutes": 36.8, "tier": 45, "centre": "southern-cross", "MODE": "METRO TRAIN" }, "geometry": { "type": "Point", "coordinates": [ 145.069393240000011, -37.87692101 ] } },
{ "type": "Feature", "properties": { "STOP_NAME": "East Malvern Station", "minutes": 32.4, "tier": 45, "centre": "southern-cross", "MODE": "METRO TRAIN" }, "geometry": { "type": "Point", "coordinates": [ 145.06911007, -37.87688031 ] } },
{ "type": "Feature", "properties": { "STOP_NAME": "East Richmond Railway Station", "minutes": 17.4, "tier": 30, "centre": "southern-cross", "MODE": "METRO TRAIN" }, "geometry": { "type": "Point", "coordinates": [ 144.99706569, -37.82639995 ] } },
{ "type": "Feature", "properties": { "STOP_NAME": "East Richmond Station", "minutes": 15.4, "tier": 30, "centre": "southern-cross", "MODE": "METRO TRAIN" }, "geometry": { "type": "Point", "coordinates": [ 144.99675591, -37.82651183 ] } },
{ "type": "Feature", "properties": { "STOP_NAME": "Edithvale Railway Station", "minutes": 52.1, "tier": 60, "centre": "southern-cross", "MODE": "METRO TRAIN" }, "geometry": { "type": "Point", "coordinates": [ 145.1073221, -38.03606293 ] } },
{ "type": "Feature", "properties": { "STOP_NAME": "Edithvale Station", "minutes": 49.0, "tier": 60, "centre": "southern-cross", "MODE": "METRO TRAIN" }, "geometry": { "type": "Point", "coordinates": [ 145.10737301, -38.03629805 ] } },
{ "type": "Feature", "properties": { "STOP_NAME": "Elizabeth St", "minutes": 13.7, "tier": 15, "centre": "southern-cross", "MODE": "METRO TRAIN" }, "geometry": { "type": "Point", "coordinates": [ 144.992563639999986, -37.81099422 ] } },
{ "type": "Feature", "properties": { "STOP_NAME": "Elsternwick Railway Station", "minutes": 31.9, "tier": 45, "centre": "southern-cross", "MODE": "METRO TRAIN" }, "geometry": { "type": "Point", "coordinates": [ 145.000897869999989, -37.88475311 ] } },
{ "type": "Feature", "properties": { "STOP_NAME": "Elsternwick Station", "minutes": 28.4, "tier": 30, "centre": "southern-cross", "MODE": "METRO TRAIN" }, "geometry": { "type": "Point", "coordinates": [ 145.00118021, -37.88524454 ] } },
{ "type": "Feature", "properties": { "STOP_NAME": "Epping Railway Station", "minutes": 48.3, "tier": 60, "centre": "southern-cross", "MODE": "METRO TRAIN" }, "geometry": { "type": "Point", "coordinates": [ 145.03107934, -37.65217784 ] } },
{ "type": "Feature", "properties": { "STOP_NAME": "Epping Station", "minutes": 49.4, "tier": 60, "centre": "southern-cross", "MODE": "METRO TRAIN" }, "geometry": { "type": "Point", "coordinates": [ 145.03145275, -37.6522021 ] } },
{ "type": "Feature", "properties": { "STOP_NAME": "Essendon Railway Station", "minutes": 22.1, "tier": 30, "centre": "southern-cross", "MODE": "METRO TRAIN" }, "geometry": { "type": "Point", "coordinates": [ 144.91619750000001, -37.7560117 ] } },
{ "type": "Feature", "properties": { "STOP_NAME": "Essendon Station", "minutes": 24.5, "tier": 30, "centre": "southern-cross", "MODE": "METRO TRAIN" }, "geometry": { "type": "Point", "coordinates": [ 144.91616069, -37.75611017 ] } },
{ "type": "Feature", "properties": { "STOP_NAME": "Ethel St", "minutes": 27.4, "tier": 30, "centre": "southern-cross", "MODE": "METRO TRAIN" }, "geometry": { "type": "Point", "coordinates": [ 144.9987639, -37.75507308 ] } },
{ "type": "Feature", "properties": { "STOP_NAME": "Fairfield Railway Station", "minutes": 23.4, "tier": 30, "centre": "southern-cross", "MODE": "METRO TRAIN" }, "geometry": { "type": "Point", "coordinates": [ 145.0169053, -37.77917126 ] } },
{ "type": "Feature", "properties": { "STOP_NAME": "Fairfield Station", "minutes": 23.4, "tier": 30, "centre": "southern-cross", "MODE": "METRO TRAIN" }, "geometry": { "type": "Point", "coordinates": [ 145.01698306, -37.77923565 ] } },
{ "type": "Feature", "properties": { "STOP_NAME": "Falconer St", "minutes": 22.5, "tier": 30, "centre": "southern-cross", "MODE": "METRO TRAIN" }, "geometry": { "type": "Point", "coordinates": [ 144.991688759999988, -37.78290747 ] } },
{ "type": "Feature", "properties": { "STOP_NAME": "Fawkner Railway Station", "minutes": 40.8, "tier": 45, "centre": "southern-cross", "MODE": "METRO TRAIN" }, "geometry": { "type": "Point", "coordinates": [ 144.96054503, -37.71462129 ] } },
{ "type": "Feature", "properties": { "STOP_NAME": "Fawkner Station", "minutes": 38.2, "tier": 45, "centre": "southern-cross", "MODE": "METRO TRAIN" }, "geometry": { "type": "Point", "coordinates": [ 144.96064458, -37.71512768 ] } },
{ "type": "Feature", "properties": { "STOP_NAME": "Ferntree Gully Railway Station", "minutes": 55.5, "tier": 60, "centre": "southern-cross", "MODE": "METRO TRAIN" }, "geometry": { "type": "Point", "coordinates": [ 145.295251259999986, -37.88169799 ] } },
{ "type": "Feature", "properties": { "STOP_NAME": "Ferntree Gully Station", "minutes": 53.4, "tier": 60, "centre": "southern-cross", "MODE": "METRO TRAIN" }, "geometry": { "type": "Point", "coordinates": [ 145.29495246, -37.88134219 ] } },
{ "type": "Feature", "properties": { "STOP_NAME": "Flagstaff Railway Station", "minutes": 7.3, "tier": 15, "centre": "southern-cross", "MODE": "METRO TRAIN" }, "geometry": { "type": "Point", "coordinates": [ 144.955665110000012, -37.8119815 ] } },
{ "type": "Feature", "properties": { "STOP_NAME": "Flagstaff Station", "minutes": 6.7, "tier": 15, "centre": "southern-cross", "MODE": "METRO TRAIN" }, "geometry": { "type": "Point", "coordinates": [ 144.95604277000001, -37.81187992 ] } },
{ "type": "Feature", "properties": { "STOP_NAME": "Flemington Bridge Railway Station", "minutes": 21.2, "tier": 30, "centre": "southern-cross", "MODE": "METRO TRAIN" }, "geometry": { "type": "Point", "coordinates": [ 144.93932328, -37.78813995 ] } },
{ "type": "Feature", "properties": { "STOP_NAME": "Flemington Bridge Station", "minutes": 21.2, "tier": 30, "centre": "southern-cross", "MODE": "METRO TRAIN" }, "geometry": { "type": "Point", "coordinates": [ 144.93921738, -37.78827327 ] } },
{ "type": "Feature", "properties": { "STOP_NAME": "Flemington Racecourse Railway Station", "minutes": 43.5, "tier": 45, "centre": "southern-cross", "MODE": "METRO TRAIN" }, "geometry": { "type": "Point", "coordinates": [ 144.90757709, -37.78721073 ] } },
{ "type": "Feature", "properties": { "STOP_NAME": "Flemington Racecourse Station", "minutes": 39.3, "tier": 45, "centre": "southern-cross", "MODE": "METRO TRAIN" }, "geometry": { "type": "Point", "coordinates": [ 144.90718782, -37.78772649 ] } },
{ "type": "Feature", "properties": { "STOP_NAME": "Flinders Street Railway Station", "minutes": 6.8, "tier": 15, "centre": "southern-cross", "MODE": "METRO TRAIN" }, "geometry": { "type": "Point", "coordinates": [ 144.966964350000012, -37.81830513 ] } },
{ "type": "Feature", "properties": { "STOP_NAME": "Flinders Street Station", "minutes": 6.8, "tier": 15, "centre": "southern-cross", "MODE": "METRO TRAIN" }, "geometry": { "type": "Point", "coordinates": [ 144.96483434000001, -37.81851165 ] } },
{ "type": "Feature", "properties": { "STOP_NAME": "Footscray Railway Station", "minutes": 12.3, "tier": 15, "centre": "southern-cross", "MODE": "METRO TRAIN" }, "geometry": { "type": "Point", "coordinates": [ 144.902020060000012, -37.80141343 ] } },
{ "type": "Feature", "properties": { "STOP_NAME": "Footscray Station", "minutes": 12.4, "tier": 15, "centre": "southern-cross", "MODE": "METRO TRAIN" }, "geometry": { "type": "Point", "coordinates": [ 144.90229785, -37.80122914 ] } },
{ "type": "Feature", "properties": { "STOP_NAME": "Gardenvale Railway Station", "minutes": 30.4, "tier": 45, "centre": "southern-cross", "MODE": "METRO TRAIN" }, "geometry": { "type": "Point", "coordinates": [ 145.00416843, -37.89669508 ] } },
{ "type": "Feature", "properties": { "STOP_NAME": "Gardenvale Station", "minutes": 30.4, "tier": 45, "centre": "southern-cross", "MODE": "METRO TRAIN" }, "geometry": { "type": "Point", "coordinates": [ 145.00411355, -37.89662205 ] } },
{ "type": "Feature", "properties": { "STOP_NAME": "Gardiner Railway Station", "minutes": 32.4, "tier": 45, "centre": "southern-cross", "MODE": "METRO TRAIN" }, "geometry": { "type": "Point", "coordinates": [ 145.05165466, -37.85327908 ] } },
{ "type": "Feature", "properties": { "STOP_NAME": "Gardiner Station", "minutes": 28.4, "tier": 30, "centre": "southern-cross", "MODE": "METRO TRAIN" }, "geometry": { "type": "Point", "coordinates": [ 145.05084666, -37.8528872 ] } },
{ "type": "Feature", "properties": { "STOP_NAME": "Ginifer Railway Station", "minutes": 51.8, "tier": 60, "centre": "southern-cross", "MODE": "METRO TRAIN" }, "geometry": { "type": "Point", "coordinates": [ 144.81135895, -37.76008529 ] } },
{ "type": "Feature", "properties": { "STOP_NAME": "Ginifer Station", "minutes": 49.0, "tier": 60, "centre": "southern-cross", "MODE": "METRO TRAIN" }, "geometry": { "type": "Point", "coordinates": [ 144.810858599999989, -37.75934606 ] } },
{ "type": "Feature", "properties": { "STOP_NAME": "Gipps St", "minutes": 16.7, "tier": 30, "centre": "southern-cross", "MODE": "METRO TRAIN" }, "geometry": { "type": "Point", "coordinates": [ 144.99384502, -37.80477988 ] } },
{ "type": "Feature", "properties": { "STOP_NAME": "Glen Huntly Railway Station ", "minutes": 32.5, "tier": 45, "centre": "southern-cross", "MODE": "METRO TRAIN" }, "geometry": { "type": "Point", "coordinates": [ 145.04222285, -37.88971946 ] } },
{ "type": "Feature", "properties": { "STOP_NAME": "Glen Huntly Station", "minutes": 30.1, "tier": 45, "centre": "southern-cross", "MODE": "METRO TRAIN" }, "geometry": { "type": "Point", "coordinates": [ 145.04194902, -37.89018352 ] } },
{ "type": "Feature", "properties": { "STOP_NAME": "Glen Iris Railway Station", "minutes": 30.4, "tier": 45, "centre": "southern-cross", "MODE": "METRO TRAIN" }, "geometry": { "type": "Point", "coordinates": [ 145.0582249, -37.85930842 ] } },
{ "type": "Feature", "properties": { "STOP_NAME": "Glen Iris Station", "minutes": 30.4, "tier": 45, "centre": "southern-cross", "MODE": "METRO TRAIN" }, "geometry": { "type": "Point", "coordinates": [ 145.05811294, -37.85924349 ] } },
{ "type": "Feature", "properties": { "STOP_NAME": "Glen Waverley Railway Station", "minutes": 46.4, "tier": 60, "centre": "southern-cross", "MODE": "METRO TRAIN" }, "geometry": { "type": "Point", "coordinates": [ 145.162057549999986, -37.87950407 ] } },
{ "type": "Feature", "properties": { "STOP_NAME": "Glen Waverley Station", "minutes": 46.4, "tier": 60, "centre": "southern-cross", "MODE": "METRO TRAIN" }, "geometry": { "type": "Point", "coordinates": [ 145.16210234, -37.87953181 ] } },
{ "type": "Feature", "properties": { "STOP_NAME": "Glenbervie Railway Station", "minutes": 45.2, "tier": 60, "centre": "southern-cross", "MODE": "METRO TRAIN" }, "geometry": { "type": "Point", "coordinates": [ 144.92093868, -37.74720985 ] } },
{ "type": "Feature", "properties": { "STOP_NAME": "Glenbervie Station", "minutes": 25.1, "tier": 30, "centre": "southern-cross", "MODE": "METRO TRAIN" }, "geometry": { "type": "Point", "coordinates": [ 144.92079827, -37.74736057 ] } },
{ "type": "Feature", "properties": { "STOP_NAME": "Glenferrie Railway Station", "minutes": 16.4, "tier": 30, "centre": "southern-cross", "MODE": "METRO TRAIN" }, "geometry": { "type": "Point", "coordinates": [ 145.03643883, -37.82146682 ] } },
{ "type": "Feature", "properties": { "STOP_NAME": "Glenferrie Station", "minutes": 16.4, "tier": 30, "centre": "southern-cross", "MODE": "METRO TRAIN" }, "geometry": { "type": "Point", "coordinates": [ 145.03654905, -37.82159483 ] } },
{ "type": "Feature", "properties": { "STOP_NAME": "Glenroy Railway Station", "minutes": 38.9, "tier": 45, "centre": "southern-cross", "MODE": "METRO TRAIN" }, "geometry": { "type": "Point", "coordinates": [ 144.9172204, -37.70453633 ] } },
{ "type": "Feature", "properties": { "STOP_NAME": "Glenroy Station", "minutes": 41.2, "tier": 45, "centre": "southern-cross", "MODE": "METRO TRAIN" }, "geometry": { "type": "Point", "coordinates": [ 144.917584440000013, -37.70490324 ] } },
{ "type": "Feature", "properties": { "STOP_NAME": "Gowrie Railway Station", "minutes": 40.8, "tier": 45, "centre": "southern-cross", "MODE": "METRO TRAIN" }, "geometry": { "type": "Point", "coordinates": [ 144.95887432, -37.700678 ] } },
{ "type": "Feature", "properties": { "STOP_NAME": "Gowrie Station", "minutes": 40.2, "tier": 45, "centre": "southern-cross", "MODE": "METRO TRAIN" }, "geometry": { "type": "Point", "coordinates": [ 144.958908799999989, -37.70107512 ] } },
{ "type": "Feature", "properties": { "STOP_NAME": "Hampton Railway Station", "minutes": 41.0, "tier": 45, "centre": "southern-cross", "MODE": "METRO TRAIN" }, "geometry": { "type": "Point", "coordinates": [ 145.00150445, -37.9379864 ] } },
{ "type": "Feature", "properties": { "STOP_NAME": "Hampton Station", "minutes": 41.0, "tier": 45, "centre": "southern-cross", "MODE": "METRO TRAIN" }, "geometry": { "type": "Point", "coordinates": [ 145.00148746, -37.93819338 ] } },
{ "type": "Feature", "properties": { "STOP_NAME": "Hartington St", "minutes": 25.9, "tier": 30, "centre": "southern-cross", "MODE": "METRO TRAIN" }, "geometry": { "type": "Point", "coordinates": [ 144.99509784, -37.76978121 ] } },
{ "type": "Feature", "properties": { "STOP_NAME": "Hartwell Railway Station", "minutes": 28.4, "tier": 30, "centre": "southern-cross", "MODE": "METRO TRAIN" }, "geometry": { "type": "Point", "coordinates": [ 145.075559590000012, -37.84398457 ] } },
{ "type": "Feature", "properties": { "STOP_NAME": "Hartwell Station", "minutes": 28.4, "tier": 30, "centre": "southern-cross", "MODE": "METRO TRAIN" }, "geometry": { "type": "Point", "coordinates": [ 145.07548359, -37.84384815 ] } },
{ "type": "Feature", "properties": { "STOP_NAME": "Hawksburn Railway Station", "minutes": 18.5, "tier": 30, "centre": "southern-cross", "MODE": "METRO TRAIN" }, "geometry": { "type": "Point", "coordinates": [ 145.002142060000011, -37.84459087 ] } },
{ "type": "Feature", "properties": { "STOP_NAME": "Hawksburn Station", "minutes": 17.1, "tier": 30, "centre": "southern-cross", "MODE": "METRO TRAIN" }, "geometry": { "type": "Point", "coordinates": [ 145.001808759999989, -37.84472941 ] } },
{ "type": "Feature", "properties": { "STOP_NAME": "Hawkstowe Pde", "minutes": 57.5, "tier": 60, "centre": "southern-cross", "MODE": "METRO TRAIN" }, "geometry": { "type": "Point", "coordinates": [ 145.097421520000012, -37.62244521 ] } },
{ "type": "Feature", "properties": { "STOP_NAME": "Hawkstowe Railway Station", "minutes": 56.4, "tier": 60, "centre": "southern-cross", "MODE": "METRO TRAIN" }, "geometry": { "type": "Point", "coordinates": [ 145.09729471, -37.62297489 ] } },
{ "type": "Feature", "properties": { "STOP_NAME": "Hawkstowe Station", "minutes": 56.4, "tier": 60, "centre": "southern-cross", "MODE": "METRO TRAIN" }, "geometry": { "type": "Point", "coordinates": [ 145.09743269, -37.622896 ] } },
{ "type": "Feature", "properties": { "STOP_NAME": "Hawthorn Railway Station", "minutes": 20.5, "tier": 30, "centre": "southern-cross", "MODE": "METRO TRAIN" }, "geometry": { "type": "Point", "coordinates": [ 145.02289866000001, -37.82182601 ] } },
{ "type": "Feature", "properties": { "STOP_NAME": "Hawthorn Station", "minutes": 15.4, "tier": 30, "centre": "southern-cross", "MODE": "METRO TRAIN" }, "geometry": { "type": "Point", "coordinates": [ 145.02300573, -37.82207113 ] } },
{ "type": "Feature", "properties": { "STOP_NAME": "Heatherdale Railway Station", "minutes": 40.0, "tier": 45, "centre": "southern-cross", "MODE": "METRO TRAIN" }, "geometry": { "type": "Point", "coordinates": [ 145.21397044, -37.8188232 ] } },
{ "type": "Feature", "properties": { "STOP_NAME": "Heatherdale Station", "minutes": 37.4, "tier": 45, "centre": "southern-cross", "MODE": "METRO TRAIN" }, "geometry": { "type": "Point", "coordinates": [ 145.21458608, -37.81873341 ] } },
{ "type": "Feature", "properties": { "STOP_NAME": "Heathmont Railway Station", "minutes": 42.4, "tier": 45, "centre": "southern-cross", "MODE": "METRO TRAIN" }, "geometry": { "type": "Point", "coordinates": [ 145.24455538, -37.82832227 ] } },
{ "type": "Feature", "properties": { "STOP_NAME": "Heathmont Station", "minutes": 42.4, "tier": 45, "centre": "southern-cross", "MODE": "METRO TRAIN" }, "geometry": { "type": "Point", "coordinates": [ 145.24456268, -37.82849361 ] } },
{ "type": "Feature", "properties": { "STOP_NAME": "Heidelberg Railway Station", "minutes": 35.4, "tier": 45, "centre": "southern-cross", "MODE": "METRO TRAIN" }, "geometry": { "type": "Point", "coordinates": [ 145.06068552, -37.75707293 ] } },
{ "type": "Feature", "properties": { "STOP_NAME": "Heidelberg Station", "minutes": 35.4, "tier": 45, "centre": "southern-cross", "MODE": "METRO TRAIN" }, "geometry": { "type": "Point", "coordinates": [ 145.06084296, -37.7571296 ] } },
{ "type": "Feature", "properties": { "STOP_NAME": "Herbert St", "minutes": 25.4, "tier": 30, "centre": "southern-cross", "MODE": "METRO TRAIN" }, "geometry": { "type": "Point", "coordinates": [ 144.99570436, -37.76960228 ] } },
{ "type": "Feature", "properties": { "STOP_NAME": "Heyington Railway Station", "minutes": 22.4, "tier": 30, "centre": "southern-cross", "MODE": "METRO TRAIN" }, "geometry": { "type": "Point", "coordinates": [ 145.02264711, -37.83465462 ] } },
{ "type": "Feature", "properties": { "STOP_NAME": "Heyington Station", "minutes": 22.4, "tier": 30, "centre": "southern-cross", "MODE": "METRO TRAIN" }, "geometry": { "type": "Point", "coordinates": [ 145.02256785, -37.83464428 ] } },
{ "type": "Feature", "properties": { "STOP_NAME": "High St", "minutes": 40.4, "tier": 45, "centre": "southern-cross", "MODE": "METRO TRAIN" }, "geometry": { "type": "Point", "coordinates": [ 145.011687060000014, -37.69586713 ] } },
{ "type": "Feature", "properties": { "STOP_NAME": "Highett Railway Station", "minutes": 42.4, "tier": 45, "centre": "southern-cross", "MODE": "METRO TRAIN" }, "geometry": { "type": "Point", "coordinates": [ 145.0418718, -37.948425 ] } },
{ "type": "Feature", "properties": { "STOP_NAME": "Highett Station", "minutes": 42.0, "tier": 45, "centre": "southern-cross", "MODE": "METRO TRAIN" }, "geometry": { "type": "Point", "coordinates": [ 145.04151832, -37.9480226 ] } },
{ "type": "Feature", "properties": { "STOP_NAME": "Hoddle St", "minutes": 19.2, "tier": 30, "centre": "southern-cross", "MODE": "METRO TRAIN" }, "geometry": { "type": "Point", "coordinates": [ 144.99522496, -37.78860913 ] } },
{ "type": "Feature", "properties": { "STOP_NAME": "Holmesglen Railway Station", "minutes": 44.7, "tier": 45, "centre": "southern-cross", "MODE": "METRO TRAIN" }, "geometry": { "type": "Point", "coordinates": [ 145.09066203, -37.87440222 ] } },
{ "type": "Feature", "properties": { "STOP_NAME": "Holmesglen Station", "minutes": 35.4, "tier": 45, "centre": "southern-cross", "MODE": "METRO TRAIN" }, "geometry": { "type": "Point", "coordinates": [ 145.089963, -37.87461617 ] } },
{ "type": "Feature", "properties": { "STOP_NAME": "Hoppers Crossing Railway Station", "minutes": 38.0, "tier": 45, "centre": "southern-cross", "MODE": "METRO TRAIN" }, "geometry": { "type": "Point", "coordinates": [ 144.70074704000001, -37.88338025 ] } },
{ "type": "Feature", "properties": { "STOP_NAME": "Hoppers Crossing Station", "minutes": 33.0, "tier": 45, "centre": "southern-cross", "MODE": "METRO TRAIN" }, "geometry": { "type": "Point", "coordinates": [ 144.7016681, -37.88301076 ] } },
{ "type": "Feature", "properties": { "STOP_NAME": "Hughesdale Railway Station", "minutes": 58.9, "tier": 60, "centre": "southern-cross", "MODE": "METRO TRAIN" }, "geometry": { "type": "Point", "coordinates": [ 145.07618607, -37.89419074 ] } },
{ "type": "Feature", "properties": { "STOP_NAME": "Hughesdale Station", "minutes": 58.8, "tier": 60, "centre": "southern-cross", "MODE": "METRO TRAIN" }, "geometry": { "type": "Point", "coordinates": [ 145.07576971, -37.89402172 ] } },
{ "type": "Feature", "properties": { "STOP_NAME": "Ivanhoe Railway Station", "minutes": 29.4, "tier": 30, "centre": "southern-cross", "MODE": "METRO TRAIN" }, "geometry": { "type": "Point", "coordinates": [ 145.04542519, -37.76889674 ] } },
{ "type": "Feature", "properties": { "STOP_NAME": "Ivanhoe Station", "minutes": 29.4, "tier": 30, "centre": "southern-cross", "MODE": "METRO TRAIN" }, "geometry": { "type": "Point", "coordinates": [ 145.04543511, -37.76895098 ] } },
{ "type": "Feature", "properties": { "STOP_NAME": "Jacana Railway Station", "minutes": 40.7, "tier": 45, "centre": "southern-cross", "MODE": "METRO TRAIN" }, "geometry": { "type": "Point", "coordinates": [ 144.91585052, -37.69513079 ] } },
{ "type": "Feature", "properties": { "STOP_NAME": "Jacana Station", "minutes": 37.0, "tier": 45, "centre": "southern-cross", "MODE": "METRO TRAIN" }, "geometry": { "type": "Point", "coordinates": [ 144.91583338, -37.69533775 ] } },
{ "type": "Feature", "properties": { "STOP_NAME": "Jewell Railway Station", "minutes": 25.2, "tier": 30, "centre": "southern-cross", "MODE": "METRO TRAIN" }, "geometry": { "type": "Point", "coordinates": [ 144.95871691, -37.77498702 ] } },
{ "type": "Feature", "properties": { "STOP_NAME": "Jewell Station", "minutes": 25.2, "tier": 30, "centre": "southern-cross", "MODE": "METRO TRAIN" }, "geometry": { "type": "Point", "coordinates": [ 144.95879684, -37.77497038 ] } },
{ "type": "Feature", "properties": { "STOP_NAME": "Jika Pl", "minutes": 12.2, "tier": 15, "centre": "southern-cross", "MODE": "METRO TRAIN" }, "geometry": { "type": "Point", "coordinates": [ 144.991312169999986, -37.81483894 ] } },
{ "type": "Feature", "properties": { "STOP_NAME": "John St", "minutes": 19.5, "tier": 30, "centre": "southern-cross", "MODE": "METRO TRAIN" }, "geometry": { "type": "Point", "coordinates": [ 144.99564809, -37.78849918 ] } },
{ "type": "Feature", "properties": { "STOP_NAME": "Johnston St", "minutes": 17.6, "tier": 30, "centre": "southern-cross", "MODE": "METRO TRAIN" }, "geometry": { "type": "Point", "coordinates": [ 144.99442399, -37.79975214 ] } },
{ "type": "Feature", "properties": { "STOP_NAME": "Jolimont-MCG Railway Station", "minutes": 9.4, "tier": 15, "centre": "southern-cross", "MODE": "METRO TRAIN" }, "geometry": { "type": "Point", "coordinates": [ 144.98409834, -37.81652702 ] } },
{ "type": "Feature", "properties": { "STOP_NAME": "Jolimont-MCG Station", "minutes": 9.4, "tier": 15, "centre": "southern-cross", "MODE": "METRO TRAIN" }, "geometry": { "type": "Point", "coordinates": [ 144.984074889999988, -37.81655366 ] } },
{ "type": "Feature", "properties": { "STOP_NAME": "Jordanville Railway Station", "minutes": 40.9, "tier": 45, "centre": "southern-cross", "MODE": "METRO TRAIN" }, "geometry": { "type": "Point", "coordinates": [ 145.11209016, -37.87360339 ] } },
{ "type": "Feature", "properties": { "STOP_NAME": "Jordanville Station", "minutes": 37.4, "tier": 45, "centre": "southern-cross", "MODE": "METRO TRAIN" }, "geometry": { "type": "Point", "coordinates": [ 145.112472630000013, -37.87376273 ] } },
{ "type": "Feature", "properties": { "STOP_NAME": "Keilor Plains Railway Station", "minutes": 56.1, "tier": 60, "centre": "southern-cross", "MODE": "METRO TRAIN" }, "geometry": { "type": "Point", "coordinates": [ 144.793738069999989, -37.72927934 ] } },
{ "type": "Feature", "properties": { "STOP_NAME": "Keilor Plains Station", "minutes": 54.0, "tier": 60, "centre": "southern-cross", "MODE": "METRO TRAIN" }, "geometry": { "type": "Point", "coordinates": [ 144.793886930000014, -37.72961556 ] } },
{ "type": "Feature", "properties": { "STOP_NAME": "Kensington Railway Station", "minutes": 21.2, "tier": 30, "centre": "southern-cross", "MODE": "METRO TRAIN" }, "geometry": { "type": "Point", "coordinates": [ 144.93052444, -37.79378022 ] } },
{ "type": "Feature", "properties": { "STOP_NAME": "Kensington Station", "minutes": 21.2, "tier": 30, "centre": "southern-cross", "MODE": "METRO TRAIN" }, "geometry": { "type": "Point", "coordinates": [ 144.93058245, -37.79373618 ] } },
{ "type": "Feature", "properties": { "STOP_NAME": "Keon Park Railway Station", "minutes": 42.9, "tier": 45, "centre": "southern-cross", "MODE": "METRO TRAIN" }, "geometry": { "type": "Point", "coordinates": [ 145.01188382, -37.69487012 ] } },
{ "type": "Feature", "properties": { "STOP_NAME": "Keon Park Station", "minutes": 40.4, "tier": 45, "centre": "southern-cross", "MODE": "METRO TRAIN" }, "geometry": { "type": "Point", "coordinates": [ 145.011758210000011, -37.69575118 ] } },
{ "type": "Feature", "properties": { "STOP_NAME": "Keon Pde", "minutes": 40.4, "tier": 45, "centre": "southern-cross", "MODE": "METRO TRAIN" }, "geometry": { "type": "Point", "coordinates": [ 145.01174107, -37.69554361 ] } },
{ "type": "Feature", "properties": { "STOP_NAME": "Kiss & Ride", "minutes": 42.0, "tier": 45, "centre": "southern-cross", "MODE": "METRO TRAIN" }, "geometry": { "type": "Point", "coordinates": [ 145.011420820000012, -37.69649348 ] } },
{ "type": "Feature", "properties": { "STOP_NAME": "Kiss & Ride 1", "minutes": 31.9, "tier": 45, "centre": "southern-cross", "MODE": "METRO TRAIN" }, "geometry": { "type": "Point", "coordinates": [ 145.00032595, -37.73921163 ] } },
{ "type": "Feature", "properties": { "STOP_NAME": "Kooyong Railway Station", "minutes": 24.4, "tier": 30, "centre": "southern-cross", "MODE": "METRO TRAIN" }, "geometry": { "type": "Point", "coordinates": [ 145.033551609999989, -37.83992894 ] } },
{ "type": "Feature", "properties": { "STOP_NAME": "Kooyong Station", "minutes": 24.4, "tier": 30, "centre": "southern-cross", "MODE": "METRO TRAIN" }, "geometry": { "type": "Point", "coordinates": [ 145.03353905, -37.83997379 ] } },
{ "type": "Feature", "properties": { "STOP_NAME": "Laburnum Railway Station", "minutes": 26.4, "tier": 30, "centre": "southern-cross", "MODE": "METRO TRAIN" }, "geometry": { "type": "Point", "coordinates": [ 145.14070271, -37.82078023 ] } },
{ "type": "Feature", "properties": { "STOP_NAME": "Laburnum Station", "minutes": 26.4, "tier": 30, "centre": "southern-cross", "MODE": "METRO TRAIN" }, "geometry": { "type": "Point", "coordinates": [ 145.14082011, -37.82062888 ] } },
{ "type": "Feature", "properties": { "STOP_NAME": "Lalor Railway Station", "minutes": 44.4, "tier": 45, "centre": "southern-cross", "MODE": "METRO TRAIN" }, "geometry": { "type": "Point", "coordinates": [ 145.017193170000013, -37.66585075 ] } },
{ "type": "Feature", "properties": { "STOP_NAME": "Lalor Station", "minutes": 44.4, "tier": 45, "centre": "southern-cross", "MODE": "METRO TRAIN" }, "geometry": { "type": "Point", "coordinates": [ 145.01734, -37.66587124 ] } },
{ "type": "Feature", "properties": { "STOP_NAME": "Laverton Railway Station", "minutes": 25.1, "tier": 30, "centre": "southern-cross", "MODE": "METRO TRAIN" }, "geometry": { "type": "Point", "coordinates": [ 144.77261667, -37.86369404 ] } },
{ "type": "Feature", "properties": { "STOP_NAME": "Laverton Station", "minutes": 25.1, "tier": 30, "centre": "southern-cross", "MODE": "METRO TRAIN" }, "geometry": { "type": "Point", "coordinates": [ 144.77284848, -37.86354523 ] } },
{ "type": "Feature", "properties": { "STOP_NAME": "Lilydale Station", "minutes": 56.4, "tier": 60, "centre": "southern-cross", "MODE": "METRO TRAIN" }, "geometry": { "type": "Point", "coordinates": [ 145.3479169, -37.75541252 ] } },
{ "type": "Feature", "properties": { "STOP_NAME": "Lulie St", "minutes": 16.6, "tier": 30, "centre": "southern-cross", "MODE": "METRO TRAIN" }, "geometry": { "type": "Point", "coordinates": [ 144.994595690000011, -37.79886289 ] } },
{ "type": "Feature", "properties": { "STOP_NAME": "Macartney St", "minutes": 39.1, "tier": 45, "centre": "southern-cross", "MODE": "METRO TRAIN" }, "geometry": { "type": "Point", "coordinates": [ 145.00982249, -37.70748815 ] } },
{ "type": "Feature", "properties": { "STOP_NAME": "Macaulay Railway Station", "minutes": 20.2, "tier": 30, "centre": "southern-cross", "MODE": "METRO TRAIN" }, "geometry": { "type": "Point", "coordinates": [ 144.93616633, -37.79426673 ] } },
{ "type": "Feature", "properties": { "STOP_NAME": "Macaulay Station", "minutes": 20.2, "tier": 30, "centre": "southern-cross", "MODE": "METRO TRAIN" }, "geometry": { "type": "Point", "coordinates": [ 144.93622158, -37.79432177 ] } },
{ "type": "Feature", "properties": { "STOP_NAME": "Malvern Railway Station", "minutes": 23.1, "tier": 30, "centre": "southern-cross", "MODE": "METRO TRAIN" }, "geometry": { "type": "Point", "coordinates": [ 145.02929394, -37.8662533 ] } },
{ "type": "Feature", "properties": { "STOP_NAME": "Malvern Station", "minutes": 23.1, "tier": 30, "centre": "southern-cross", "MODE": "METRO TRAIN" }, "geometry": { "type": "Point", "coordinates": [ 145.02927778, -37.86643326 ] } },
{ "type": "Feature", "properties": { "STOP_NAME": "McKinnon Railway Station", "minutes": 37.6, "tier": 45, "centre": "southern-cross", "MODE": "METRO TRAIN" }, "geometry": { "type": "Point", "coordinates": [ 145.03829897, -37.91030903 ] } },
{ "type": "Feature", "properties": { "STOP_NAME": "McKinnon Station", "minutes": 34.0, "tier": 45, "centre": "southern-cross", "MODE": "METRO TRAIN" }, "geometry": { "type": "Point", "coordinates": [ 145.03800637, -37.91147568 ] } },
{ "type": "Feature", "properties": { "STOP_NAME": "Melbourne Central Railway Station", "minutes": 5.4, "tier": 15, "centre": "southern-cross", "MODE": "METRO TRAIN" }, "geometry": { "type": "Point", "coordinates": [ 144.96260489, -37.80993896 ] } },
{ "type": "Feature", "properties": { "STOP_NAME": "Melbourne Central Station", "minutes": 5.4, "tier": 15, "centre": "southern-cross", "MODE": "METRO TRAIN" }, "geometry": { "type": "Point", "coordinates": [ 144.96254713, -37.80997401 ] } },
{ "type": "Feature", "properties": { "STOP_NAME": "Mentone Railway Station", "minutes": 41.4, "tier": 45, "centre": "southern-cross", "MODE": "METRO TRAIN" }, "geometry": { "type": "Point", "coordinates": [ 145.065802319999989, -37.98277704 ] } },
{ "type": "Feature", "properties": { "STOP_NAME": "Mentone Station", "minutes": 39.0, "tier": 45, "centre": "southern-cross", "MODE": "METRO TRAIN" }, "geometry": { "type": "Point", "coordinates": [ 145.06631522, -37.98362356 ] } },
{ "type": "Feature", "properties": { "STOP_NAME": "Merlynston Railway Station", "minutes": 46.7, "tier": 60, "centre": "southern-cross", "MODE": "METRO TRAIN" }, "geometry": { "type": "Point", "coordinates": [ 144.96131355, -37.72093389 ] } },
{ "type": "Feature", "properties": { "STOP_NAME": "Merlynston Station", "minutes": 36.2, "tier": 45, "centre": "southern-cross", "MODE": "METRO TRAIN" }, "geometry": { "type": "Point", "coordinates": [ 144.96140054, -37.72148512 ] } },
{ "type": "Feature", "properties": { "STOP_NAME": "Mernda Railway Station", "minutes": 59.4, "tier": 60, "centre": "southern-cross", "MODE": "METRO TRAIN" }, "geometry": { "type": "Point", "coordinates": [ 145.10095293, -37.60254907 ] } },
{ "type": "Feature", "properties": { "STOP_NAME": "Mernda Station", "minutes": 59.4, "tier": 60, "centre": "southern-cross", "MODE": "METRO TRAIN" }, "geometry": { "type": "Point", "coordinates": [ 145.100970210000014, -37.60231503 ] } },
{ "type": "Feature", "properties": { "STOP_NAME": "Merri Railway Station", "minutes": 21.4, "tier": 30, "centre": "southern-cross", "MODE": "METRO TRAIN" }, "geometry": { "type": "Point", "coordinates": [ 144.99297248, -37.77784668 ] } },
{ "type": "Feature", "properties": { "STOP_NAME": "Merri Station", "minutes": 21.4, "tier": 30, "centre": "southern-cross", "MODE": "METRO TRAIN" }, "geometry": { "type": "Point", "coordinates": [ 144.993026789999988, -37.77793772 ] } },
{ "type": "Feature", "properties": { "STOP_NAME": "Middle Brighton Railway Station", "minutes": 37.2, "tier": 45, "centre": "southern-cross", "MODE": "METRO TRAIN" }, "geometry": { "type": "Point", "coordinates": [ 144.99629909, -37.91513441 ] } },
{ "type": "Feature", "properties": { "STOP_NAME": "Middle Brighton Station", "minutes": 35.0, "tier": 45, "centre": "southern-cross", "MODE": "METRO TRAIN" }, "geometry": { "type": "Point", "coordinates": [ 144.99666206, -37.91475309 ] } },
{ "type": "Feature", "properties": { "STOP_NAME": "Middle Footscray Railway Station", "minutes": 28.4, "tier": 30, "centre": "southern-cross", "MODE": "METRO TRAIN" }, "geometry": { "type": "Point", "coordinates": [ 144.89147208, -37.8025047 ] } },
{ "type": "Feature", "properties": { "STOP_NAME": "Middle Footscray Station", "minutes": 28.4, "tier": 30, "centre": "southern-cross", "MODE": "METRO TRAIN" }, "geometry": { "type": "Point", "coordinates": [ 144.89103013, -37.80246975 ] } },
{ "type": "Feature", "properties": { "STOP_NAME": "Middle Gorge Railway Station", "minutes": 56.9, "tier": 60, "centre": "southern-cross", "MODE": "METRO TRAIN" }, "geometry": { "type": "Point", "coordinates": [ 145.09212201, -37.64403391 ] } },
{ "type": "Feature", "properties": { "STOP_NAME": "Middle Gorge Station", "minutes": 53.4, "tier": 60, "centre": "southern-cross", "MODE": "METRO TRAIN" }, "geometry": { "type": "Point", "coordinates": [ 145.09246787, -37.64380519 ] } },
{ "type": "Feature", "properties": { "STOP_NAME": "Mitcham Railway Station", "minutes": 37.4, "tier": 45, "centre": "southern-cross", "MODE": "METRO TRAIN" }, "geometry": { "type": "Point", "coordinates": [ 145.192208240000014, -37.81816668 ] } },
{ "type": "Feature", "properties": { "STOP_NAME": "Mitcham Station", "minutes": 35.4, "tier": 45, "centre": "southern-cross", "MODE": "METRO TRAIN" }, "geometry": { "type": "Point", "coordinates": [ 145.19271077, -37.81805724 ] } },
{ "type": "Feature", "properties": { "STOP_NAME": "Moonee Ponds Railway Station", "minutes": 20.1, "tier": 30, "centre": "southern-cross", "MODE": "METRO TRAIN" }, "geometry": { "type": "Point", "coordinates": [ 144.9191607, -37.76570666 ] } },
{ "type": "Feature", "properties": { "STOP_NAME": "Moonee Ponds Station", "minutes": 20.1, "tier": 30, "centre": "southern-cross", "MODE": "METRO TRAIN" }, "geometry": { "type": "Point", "coordinates": [ 144.91922928, -37.76568985 ] } },
{ "type": "Feature", "properties": { "STOP_NAME": "Moorabbin Railway Station", "minutes": 40.0, "tier": 45, "centre": "southern-cross", "MODE": "METRO TRAIN" }, "geometry": { "type": "Point", "coordinates": [ 145.036738289999988, -37.93435329 ] } },
{ "type": "Feature", "properties": { "STOP_NAME": "Moorabbin Station", "minutes": 40.0, "tier": 45, "centre": "southern-cross", "MODE": "METRO TRAIN" }, "geometry": { "type": "Point", "coordinates": [ 145.03662706, -37.93468486 ] } },
{ "type": "Feature", "properties": { "STOP_NAME": "Mooroolbark Railway Station", "minutes": 51.2, "tier": 60, "centre": "southern-cross", "MODE": "METRO TRAIN" }, "geometry": { "type": "Point", "coordinates": [ 145.3124024, -37.78474883 ] } },
{ "type": "Feature", "properties": { "STOP_NAME": "Mooroolbark Station", "minutes": 49.4, "tier": 60, "centre": "southern-cross", "MODE": "METRO TRAIN" }, "geometry": { "type": "Point", "coordinates": [ 145.31368659, -37.78470413 ] } },
{ "type": "Feature", "properties": { "STOP_NAME": "Mordialloc Railway Station", "minutes": 45.9, "tier": 60, "centre": "southern-cross", "MODE": "METRO TRAIN" }, "geometry": { "type": "Point", "coordinates": [ 145.08765936, -38.00658295 ] } },
{ "type": "Feature", "properties": { "STOP_NAME": "Mordialloc Station", "minutes": 44.0, "tier": 45, "centre": "southern-cross", "MODE": "METRO TRAIN" }, "geometry": { "type": "Point", "coordinates": [ 145.08734715, -38.00632554 ] } },
{ "type": "Feature", "properties": { "STOP_NAME": "Moreland Railway Station", "minutes": 32.4, "tier": 45, "centre": "southern-cross", "MODE": "METRO TRAIN" }, "geometry": { "type": "Point", "coordinates": [ 144.96182303, -37.75448484 ] } },
{ "type": "Feature", "properties": { "STOP_NAME": "Moreland Station", "minutes": 30.2, "tier": 45, "centre": "southern-cross", "MODE": "METRO TRAIN" }, "geometry": { "type": "Point", "coordinates": [ 144.96193577, -37.75409928 ] } },
{ "type": "Feature", "properties": { "STOP_NAME": "Mount Waverley Railway Station", "minutes": 41.4, "tier": 45, "centre": "southern-cross", "MODE": "METRO TRAIN" }, "geometry": { "type": "Point", "coordinates": [ 145.128044100000011, -37.87526408 ] } },
{ "type": "Feature", "properties": { "STOP_NAME": "Mount Waverley Station", "minutes": 41.4, "tier": 45, "centre": "southern-cross", "MODE": "METRO TRAIN" }, "geometry": { "type": "Point", "coordinates": [ 145.128099099999986, -37.87533705 ] } },
{ "type": "Feature", "properties": { "STOP_NAME": "Muir St", "minutes": 10.7, "tier": 15, "centre": "southern-cross", "MODE": "METRO TRAIN" }, "geometry": { "type": "Point", "coordinates": [ 144.99160299, -37.81500611 ] } },
{ "type": "Feature", "properties": { "STOP_NAME": "Murray Rd", "minutes": 31.4, "tier": 45, "centre": "southern-cross", "MODE": "METRO TRAIN" }, "geometry": { "type": "Point", "coordinates": [ 145.00058209, -37.73854909 ] } },
{ "type": "Feature", "properties": { "STOP_NAME": "Murrumbeena Railway Station", "minutes": 52.1, "tier": 60, "centre": "southern-cross", "MODE": "METRO TRAIN" }, "geometry": { "type": "Point", "coordinates": [ 145.06737487, -37.89019832 ] } },
{ "type": "Feature", "properties": { "STOP_NAME": "Murrumbeena Station", "minutes": 52.4, "tier": 60, "centre": "southern-cross", "MODE": "METRO TRAIN" }, "geometry": { "type": "Point", "coordinates": [ 145.06748618, -37.89029026 ] } },
{ "type": "Feature", "properties": { "STOP_NAME": "Newmarket Railway Station", "minutes": 22.2, "tier": 30, "centre": "southern-cross", "MODE": "METRO TRAIN" }, "geometry": { "type": "Point", "coordinates": [ 144.92897847, -37.78732767 ] } },
{ "type": "Feature", "properties": { "STOP_NAME": "Newmarket Station", "minutes": 22.2, "tier": 30, "centre": "southern-cross", "MODE": "METRO TRAIN" }, "geometry": { "type": "Point", "coordinates": [ 144.92906725, -37.78740133 ] } },
{ "type": "Feature", "properties": { "STOP_NAME": "Newport Railway Station", "minutes": 20.8, "tier": 30, "centre": "southern-cross", "MODE": "METRO TRAIN" }, "geometry": { "type": "Point", "coordinates": [ 144.883588300000014, -37.84272637 ] } },
{ "type": "Feature", "properties": { "STOP_NAME": "Newport Station", "minutes": 19.6, "tier": 30, "centre": "southern-cross", "MODE": "METRO TRAIN" }, "geometry": { "type": "Point", "coordinates": [ 144.88352816, -37.84284244 ] } },
{ "type": "Feature", "properties": { "STOP_NAME": "North Brighton Railway Station", "minutes": 32.4, "tier": 45, "centre": "southern-cross", "MODE": "METRO TRAIN" }, "geometry": { "type": "Point", "coordinates": [ 145.002605030000012, -37.90488721 ] } },
{ "type": "Feature", "properties": { "STOP_NAME": "North Brighton Station", "minutes": 32.4, "tier": 45, "centre": "southern-cross", "MODE": "METRO TRAIN" }, "geometry": { "type": "Point", "coordinates": [ 145.002590090000012, -37.90459859 ] } },
{ "type": "Feature", "properties": { "STOP_NAME": "North Melbourne Railway Station", "minutes": 8.4, "tier": 15, "centre": "southern-cross", "MODE": "METRO TRAIN" }, "geometry": { "type": "Point", "coordinates": [ 144.941510169999987, -37.80630984 ] } },
{ "type": "Feature", "properties": { "STOP_NAME": "North Melbourne Station", "minutes": 5.0, "tier": 15, "centre": "southern-cross", "MODE": "METRO TRAIN" }, "geometry": { "type": "Point", "coordinates": [ 144.94219354, -37.80706074 ] } },
{ "type": "Feature", "properties": { "STOP_NAME": "North Richmond Railway Station", "minutes": 11.4, "tier": 15, "centre": "southern-cross", "MODE": "METRO TRAIN" }, "geometry": { "type": "Point", "coordinates": [ 144.992500260000014, -37.81039836 ] } },
{ "type": "Feature", "properties": { "STOP_NAME": "North Richmond Station", "minutes": 11.4, "tier": 15, "centre": "southern-cross", "MODE": "METRO TRAIN" }, "geometry": { "type": "Point", "coordinates": [ 144.99255459, -37.8104894 ] } },
{ "type": "Feature", "properties": { "STOP_NAME": "North Williamstown Railway Station", "minutes": 24.6, "tier": 30, "centre": "southern-cross", "MODE": "METRO TRAIN" }, "geometry": { "type": "Point", "coordinates": [ 144.88906947000001, -37.85733348 ] } },
{ "type": "Feature", "properties": { "STOP_NAME": "North Williamstown Station", "minutes": 22.1, "tier": 30, "centre": "southern-cross", "MODE": "METRO TRAIN" }, "geometry": { "type": "Point", "coordinates": [ 144.88890497, -37.85712326 ] } },
{ "type": "Feature", "properties": { "STOP_NAME": "Northcote Railway Station", "minutes": 23.4, "tier": 30, "centre": "southern-cross", "MODE": "METRO TRAIN" }, "geometry": { "type": "Point", "coordinates": [ 144.995277210000012, -37.76986537 ] } },
{ "type": "Feature", "properties": { "STOP_NAME": "Northcote Station", "minutes": 23.4, "tier": 30, "centre": "southern-cross", "MODE": "METRO TRAIN" }, "geometry": { "type": "Point", "coordinates": [ 144.99529893, -37.76990179 ] } },
{ "type": "Feature", "properties": { "STOP_NAME": "Nunawading Railway Station", "minutes": 36.0, "tier": 45, "centre": "southern-cross", "MODE": "METRO TRAIN" }, "geometry": { "type": "Point", "coordinates": [ 145.1748915, -37.82061218 ] } },
{ "type": "Feature", "properties": { "STOP_NAME": "Nunawading Station", "minutes": 31.4, "tier": 45, "centre": "southern-cross", "MODE": "METRO TRAIN" }, "geometry": { "type": "Point", "coordinates": [ 145.174643659999987, -37.82052723 ] } },
{ "type": "Feature", "properties": { "STOP_NAME": "Oak Park Railway Station", "minutes": 36.2, "tier": 45, "centre": "southern-cross", "MODE": "METRO TRAIN" }, "geometry": { "type": "Point", "coordinates": [ 144.92151877, -37.71794973 ] } },
{ "type": "Feature", "properties": { "STOP_NAME": "Oak Park Station", "minutes": 36.2, "tier": 45, "centre": "southern-cross", "MODE": "METRO TRAIN" }, "geometry": { "type": "Point", "coordinates": [ 144.92159412, -37.71809525 ] } },
{ "type": "Feature", "properties": { "STOP_NAME": "Oakleigh Railway Station", "minutes": 55.4, "tier": 60, "centre": "southern-cross", "MODE": "METRO TRAIN" }, "geometry": { "type": "Point", "coordinates": [ 145.08830787, -37.90037214 ] } },
{ "type": "Feature", "properties": { "STOP_NAME": "Oakleigh Station", "minutes": 55.4, "tier": 60, "centre": "southern-cross", "MODE": "METRO TRAIN" }, "geometry": { "type": "Point", "coordinates": [ 145.08827283, -37.90040762 ] } },
{ "type": "Feature", "properties": { "STOP_NAME": "Ormond Railway Station", "minutes": 33.8, "tier": 45, "centre": "southern-cross", "MODE": "METRO TRAIN" }, "geometry": { "type": "Point", "coordinates": [ 145.03961342, -37.90321167 ] } },
{ "type": "Feature", "properties": { "STOP_NAME": "Ormond Station", "minutes": 32.0, "tier": 45, "centre": "southern-cross", "MODE": "METRO TRAIN" }, "geometry": { "type": "Point", "coordinates": [ 145.03937136, -37.90418992 ] } },
{ "type": "Feature", "properties": { "STOP_NAME": "Pakenham Railway Station", "minutes": 53.8, "tier": 60, "centre": "southern-cross", "MODE": "METRO TRAIN" }, "geometry": { "type": "Point", "coordinates": [ 145.48637907, -38.08061397 ] } },
{ "type": "Feature", "properties": { "STOP_NAME": "Pakenham Station", "minutes": 53.8, "tier": 60, "centre": "southern-cross", "MODE": "METRO TRAIN" }, "geometry": { "type": "Point", "coordinates": [ 145.48650669, -38.08050747 ] } },
{ "type": "Feature", "properties": { "STOP_NAME": "Parkdale Railway Station", "minutes": 45.4, "tier": 60, "centre": "southern-cross", "MODE": "METRO TRAIN" }, "geometry": { "type": "Point", "coordinates": [ 145.07632682, -37.99307882 ] } },
{ "type": "Feature", "properties": { "STOP_NAME": "Parkdale Station", "minutes": 42.0, "tier": 45, "centre": "southern-cross", "MODE": "METRO TRAIN" }, "geometry": { "type": "Point", "coordinates": [ 145.07601259, -37.99290246 ] } },
{ "type": "Feature", "properties": { "STOP_NAME": "Parliament Railway Station", "minutes": 13.4, "tier": 15, "centre": "southern-cross", "MODE": "METRO TRAIN" }, "geometry": { "type": "Point", "coordinates": [ 144.973119, -37.811337 ] } },
{ "type": "Feature", "properties": { "STOP_NAME": "Parliament Station", "minutes": 7.4, "tier": 15, "centre": "southern-cross", "MODE": "METRO TRAIN" }, "geometry": { "type": "Point", "coordinates": [ 144.9729235, -37.81100921 ] } },
{ "type": "Feature", "properties": { "STOP_NAME": "Pascoe Vale Railway Station", "minutes": 36.6, "tier": 45, "centre": "southern-cross", "MODE": "METRO TRAIN" }, "geometry": { "type": "Point", "coordinates": [ 144.92819562, -37.73075596 ] } },
{ "type": "Feature", "properties": { "STOP_NAME": "Pascoe Vale Station", "minutes": 34.2, "tier": 45, "centre": "southern-cross", "MODE": "METRO TRAIN" }, "geometry": { "type": "Point", "coordinates": [ 144.92831816, -37.73124475 ] } },
{ "type": "Feature", "properties": { "STOP_NAME": "Patterson Railway Station", "minutes": 41.0, "tier": 45, "centre": "southern-cross", "MODE": "METRO TRAIN" }, "geometry": { "type": "Point", "coordinates": [ 145.03547003, -37.92514919 ] } },
{ "type": "Feature", "properties": { "STOP_NAME": "Patterson Station", "minutes": 38.0, "tier": 45, "centre": "southern-cross", "MODE": "METRO TRAIN" }, "geometry": { "type": "Point", "coordinates": [ 145.03552294, -37.92487071 ] } },
{ "type": "Feature", "properties": { "STOP_NAME": "Prahran Railway Station", "minutes": 22.9, "tier": 30, "centre": "southern-cross", "MODE": "METRO TRAIN" }, "geometry": { "type": "Point", "coordinates": [ 144.989859919999986, -37.84951848 ] } },
{ "type": "Feature", "properties": { "STOP_NAME": "Prahran Station", "minutes": 24.9, "tier": 30, "centre": "southern-cross", "MODE": "METRO TRAIN" }, "geometry": { "type": "Point", "coordinates": [ 144.98977527, -37.84970629 ] } },
{ "type": "Feature", "properties": { "STOP_NAME": "Preston Railway Station", "minutes": 31.6, "tier": 45, "centre": "southern-cross", "MODE": "METRO TRAIN" }, "geometry": { "type": "Point", "coordinates": [ 145.00052198, -37.73867424 ] } },
{ "type": "Feature", "properties": { "STOP_NAME": "Preston Station", "minutes": 30.4, "tier": 45, "centre": "southern-cross", "MODE": "METRO TRAIN" }, "geometry": { "type": "Point", "coordinates": [ 145.00058495, -37.73886456 ] } },
{ "type": "Feature", "properties": { "STOP_NAME": "Railway Parade", "minutes": 27.8, "tier": 30, "centre": "southern-cross", "MODE": "METRO TRAIN" }, "geometry": { "type": "Point", "coordinates": [ 144.99680114, -37.76471848 ] } },
{ "type": "Feature", "properties": { "STOP_NAME": "Railway Pl", "minutes": 28.4, "tier": 30, "centre": "southern-cross", "MODE": "METRO TRAIN" }, "geometry": { "type": "Point", "coordinates": [ 145.000230749999986, -37.74612214 ] } },
{ "type": "Feature", "properties": { "STOP_NAME": "Ramp", "minutes": 20.2, "tier": 30, "centre": "southern-cross", "MODE": "METRO TRAIN" }, "geometry": { "type": "Point", "coordinates": [ 144.99572593, -37.78814003 ] } },
{ "type": "Feature", "properties": { "STOP_NAME": "Regent Railway Station", "minutes": 33.4, "tier": 45, "centre": "southern-cross", "MODE": "METRO TRAIN" }, "geometry": { "type": "Point", "coordinates": [ 145.002772560000011, -37.72840277 ] } },
{ "type": "Feature", "properties": { "STOP_NAME": "Regent Station", "minutes": 33.4, "tier": 45, "centre": "southern-cross", "MODE": "METRO TRAIN" }, "geometry": { "type": "Point", "coordinates": [ 145.00280441000001, -37.72848442 ] } },
{ "type": "Feature", "properties": { "STOP_NAME": "Reservoir Railway Station", "minutes": 36.4, "tier": 45, "centre": "southern-cross", "MODE": "METRO TRAIN" }, "geometry": { "type": "Point", "coordinates": [ 145.006995819999986, -37.71688492 ] } },
{ "type": "Feature", "properties": { "STOP_NAME": "Reservoir Station", "minutes": 36.4, "tier": 45, "centre": "southern-cross", "MODE": "METRO TRAIN" }, "geometry": { "type": "Point", "coordinates": [ 145.0071027, -37.71670648 ] } },
{ "type": "Feature", "properties": { "STOP_NAME": "Richmond Railway Station", "minutes": 11.7, "tier": 15, "centre": "southern-cross", "MODE": "METRO TRAIN" }, "geometry": { "type": "Point", "coordinates": [ 144.99016426, -37.82407446 ] } },
{ "type": "Feature", "properties": { "STOP_NAME": "Richmond Station", "minutes": 11.7, "tier": 15, "centre": "southern-cross", "MODE": "METRO TRAIN" }, "geometry": { "type": "Point", "coordinates": [ 144.9891647, -37.8240664 ] } },
{ "type": "Feature", "properties": { "STOP_NAME": "Ringwood East Railway Station", "minutes": 43.9, "tier": 45, "centre": "southern-cross", "MODE": "METRO TRAIN" }, "geometry": { "type": "Point", "coordinates": [ 145.250190909999986, -37.81196804 ] } },
{ "type": "Feature", "properties": { "STOP_NAME": "Ringwood East Station", "minutes": 41.4, "tier": 45, "centre": "southern-cross", "MODE": "METRO TRAIN" }, "geometry": { "type": "Point", "coordinates": [ 145.250867050000011, -37.81171674 ] } },
{ "type": "Feature", "properties": { "STOP_NAME": "Ringwood Railway Station", "minutes": 39.4, "tier": 45, "centre": "southern-cross", "MODE": "METRO TRAIN" }, "geometry": { "type": "Point", "coordinates": [ 145.22896846, -37.81588648 ] } },
{ "type": "Feature", "properties": { "STOP_NAME": "Ringwood Station", "minutes": 39.7, "tier": 45, "centre": "southern-cross", "MODE": "METRO TRAIN" }, "geometry": { "type": "Point", "coordinates": [ 145.229280030000012, -37.81568389 ] } },
{ "type": "Feature", "properties": { "STOP_NAME": "Ripponlea Railway Station", "minutes": 29.0, "tier": 30, "centre": "southern-cross", "MODE": "METRO TRAIN" }, "geometry": { "type": "Point", "coordinates": [ 144.99525782, -37.87596086 ] } },
{ "type": "Feature", "properties": { "STOP_NAME": "Ripponlea Station", "minutes": 26.4, "tier": 30, "centre": "southern-cross", "MODE": "METRO TRAIN" }, "geometry": { "type": "Point", "coordinates": [ 144.99510239, -37.87582304 ] } },
{ "type": "Feature", "properties": { "STOP_NAME": "Riversdale Railway Station", "minutes": 26.4, "tier": 30, "centre": "southern-cross", "MODE": "METRO TRAIN" }, "geometry": { "type": "Point", "coordinates": [ 145.06964598, -37.83150543 ] } },
{ "type": "Feature", "properties": { "STOP_NAME": "Riversdale Station", "minutes": 24.4, "tier": 30, "centre": "southern-cross", "MODE": "METRO TRAIN" }, "geometry": { "type": "Point", "coordinates": [ 145.069617310000012, -37.83129769 ] } },
{ "type": "Feature", "properties": { "STOP_NAME": "Robinson Rd", "minutes": 35.3, "tier": 45, "centre": "southern-cross", "MODE": "METRO TRAIN" }, "geometry": { "type": "Point", "coordinates": [ 145.00307684, -37.72848002 ] } },
{ "type": "Feature", "properties": { "STOP_NAME": "Rosanna Railway Station", "minutes": 50.2, "tier": 60, "centre": "southern-cross", "MODE": "METRO TRAIN" }, "geometry": { "type": "Point", "coordinates": [ 145.06614029, -37.7428786 ] } },
{ "type": "Feature", "properties": { "STOP_NAME": "Rosanna Station", "minutes": 49.5, "tier": 60, "centre": "southern-cross", "MODE": "METRO TRAIN" }, "geometry": { "type": "Point", "coordinates": [ 145.066314760000012, -37.74315182 ] } },
{ "type": "Feature", "properties": { "STOP_NAME": "Roxburgh Park Railway Station", "minutes": 51.1, "tier": 60, "centre": "southern-cross", "MODE": "METRO TRAIN" }, "geometry": { "type": "Point", "coordinates": [ 144.93540368, -37.63823121 ] } },
{ "type": "Feature", "properties": { "STOP_NAME": "Roxburgh Park Station", "minutes": 49.2, "tier": 60, "centre": "southern-cross", "MODE": "METRO TRAIN" }, "geometry": { "type": "Point", "coordinates": [ 144.9354897, -37.63798939 ] } },
{ "type": "Feature", "properties": { "STOP_NAME": "Royal Park Railway Station", "minutes": 23.2, "tier": 30, "centre": "southern-cross", "MODE": "METRO TRAIN" }, "geometry": { "type": "Point", "coordinates": [ 144.95230127, -37.78119293 ] } },
{ "type": "Feature", "properties": { "STOP_NAME": "Royal Park Station", "minutes": 23.2, "tier": 30, "centre": "southern-cross", "MODE": "METRO TRAIN" }, "geometry": { "type": "Point", "coordinates": [ 144.95233407, -37.78123856 ] } },
{ "type": "Feature", "properties": { "STOP_NAME": "Rushall Railway Station", "minutes": 20.4, "tier": 30, "centre": "southern-cross", "MODE": "METRO TRAIN" }, "geometry": { "type": "Point", "coordinates": [ 144.99240708, -37.78321711 ] } },
{ "type": "Feature", "properties": { "STOP_NAME": "Rushall Station", "minutes": 20.4, "tier": 30, "centre": "southern-cross", "MODE": "METRO TRAIN" }, "geometry": { "type": "Point", "coordinates": [ 144.992431, -37.78317246 ] } },
{ "type": "Feature", "properties": { "STOP_NAME": "Rushall Station Brg", "minutes": 22.4, "tier": 30, "centre": "southern-cross", "MODE": "METRO TRAIN" }, "geometry": { "type": "Point", "coordinates": [ 144.992648339999988, -37.78311308 ] } },
{ "type": "Feature", "properties": { "STOP_NAME": "Ruthven Railway Station", "minutes": 37.4, "tier": 45, "centre": "southern-cross", "MODE": "METRO TRAIN" }, "geometry": { "type": "Point", "coordinates": [ 145.00951662, -37.70789754 ] } },
{ "type": "Feature", "properties": { "STOP_NAME": "Ruthven Station", "minutes": 37.4, "tier": 45, "centre": "southern-cross", "MODE": "METRO TRAIN" }, "geometry": { "type": "Point", "coordinates": [ 145.00948212, -37.70791498 ] } },
{ "type": "Feature", "properties": { "STOP_NAME": "S Park St", "minutes": 23.5, "tier": 30, "centre": "southern-cross", "MODE": "METRO TRAIN" }, "geometry": { "type": "Point", "coordinates": [ 144.99283825, -37.77777229 ] } },
{ "type": "Feature", "properties": { "STOP_NAME": "Sandringham Railway Station", "minutes": 42.4, "tier": 45, "centre": "southern-cross", "MODE": "METRO TRAIN" }, "geometry": { "type": "Point", "coordinates": [ 145.00456136, -37.95033018 ] } },
{ "type": "Feature", "properties": { "STOP_NAME": "Sandringham Station", "minutes": 42.4, "tier": 45, "centre": "southern-cross", "MODE": "METRO TRAIN" }, "geometry": { "type": "Point", "coordinates": [ 145.004474499999986, -37.95017551 ] } },
{ "type": "Feature", "properties": { "STOP_NAME": "Seaford Station", "minutes": 59.0, "tier": 60, "centre": "southern-cross", "MODE": "METRO TRAIN" }, "geometry": { "type": "Point", "coordinates": [ 145.128165130000014, -38.10434442 ] } },
{ "type": "Feature", "properties": { "STOP_NAME": "Seaholme Railway Station", "minutes": 28.1, "tier": 30, "centre": "southern-cross", "MODE": "METRO TRAIN" }, "geometry": { "type": "Point", "coordinates": [ 144.840957730000014, -37.86784231 ] } },
{ "type": "Feature", "properties": { "STOP_NAME": "Seaholme Station", "minutes": 28.1, "tier": 30, "centre": "southern-cross", "MODE": "METRO TRAIN" }, "geometry": { "type": "Point", "coordinates": [ 144.84102642, -37.86782554 ] } },
{ "type": "Feature", "properties": { "STOP_NAME": "Seddon Railway Station", "minutes": 13.1, "tier": 15, "centre": "southern-cross", "MODE": "METRO TRAIN" }, "geometry": { "type": "Point", "coordinates": [ 144.89567157, -37.80900514 ] } },
{ "type": "Feature", "properties": { "STOP_NAME": "Seddon Station", "minutes": 13.1, "tier": 15, "centre": "southern-cross", "MODE": "METRO TRAIN" }, "geometry": { "type": "Point", "coordinates": [ 144.895603709999989, -37.80899491 ] } },
{ "type": "Feature", "properties": { "STOP_NAME": "Service Rd", "minutes": 52.0, "tier": 60, "centre": "southern-cross", "MODE": "METRO TRAIN" }, "geometry": { "type": "Point", "coordinates": [ 145.06809051, -37.6490049 ] } },
{ "type": "Feature", "properties": { "STOP_NAME": "South Kensington Railway Station", "minutes": 8.9, "tier": 15, "centre": "southern-cross", "MODE": "METRO TRAIN" }, "geometry": { "type": "Point", "coordinates": [ 144.92546901, -37.79953087 ] } },
{ "type": "Feature", "properties": { "STOP_NAME": "South Kensington Station", "minutes": 8.1, "tier": 15, "centre": "southern-cross", "MODE": "METRO TRAIN" }, "geometry": { "type": "Point", "coordinates": [ 144.92476672, -37.79946443 ] } },
{ "type": "Feature", "properties": { "STOP_NAME": "South Morang Railway Station", "minutes": 53.5, "tier": 60, "centre": "southern-cross", "MODE": "METRO TRAIN" }, "geometry": { "type": "Point", "coordinates": [ 145.06701257, -37.64905033 ] } },
{ "type": "Feature", "properties": { "STOP_NAME": "South Morang Station", "minutes": 51.4, "tier": 60, "centre": "southern-cross", "MODE": "METRO TRAIN" }, "geometry": { "type": "Point", "coordinates": [ 145.06766922, -37.64907911 ] } },
{ "type": "Feature", "properties": { "STOP_NAME": "South Yarra Railway Station", "minutes": 17.3, "tier": 30, "centre": "southern-cross", "MODE": "METRO TRAIN" }, "geometry": { "type": "Point", "coordinates": [ 144.99234221, -37.83844935 ] } },
{ "type": "Feature", "properties": { "STOP_NAME": "South Yarra Station", "minutes": 13.1, "tier": 15, "centre": "southern-cross", "MODE": "METRO TRAIN" }, "geometry": { "type": "Point", "coordinates": [ 144.992186260000011, -37.837915 ] } },
{ "type": "Feature", "properties": { "STOP_NAME": "Southern Cross Railway Station", "minutes": 0.1, "tier": 15, "centre": "southern-cross", "MODE": "METRO TRAIN" }, "geometry": { "type": "Point", "coordinates": [ 144.952777059999988, -37.8186631 ] } },
{ "type": "Feature", "properties": { "STOP_NAME": "Southern Cross Station", "minutes": 0.5, "tier": 15, "centre": "southern-cross", "MODE": "METRO TRAIN" }, "geometry": { "type": "Point", "coordinates": [ 144.95179389, -37.81765471 ] } },
{ "type": "Feature", "properties": { "STOP_NAME": "Southland Railway Station", "minutes": 44.4, "tier": 45, "centre": "southern-cross", "MODE": "METRO TRAIN" }, "geometry": { "type": "Point", "coordinates": [ 145.048647859999988, -37.95813507 ] } },
{ "type": "Feature", "properties": { "STOP_NAME": "Southland Station", "minutes": 43.0, "tier": 45, "centre": "southern-cross", "MODE": "METRO TRAIN" }, "geometry": { "type": "Point", "coordinates": [ 145.04925898, -37.95912748 ] } },
{ "type": "Feature", "properties": { "STOP_NAME": "Spencer St", "minutes": 27.3, "tier": 30, "centre": "southern-cross", "MODE": "METRO TRAIN" }, "geometry": { "type": "Point", "coordinates": [ 144.996736129999988, -37.76376212 ] } },
{ "type": "Feature", "properties": { "STOP_NAME": "Spotswood Railway Station", "minutes": 17.1, "tier": 30, "centre": "southern-cross", "MODE": "METRO TRAIN" }, "geometry": { "type": "Point", "coordinates": [ 144.88593345000001, -37.83063888 ] } },
{ "type": "Feature", "properties": { "STOP_NAME": "Spotswood Station", "minutes": 17.1, "tier": 30, "centre": "southern-cross", "MODE": "METRO TRAIN" }, "geometry": { "type": "Point", "coordinates": [ 144.88585242, -37.83069149 ] } },
{ "type": "Feature", "properties": { "STOP_NAME": "St Albans Railway Station (St Albans)", "minutes": 51.0, "tier": 60, "centre": "southern-cross", "MODE": "METRO TRAIN" }, "geometry": { "type": "Point", "coordinates": [ 144.800050449999986, -37.74486131 ] } },
{ "type": "Feature", "properties": { "STOP_NAME": "St Albans Station", "minutes": 51.0, "tier": 60, "centre": "southern-cross", "MODE": "METRO TRAIN" }, "geometry": { "type": "Point", "coordinates": [ 144.799810400000013, -37.74491991 ] } },
{ "type": "Feature", "properties": { "STOP_NAME": "Stanton St", "minutes": 16.4, "tier": 30, "centre": "southern-cross", "MODE": "METRO TRAIN" }, "geometry": { "type": "Point", "coordinates": [ 144.99393838, -37.8042678 ] } },
{ "type": "Feature", "properties": { "STOP_NAME": "Station St", "minutes": 45.3, "tier": 60, "centre": "southern-cross", "MODE": "METRO TRAIN" }, "geometry": { "type": "Point", "coordinates": [ 145.01715948, -37.66626473 ] } },
{ "type": "Feature", "properties": { "STOP_NAME": "Stott St", "minutes": 27.4, "tier": 30, "centre": "southern-cross", "MODE": "METRO TRAIN" }, "geometry": { "type": "Point", "coordinates": [ 144.99737875, -37.76392625 ] } },
{ "type": "Feature", "properties": { "STOP_NAME": "Strathmore Railway Station", "minutes": 34.1, "tier": 45, "centre": "southern-cross", "MODE": "METRO TRAIN" }, "geometry": { "type": "Point", "coordinates": [ 144.927315709999988, -37.74359132 ] } },
{ "type": "Feature", "properties": { "STOP_NAME": "Strathmore Station", "minutes": 32.2, "tier": 45, "centre": "southern-cross", "MODE": "METRO TRAIN" }, "geometry": { "type": "Point", "coordinates": [ 144.926860010000013, -37.74406093 ] } },
{ "type": "Feature", "properties": { "STOP_NAME": "Summer Ave", "minutes": 22.5, "tier": 30, "centre": "southern-cross", "MODE": "METRO TRAIN" }, "geometry": { "type": "Point", "coordinates": [ 144.99219241, -37.7831774 ] } },
{ "type": "Feature", "properties": { "STOP_NAME": "Sunbury Railway Station", "minutes": 38.7, "tier": 45, "centre": "southern-cross", "MODE": "METRO TRAIN" }, "geometry": { "type": "Point", "coordinates": [ 144.727980980000012, -37.57928396 ] } },
{ "type": "Feature", "properties": { "STOP_NAME": "Sunbury Station", "minutes": 38.7, "tier": 45, "centre": "southern-cross", "MODE": "METRO TRAIN" }, "geometry": { "type": "Point", "coordinates": [ 144.72766001, -37.57941295 ] } },
{ "type": "Feature", "properties": { "STOP_NAME": "Sunshine Railway Station", "minutes": 37.1, "tier": 45, "centre": "southern-cross", "MODE": "METRO TRAIN" }, "geometry": { "type": "Point", "coordinates": [ 144.83287820000001, -37.78853633 ] } },
{ "type": "Feature", "properties": { "STOP_NAME": "Sunshine Station", "minutes": 34.3, "tier": 45, "centre": "southern-cross", "MODE": "METRO TRAIN" }, "geometry": { "type": "Point", "coordinates": [ 144.832786059999989, -37.7881922 ] } },
{ "type": "Feature", "properties": { "STOP_NAME": "Syndal Railway Station", "minutes": 46.6, "tier": 60, "centre": "southern-cross", "MODE": "METRO TRAIN" }, "geometry": { "type": "Point", "coordinates": [ 145.149780709999987, -37.87622062 ] } },
{ "type": "Feature", "properties": { "STOP_NAME": "Syndal Station", "minutes": 44.4, "tier": 45, "centre": "southern-cross", "MODE": "METRO TRAIN" }, "geometry": { "type": "Point", "coordinates": [ 145.149460690000012, -37.87628768 ] } },
{ "type": "Feature", "properties": { "STOP_NAME": "Taxi Zone", "minutes": 49.9, "tier": 60, "centre": "southern-cross", "MODE": "METRO TRAIN" }, "geometry": { "type": "Point", "coordinates": [ 145.031863859999987, -37.65251537 ] } },
{ "type": "Feature", "properties": { "STOP_NAME": "Taxi zone 1", "minutes": 48.2, "tier": 60, "centre": "southern-cross", "MODE": "METRO TRAIN" }, "geometry": { "type": "Point", "coordinates": [ 145.01710814, -37.6647859 ] } },
{ "type": "Feature", "properties": { "STOP_NAME": "Thomastown Railway Station", "minutes": 43.8, "tier": 45, "centre": "southern-cross", "MODE": "METRO TRAIN" }, "geometry": { "type": "Point", "coordinates": [ 145.01427887, -37.68033809 ] } },
{ "type": "Feature", "properties": { "STOP_NAME": "Thomastown Station", "minutes": 43.8, "tier": 45, "centre": "southern-cross", "MODE": "METRO TRAIN" }, "geometry": { "type": "Point", "coordinates": [ 145.01434735, -37.68032122 ] } },
{ "type": "Feature", "properties": { "STOP_NAME": "Thornbury Railway Station", "minutes": 27.4, "tier": 30, "centre": "southern-cross", "MODE": "METRO TRAIN" }, "geometry": { "type": "Point", "coordinates": [ 144.998571520000013, -37.75505179 ] } },
{ "type": "Feature", "properties": { "STOP_NAME": "Thornbury Station", "minutes": 27.4, "tier": 30, "centre": "southern-cross", "MODE": "METRO TRAIN" }, "geometry": { "type": "Point", "coordinates": [ 144.99860264, -37.75516046 ] } },
{ "type": "Feature", "properties": { "STOP_NAME": "Toorak Railway Station", "minutes": 21.4, "tier": 30, "centre": "southern-cross", "MODE": "METRO TRAIN" }, "geometry": { "type": "Point", "coordinates": [ 145.01390858, -37.85077381 ] } },
{ "type": "Feature", "properties": { "STOP_NAME": "Toorak Station", "minutes": 19.1, "tier": 30, "centre": "southern-cross", "MODE": "METRO TRAIN" }, "geometry": { "type": "Point", "coordinates": [ 145.01361153, -37.85083188 ] } },
{ "type": "Feature", "properties": { "STOP_NAME": "Tooronga Railway Station", "minutes": 28.9, "tier": 30, "centre": "southern-cross", "MODE": "METRO TRAIN" }, "geometry": { "type": "Point", "coordinates": [ 145.041733740000012, -37.84936553 ] } },
{ "type": "Feature", "properties": { "STOP_NAME": "Tooronga Station", "minutes": 26.4, "tier": 30, "centre": "southern-cross", "MODE": "METRO TRAIN" }, "geometry": { "type": "Point", "coordinates": [ 145.0413989, -37.84913467 ] } },
{ "type": "Feature", "properties": { "STOP_NAME": "Tottenham Railway Station", "minutes": 29.7, "tier": 30, "centre": "southern-cross", "MODE": "METRO TRAIN" }, "geometry": { "type": "Point", "coordinates": [ 144.86294494, -37.7992509 ] } },
{ "type": "Feature", "properties": { "STOP_NAME": "Tottenham Station", "minutes": 29.1, "tier": 30, "centre": "southern-cross", "MODE": "METRO TRAIN" }, "geometry": { "type": "Point", "coordinates": [ 144.863500359999989, -37.79928801 ] } },
{ "type": "Feature", "properties": { "STOP_NAME": "Underpass", "minutes": 20.1, "tier": 30, "centre": "southern-cross", "MODE": "METRO TRAIN" }, "geometry": { "type": "Point", "coordinates": [ 144.995306699999986, -37.78810586 ] } },
{ "type": "Feature", "properties": { "STOP_NAME": "Union Railway Station ", "minutes": 24.9, "tier": 30, "centre": "southern-cross", "MODE": "METRO TRAIN" }, "geometry": { "type": "Point", "coordinates": [ 145.10034527, -37.82315506 ] } },
{ "type": "Feature", "properties": { "STOP_NAME": "Union Station", "minutes": 22.4, "tier": 30, "centre": "southern-cross", "MODE": "METRO TRAIN" }, "geometry": { "type": "Point", "coordinates": [ 145.10137376, -37.82247773 ] } },
{ "type": "Feature", "properties": { "STOP_NAME": "Upfield Railway Station", "minutes": 49.1, "tier": 60, "centre": "southern-cross", "MODE": "METRO TRAIN" }, "geometry": { "type": "Point", "coordinates": [ 144.946739939999986, -37.66607779 ] } },
{ "type": "Feature", "properties": { "STOP_NAME": "Upfield Station", "minutes": 45.2, "tier": 60, "centre": "southern-cross", "MODE": "METRO TRAIN" }, "geometry": { "type": "Point", "coordinates": [ 144.9466287, -37.66558921 ] } },
{ "type": "Feature", "properties": { "STOP_NAME": "Upper Ferntree Gully Railway Station", "minutes": 58.0, "tier": 60, "centre": "southern-cross", "MODE": "METRO TRAIN" }, "geometry": { "type": "Point", "coordinates": [ 145.30753019, -37.8926717 ] } },
{ "type": "Feature", "properties": { "STOP_NAME": "Upper Ferntree Gully Station", "minutes": 56.4, "tier": 60, "centre": "southern-cross", "MODE": "METRO TRAIN" }, "geometry": { "type": "Point", "coordinates": [ 145.30729310000001, -37.89259619 ] } },
{ "type": "Feature", "properties": { "STOP_NAME": "Upwey Railway Station", "minutes": 58.4, "tier": 60, "centre": "southern-cross", "MODE": "METRO TRAIN" }, "geometry": { "type": "Point", "coordinates": [ 145.33133336, -37.90369097 ] } },
{ "type": "Feature", "properties": { "STOP_NAME": "Upwey Station", "minutes": 58.4, "tier": 60, "centre": "southern-cross", "MODE": "METRO TRAIN" }, "geometry": { "type": "Point", "coordinates": [ 145.33141254, -37.90371012 ] } },
{ "type": "Feature", "properties": { "STOP_NAME": "Verdun Grove", "minutes": 33.4, "tier": 45, "centre": "southern-cross", "MODE": "METRO TRAIN" }, "geometry": { "type": "Point", "coordinates": [ 145.00263719, -37.72837344 ] } },
{ "type": "Feature", "properties": { "STOP_NAME": "Victoria Park Railway Station", "minutes": 14.4, "tier": 15, "centre": "southern-cross", "MODE": "METRO TRAIN" }, "geometry": { "type": "Point", "coordinates": [ 144.99445143, -37.79915782 ] } },
{ "type": "Feature", "properties": { "STOP_NAME": "Victoria Park Station", "minutes": 14.4, "tier": 15, "centre": "southern-cross", "MODE": "METRO TRAIN" }, "geometry": { "type": "Point", "coordinates": [ 144.99446229, -37.79917603 ] } },
{ "type": "Feature", "properties": { "STOP_NAME": "Victoria St", "minutes": 13.5, "tier": 15, "centre": "southern-cross", "MODE": "METRO TRAIN" }, "geometry": { "type": "Point", "coordinates": [ 144.9927659, -37.80981712 ] } },
{ "type": "Feature", "properties": { "STOP_NAME": "Watergardens Railway Station", "minutes": 58.0, "tier": 60, "centre": "southern-cross", "MODE": "METRO TRAIN" }, "geometry": { "type": "Point", "coordinates": [ 144.77418099, -37.70111071 ] } },
{ "type": "Feature", "properties": { "STOP_NAME": "Wellington Pde", "minutes": 10.6, "tier": 15, "centre": "southern-cross", "MODE": "METRO TRAIN" }, "geometry": { "type": "Point", "coordinates": [ 144.98458928, -37.8164363 ] } },
{ "type": "Feature", "properties": { "STOP_NAME": "Werribee Railway Station", "minutes": 38.7, "tier": 45, "centre": "southern-cross", "MODE": "METRO TRAIN" }, "geometry": { "type": "Point", "coordinates": [ 144.66111801, -37.89937805 ] } },
{ "type": "Feature", "properties": { "STOP_NAME": "Werribee Station", "minutes": 36.0, "tier": 45, "centre": "southern-cross", "MODE": "METRO TRAIN" }, "geometry": { "type": "Point", "coordinates": [ 144.66088672, -37.8994996 ] } },
{ "type": "Feature", "properties": { "STOP_NAME": "West Footscray Railway Station", "minutes": 29.7, "tier": 30, "centre": "southern-cross", "MODE": "METRO TRAIN" }, "geometry": { "type": "Point", "coordinates": [ 144.88398479, -37.80180266 ] } },
{ "type": "Feature", "properties": { "STOP_NAME": "West Footscray Station", "minutes": 29.8, "tier": 30, "centre": "southern-cross", "MODE": "METRO TRAIN" }, "geometry": { "type": "Point", "coordinates": [ 144.88367157, -37.80163482 ] } },
{ "type": "Feature", "properties": { "STOP_NAME": "West Richmond Railway Station", "minutes": 11.4, "tier": 15, "centre": "southern-cross", "MODE": "METRO TRAIN" }, "geometry": { "type": "Point", "coordinates": [ 144.99142278, -37.81494896 ] } },
{ "type": "Feature", "properties": { "STOP_NAME": "West Richmond Station", "minutes": 10.7, "tier": 15, "centre": "southern-cross", "MODE": "METRO TRAIN" }, "geometry": { "type": "Point", "coordinates": [ 144.991467230000012, -37.81498577 ] } },
{ "type": "Feature", "properties": { "STOP_NAME": "Westgarth Railway Station", "minutes": 20.4, "tier": 30, "centre": "southern-cross", "MODE": "METRO TRAIN" }, "geometry": { "type": "Point", "coordinates": [ 144.999233190000012, -37.7806207 ] } },
{ "type": "Feature", "properties": { "STOP_NAME": "Westgarth Station", "minutes": 20.4, "tier": 30, "centre": "southern-cross", "MODE": "METRO TRAIN" }, "geometry": { "type": "Point", "coordinates": [ 144.99939329, -37.78057836 ] } },
{ "type": "Feature", "properties": { "STOP_NAME": "Westona Railway Station", "minutes": 34.5, "tier": 45, "centre": "southern-cross", "MODE": "METRO TRAIN" }, "geometry": { "type": "Point", "coordinates": [ 144.813493560000012, -37.86516348 ] } },
{ "type": "Feature", "properties": { "STOP_NAME": "Westona Station", "minutes": 32.0, "tier": 45, "centre": "southern-cross", "MODE": "METRO TRAIN" }, "geometry": { "type": "Point", "coordinates": [ 144.81406027, -37.86521907 ] } },
{ "type": "Feature", "properties": { "STOP_NAME": "Williams Landing Railway Station", "minutes": 33.1, "tier": 45, "centre": "southern-cross", "MODE": "METRO TRAIN" }, "geometry": { "type": "Point", "coordinates": [ 144.74744472, -37.86986533 ] } },
{ "type": "Feature", "properties": { "STOP_NAME": "Williams Landing Station", "minutes": 30.1, "tier": 45, "centre": "southern-cross", "MODE": "METRO TRAIN" }, "geometry": { "type": "Point", "coordinates": [ 144.74587015, -37.87042993 ] } },
{ "type": "Feature", "properties": { "STOP_NAME": "Williamstown Beach Railway Station", "minutes": 24.1, "tier": 30, "centre": "southern-cross", "MODE": "METRO TRAIN" }, "geometry": { "type": "Point", "coordinates": [ 144.89448368, -37.86398189 ] } },
{ "type": "Feature", "properties": { "STOP_NAME": "Williamstown Beach Station", "minutes": 24.1, "tier": 30, "centre": "southern-cross", "MODE": "METRO TRAIN" }, "geometry": { "type": "Point", "coordinates": [ 144.89441423, -37.8640257 ] } },
{ "type": "Feature", "properties": { "STOP_NAME": "Williamstown Railway Station", "minutes": 27.9, "tier": 30, "centre": "southern-cross", "MODE": "METRO TRAIN" }, "geometry": { "type": "Point", "coordinates": [ 144.90532331, -37.86775292 ] } },
{ "type": "Feature", "properties": { "STOP_NAME": "Williamstown Station", "minutes": 26.1, "tier": 30, "centre": "southern-cross", "MODE": "METRO TRAIN" }, "geometry": { "type": "Point", "coordinates": [ 144.905042580000014, -37.86763077 ] } },
{ "type": "Feature", "properties": { "STOP_NAME": "Willison Railway Station", "minutes": 26.4, "tier": 30, "centre": "southern-cross", "MODE": "METRO TRAIN" }, "geometry": { "type": "Point", "coordinates": [ 145.07029756, -37.83571565 ] } },
{ "type": "Feature", "properties": { "STOP_NAME": "Willison Station", "minutes": 26.4, "tier": 30, "centre": "southern-cross", "MODE": "METRO TRAIN" }, "geometry": { "type": "Point", "coordinates": [ 145.07023035, -37.8356785 ] } },
{ "type": "Feature", "properties": { "STOP_NAME": "Windsor Railway Station", "minutes": 22.4, "tier": 30, "centre": "southern-cross", "MODE": "METRO TRAIN" }, "geometry": { "type": "Point", "coordinates": [ 144.99203517, -37.85605308 ] } },
{ "type": "Feature", "properties": { "STOP_NAME": "Windsor Station", "minutes": 22.4, "tier": 30, "centre": "southern-cross", "MODE": "METRO TRAIN" }, "geometry": { "type": "Point", "coordinates": [ 144.9919102, -37.85605095 ] } },
{ "type": "Feature", "properties": { "STOP_NAME": "Yarra Park", "minutes": 9.6, "tier": 15, "centre": "southern-cross", "MODE": "METRO TRAIN" }, "geometry": { "type": "Point", "coordinates": [ 144.98438866, -37.81671223 ] } },
{ "type": "Feature", "properties": { "STOP_NAME": "Yarraville Railway Station", "minutes": 15.1, "tier": 30, "centre": "southern-cross", "MODE": "METRO TRAIN" }, "geometry": { "type": "Point", "coordinates": [ 144.88993371, -37.81585044 ] } },
{ "type": "Feature", "properties": { "STOP_NAME": "Yarraville Station", "minutes": 16.2, "tier": 30, "centre": "southern-cross", "MODE": "METRO TRAIN" }, "geometry": { "type": "Point", "coordinates": [ 144.889914589999989, -37.81572394 ] } },
{ "type": "Feature", "properties": { "STOP_NAME": "lift", "minutes": 57.6, "tier": 60, "centre": "southern-cross", "MODE": "METRO TRAIN" }, "geometry": { "type": "Point", "coordinates": [ 145.09740652, -37.62258917 ] } }
]
}
