{
"type": "FeatureCollection",
"name": "commute_mst_regional_train__southern-cross",
"crs": { "type": "name", "properties": { "name": "urn:ogc:def:crs:OGC:1.3:CRS84" } },
"features": [
{ "type": "Feature", "properties": { "from_stop": "Sunshine Station", "to_stop": "Ardeer Railway Station", "minutes": 22.2, "tier": 30, "centre": "southern-cross", "MODE": "REGIONAL TRAIN" }, "geometry": { "type": "LineString", "coordinates": [ [ 144.83249580906886, -37.788315263283756 ], [ 144.83178196, -37.78737123 ], [ 144.83108209, -37.78663904 ], [ 144.83088702, -37.78645242 ], [ 144.830638810000011, -37.78625806 ], [ 144.83037318, -37.7860924 ], [ 144.83005169, -37.78594202 ], [ 144.82971515, -37.78582894 ], [ 144.829446850000011, -37.78576623 ], [ 144.82917907, -37.78572462 ], [ 144.82279091, -37.78506438 ], [ 144.821873399999987, -37.78498848 ], [ 144.82051476, -37.78490504 ], [ 144.819794730000012, -37.78485603 ], [ 144.818870589999989, -37.78477034 ], [ 144.81819783, -37.7846929 ], [ 144.81707932, -37.78459116 ], [ 144.81624377, -37.78452439 ], [ 144.815597419999989, -37.78446816 ], [ 144.81485844, -37.78438768 ], [ 144.81406185, -37.78429756 ], [ 144.81282466, -37.78414707 ], [ 144.80852707, -37.78370086 ], [ 144.80454125, -37.78327689 ], [ 144.80343757, -37.78318584 ], [ 144.802215819999986, -37.78310204 ], [ 144.802185551246623, -37.783099832903403 ] ] } },
{ "type": "Feature", "properties": { "from_stop": "Ardeer Railway Station", "to_stop": "Ardeer Station", "minutes": 22.3, "tier": 30, "centre": "southern-cross", "MODE": "REGIONAL TRAIN" }, "geometry": { "type": "LineString", "coordinates": [ [ 144.802185551246623, -37.783099832903403 ], [ 144.801540082786829, -37.783052767494873 ] ] } },
{ "type": "Feature", "properties": { "from_stop": "Bacchus Marsh Station", "to_stop": "Bacchus Marsh Railway Station", "minutes": 51.0, "tier": 60, "centre": "southern-cross", "MODE": "REGIONAL TRAIN" }, "geometry": { "type": "Point", "coordinates": [ 144.437516460000012, -37.68779749 ] } },
{ "type": "Feature", "properties": { "from_stop": "Melton Railway Station", "to_stop": "Bacchus Marsh Station", "minutes": 51.0, "tier": 60, "centre": "southern-cross", "MODE": "REGIONAL TRAIN" }, "geometry": { "type": "LineString", "coordinates": [ [ 144.572122561957315, -37.70327439683517 ], [ 144.57047463, -37.70307647 ], [ 144.569726229999986, -37.70301292 ], [ 144.569135609999989, -37.70299037 ], [ 144.568830709999986, -37.70299508 ], [ 144.56840514000001, -37.70301324 ], [ 144.56784209, -37.70306686 ], [ 144.56740371, -37.70313333 ], [ 144.56698868, -37.70321424 ], [ 144.56647046, -37.70333979 ], [ 144.56597402, -37.70349256 ], [ 144.56550536, -37.70365968 ], [ 144.565126170000013, -37.70382351 ], [ 144.56473104, -37.70401359 ], [ 144.56451474, -37.70410743 ], [ 144.56439936000001, -37.70416732 ], [ 144.56371536, -37.70459599 ], [ 144.56321381, -37.70497374 ], [ 144.56276589, -37.70536196 ], [ 144.56130414, -37.70677316 ], [ 144.560791779999988, -37.70722727 ], [ 144.56029559000001, -37.70764107 ], [ 144.555346859999986, -37.71135243 ], [ 144.553563239999988, -37.71269558 ], [ 144.55279343, -37.71326632 ], [ 144.55227313, -37.71363128 ], [ 144.55165086, -37.71401322 ], [ 144.55108217, -37.71433149 ], [ 144.550417040000013, -37.71467099 ], [ 144.549757230000012, -37.71496591 ], [ 144.54904645, -37.71524814 ], [ 144.54837852, -37.71547944 ], [ 144.54763022, -37.71569158 ], [ 144.54670753, -37.71591856 ], [ 144.54583036, -37.7160862 ], [ 144.543790050000013, -37.71636556 ], [ 144.539362110000013, -37.71694658 ], [ 144.53832352, -37.71706871 ], [ 144.53745977, -37.7171451 ], [ 144.53658805, -37.71719176 ], [ 144.53575121, -37.71720237 ], [ 144.53496529, -37.71717899 ], [ 144.534005079999986, -37.71711961 ], [ 144.531725239999986, -37.71699231 ], [ 144.51659002, -37.7161054 ], [ 144.501984889999989, -37.71523338 ], [ 144.50114276, -37.71517614 ], [ 144.50037562, -37.71510823 ], [ 144.49958425, -37.71502539 ], [ 144.498841270000014, -37.7149342 ], [ 144.49794825, -37.71480476 ], [ 144.497084449999988, -37.71466684 ], [ 144.49612162, -37.7144886 ], [ 144.49519398000001, -37.7142828 ], [ 144.493788489999986, -37.71394122 ], [ 144.49324945, -37.7137735 ], [ 144.49278806, -37.7136441 ], [ 144.4918922, -37.71339804 ], [ 144.49074417, -37.71304154 ], [ 144.489604250000014, -37.71264681 ], [ 144.475753379999986, -37.70788102 ], [ 144.475377900000012, -37.70776214 ], [ 144.47474746, -37.70757967 ], [ 144.47205725, -37.70666079 ], [ 144.46833974, -37.7056295 ], [ 144.45988272, -37.70340342 ], [ 144.459112870000013, -37.70320389 ], [ 144.45707454, -37.70241867 ], [ 144.4559184, -37.70172897 ], [ 144.45546047, -37.70141658 ], [ 144.45530634, -37.70130728 ], [ 144.45469004, -37.70090352 ], [ 144.4540194, -37.70044721 ], [ 144.45342928, -37.70003131 ], [ 144.452852729999989, -37.69956009 ], [ 144.45233504, -37.69908258 ], [ 144.451932699999986, -37.69861152 ], [ 144.45157995, -37.69810639 ], [ 144.45132375, -37.6975673 ], [ 144.451079709999988, -37.69699432 ], [ 144.45089465, -37.69642127 ], [ 144.450787420000012, -37.69585044 ], [ 144.45069353, -37.69524764 ], [ 144.45059956, -37.69468728 ], [ 144.450457449999988, -37.69411849 ], [ 144.45026435, -37.69360491 ], [ 144.44999879, -37.69306156 ], [ 144.44960991, -37.6924503 ], [ 144.44917535, -37.69192817 ], [ 144.44865234, -37.6913997 ], [ 144.44811323, -37.69095396 ], [ 144.44753386, -37.69055493 ], [ 144.446951750000011, -37.69022594 ], [ 144.44627585, -37.68991393 ], [ 144.44560802, -37.68966769 ], [ 144.44491334, -37.68947034 ], [ 144.444103320000011, -37.68928363 ], [ 144.44237533, -37.6889039 ], [ 144.441614249999986, -37.68872897 ], [ 144.43978758, -37.68831777 ], [ 144.437516460000012, -37.68779749 ] ] } },
{ "type": "Feature", "properties": { "from_stop": "Essendon Station", "to_stop": "Broadmeadows Railway Station", "minutes": 23.7, "tier": 30, "centre": "southern-cross", "MODE": "REGIONAL TRAIN" }, "geometry": { "type": "LineString", "coordinates": [ [ 144.919596419826973, -37.683035999736404 ], [ 144.91947962, -37.68318398 ], [ 144.91927146, -37.6834548 ], [ 144.91912878, -37.68363424 ], [ 144.918789339999989, -37.68412696 ], [ 144.918685829999987, -37.6842641 ], [ 144.91836647, -37.68467102 ], [ 144.91821361, -37.68487794 ], [ 144.917880989999986, -37.68535339 ], [ 144.917408920000014, -37.68616432 ], [ 144.917272059999988, -37.68642748 ], [ 144.91708173, -37.68684244 ], [ 144.91690731, -37.68728076 ], [ 144.916719590000014, -37.68784537 ], [ 144.91667001, -37.6880205 ], [ 144.91655329, -37.68851193 ], [ 144.91649704, -37.68885248 ], [ 144.916451419999987, -37.68921017 ], [ 144.916376359999987, -37.68989041 ], [ 144.91618437, -37.69196434 ], [ 144.9161631, -37.69216501 ], [ 144.91598868, -37.6940929 ], [ 144.91593544, -37.69461311 ], [ 144.915731169999987, -37.69707586 ], [ 144.91570786, -37.69741006 ], [ 144.9157004, -37.69798849 ], [ 144.91572055, -37.69865798 ], [ 144.91577806, -37.69928523 ], [ 144.9158371, -37.69972452 ], [ 144.91598865, -37.70050537 ], [ 144.916284030000014, -37.70151667 ], [ 144.91644994, -37.70200742 ], [ 144.91683573, -37.70293786 ], [ 144.91699549, -37.70331648 ], [ 144.917200830000013, -37.7038902 ], [ 144.91764627, -37.70529193 ], [ 144.91778198, -37.70580467 ], [ 144.917947629999986, -37.70632604 ], [ 144.9182065, -37.70759777 ], [ 144.91903377, -37.71016778 ], [ 144.919214939999989, -37.7107389 ], [ 144.91943466, -37.71144904 ], [ 144.92050666, -37.71479531 ], [ 144.92123855, -37.7170856 ], [ 144.92152718, -37.71799791 ], [ 144.92176765, -37.71874211 ], [ 144.92187586, -37.71908809 ], [ 144.922005610000014, -37.71945446 ], [ 144.92216253, -37.71985969 ], [ 144.92238258, -37.72036887 ], [ 144.92252348, -37.72066964 ], [ 144.92274995, -37.72111152 ], [ 144.92289845, -37.72138782 ], [ 144.92315545, -37.72180906 ], [ 144.92353035, -37.72238017 ], [ 144.92602885, -37.7259094 ], [ 144.92641382, -37.72647049 ], [ 144.92674095000001, -37.72699028 ], [ 144.927092359999989, -37.72763631 ], [ 144.92724526, -37.72795125 ], [ 144.92739153, -37.72825996 ], [ 144.92763104, -37.72882191 ], [ 144.927829980000013, -37.7293864 ], [ 144.92791175, -37.72964422 ], [ 144.928007009999988, -37.72995924 ], [ 144.92810721, -37.73034166 ], [ 144.928213129999989, -37.73081169 ], [ 144.92829846, -37.73129604 ], [ 144.92849225, -37.73246918 ], [ 144.92880505, -37.73430264 ], [ 144.928881389999987, -37.7347798 ], [ 144.92895385, -37.73520517 ], [ 144.929135230000014, -37.73630708 ], [ 144.92920856, -37.73671327 ], [ 144.929260879999987, -37.73703888 ], [ 144.92936025, -37.73762216 ], [ 144.92941212, -37.73797228 ], [ 144.92946208, -37.73837419 ], [ 144.92948755, -37.73873484 ], [ 144.9294889, -37.73905721 ], [ 144.929483620000013, -37.73926286 ], [ 144.929450010000011, -37.73963842 ], [ 144.9294138, -37.73989498 ], [ 144.9293535, -37.74018978 ], [ 144.9292734, -37.74051496 ], [ 144.92919605, -37.74074565 ], [ 144.92906735, -37.74115298 ], [ 144.92887004, -37.74156703 ], [ 144.928733920000013, -37.7418294 ], [ 144.92862964, -37.74200817 ], [ 144.9284666, -37.74227971 ], [ 144.928176, -37.7426895 ], [ 144.927831270000013, -37.74311159 ], [ 144.92761413, -37.74334487 ], [ 144.92734665, -37.74360899 ], [ 144.9271138, -37.74382 ], [ 144.926810780000011, -37.74407241 ], [ 144.92651966, -37.74429718 ], [ 144.926197660000014, -37.74451798 ], [ 144.92583708, -37.7447426 ], [ 144.92547772, -37.74493976 ], [ 144.925007029999989, -37.74518164 ], [ 144.9240829, -37.74560793 ], [ 144.92345665, -37.74590492 ], [ 144.92308516, -37.74607671 ], [ 144.92250994, -37.746318 ], [ 144.92203372, -37.74655391 ], [ 144.92156566, -37.74681466 ], [ 144.921231830000011, -37.74701937 ], [ 144.92041993, -37.74759054 ], [ 144.91995649, -37.74797744 ], [ 144.919558239999986, -37.74835449 ], [ 144.9193457, -37.74856783 ], [ 144.91916415, -37.74875693 ], [ 144.919020780000011, -37.74891598 ], [ 144.91886165, -37.74909872 ], [ 144.918631119999986, -37.74937483 ], [ 144.91845629, -37.74959947 ], [ 144.918324399999989, -37.74977791 ], [ 144.918267070000013, -37.74985927 ], [ 144.91816885, -37.75000271 ], [ 144.918022189999988, -37.7502264 ], [ 144.917897180000011, -37.75043462 ], [ 144.91779408, -37.7506143 ], [ 144.91763946, -37.75090318 ], [ 144.9175209, -37.75115252 ], [ 144.91731475, -37.7516639 ], [ 144.91721476, -37.75192284 ], [ 144.9167381, -37.75324491 ], [ 144.91661774, -37.75358667 ], [ 144.91649816, -37.75393692 ], [ 144.91633986, -37.75447356 ], [ 144.91630675, -37.7546424 ], [ 144.91628769, -37.75477147 ], [ 144.91627953, -37.75489244 ], [ 144.91627388, -37.75505744 ], [ 144.91628638, -37.75561909 ], [ 144.916292788478302, -37.755997541773716 ] ] } },
{ "type": "Feature", "properties": { "from_stop": "Broadmeadows Railway Station", "to_stop": "Broadmeadows Station", "minutes": 23.8, "tier": 30, "centre": "southern-cross", "MODE": "REGIONAL TRAIN" }, "geometry": { "type": "LineString", "coordinates": [ [ 144.919632682810516, -37.682990056124986 ], [ 144.919596419826973, -37.683035999736404 ] ] } },
{ "type": "Feature", "properties": { "from_stop": "Deer Park Station", "to_stop": "Caroline Springs Railway Station", "minutes": 29.8, "tier": 30, "centre": "southern-cross", "MODE": "REGIONAL TRAIN" }, "geometry": { "type": "LineString", "coordinates": [ [ 144.735724772169078, -37.766154926730032 ], [ 144.73813819, -37.76720543 ], [ 144.73851099, -37.7673729 ], [ 144.73946009, -37.76778366 ], [ 144.740656269999988, -37.76832009 ], [ 144.742245849999989, -37.76901174 ], [ 144.74344579000001, -37.76952649 ], [ 144.74417706, -37.76981526 ], [ 144.744869060000013, -37.77007399 ], [ 144.745416299999988, -37.77023297 ], [ 144.74639256, -37.7705256 ], [ 144.754073010000013, -37.77268269 ], [ 144.75463625, -37.77284284 ], [ 144.75560891, -37.77311451 ], [ 144.75584853, -37.77317594 ], [ 144.75602457, -37.77323363 ], [ 144.756658359999989, -37.77340746 ], [ 144.75794757, -37.77378003 ], [ 144.76106392, -37.77464251 ], [ 144.76324718, -37.77525406 ], [ 144.76442905, -37.77557001 ], [ 144.76579806, -37.77590066 ], [ 144.76698177, -37.77619391 ], [ 144.76752825, -37.77633584 ], [ 144.76806935, -37.77647919 ], [ 144.77083176, -37.77725649 ], [ 144.770834056375577, -37.77725713356724 ] ] } },
{ "type": "Feature", "properties": { "from_stop": "Caroline Springs Railway Station", "to_stop": "Caroline Springs Station", "minutes": 29.8, "tier": 30, "centre": "southern-cross", "MODE": "REGIONAL TRAIN" }, "geometry": { "type": "LineString", "coordinates": [ [ 144.735724772169078, -37.766154926730032 ], [ 144.735693278885662, -37.766141218454258 ] ] } },
{ "type": "Feature", "properties": { "from_stop": "Caulfield Station", "to_stop": "Caulfield Railway Station", "minutes": 18.5, "tier": 30, "centre": "southern-cross", "MODE": "REGIONAL TRAIN" }, "geometry": { "type": "LineString", "coordinates": [ [ 145.042619206479685, -37.877315942653233 ], [ 145.042507979851791, -37.877242761681345 ] ] } },
{ "type": "Feature", "properties": { "from_stop": "Richmond Station", "to_stop": "Caulfield Station", "minutes": 18.5, "tier": 30, "centre": "southern-cross", "MODE": "REGIONAL TRAIN" }, "geometry": { "type": "LineString", "coordinates": [ [ 145.042507979851791, -37.877242761681345 ], [ 145.04250398, -37.87724013 ], [ 145.04235216, -37.87714298 ], [ 145.04202165, -37.8769458 ], [ 145.04122879, -37.87652807 ], [ 145.04093133, -37.87634108 ], [ 145.040703220000012, -37.87618399 ], [ 145.04048913, -37.87602551 ], [ 145.040343979999989, -37.87590838 ], [ 145.03997528, -37.87560386 ], [ 145.0396858, -37.8753604 ], [ 145.03952009, -37.87521724 ], [ 145.03897122, -37.87473173 ], [ 145.035382129999988, -37.87150658 ], [ 145.03529382, -37.87142472 ], [ 145.031254499999989, -37.86779964 ], [ 145.030466960000012, -37.86711148 ], [ 145.03013778, -37.8668285 ], [ 145.02930575, -37.86610444 ], [ 145.02880973, -37.86564978 ], [ 145.02846163000001, -37.86533521 ], [ 145.027817739999989, -37.86473974 ], [ 145.02510819, -37.86226734 ], [ 145.024847099999988, -37.86202424 ], [ 145.024602609999988, -37.86178096 ], [ 145.024255149999988, -37.86142674 ], [ 145.02048955, -37.85749714 ], [ 145.02016588, -37.85714736 ], [ 145.02006968, -37.85703409 ], [ 145.01993026, -37.85686277 ], [ 145.01967036, -37.85653406 ], [ 145.01951177, -37.85635269 ], [ 145.01932528, -37.85615616 ], [ 145.01918787, -37.85602453 ], [ 145.01904775, -37.8558961 ], [ 145.01863698, -37.85554818 ], [ 145.01849318, -37.8554177 ], [ 145.018368400000014, -37.855298 ], [ 145.01738966, -37.85428067 ], [ 145.015034750000012, -37.85185466 ], [ 145.01442148000001, -37.85123584 ], [ 145.01383069, -37.85064813 ], [ 145.01272416, -37.8495402 ], [ 145.01220572, -37.84905229 ], [ 145.012018719999986, -37.84889341 ], [ 145.01183003, -37.84873801 ], [ 145.01163621, -37.84859163 ], [ 145.01143891000001, -37.84844808 ], [ 145.01099237, -37.84815693 ], [ 145.01083492, -37.84806127 ], [ 145.01067329, -37.84796923 ], [ 145.01034596, -37.84779256 ], [ 145.01017914, -37.84770756 ], [ 145.01001039, -37.84762657 ], [ 145.009665399999989, -37.84747304 ], [ 145.00945317, -37.84738618 ], [ 145.00917311, -37.84727781 ], [ 145.00730063, -37.84657412 ], [ 145.0070829, -37.84649798 ], [ 145.00551701, -37.84593589 ], [ 145.0036307, -37.84526326 ], [ 145.003316539999986, -37.84513871 ], [ 145.003147610000013, -37.84506087 ], [ 145.002889110000012, -37.84493302 ], [ 145.002701449999989, -37.84483341 ], [ 145.00244576, -37.84470687 ], [ 145.00225045, -37.84461686 ], [ 145.00205248, -37.84453294 ], [ 145.00183195, -37.8444471 ], [ 145.00162002, -37.84437087 ], [ 145.00134915000001, -37.8442803 ], [ 145.00108698, -37.84420042 ], [ 145.00077142, -37.84409449 ], [ 145.00051765, -37.84399799 ], [ 145.00002737, -37.8437932 ], [ 144.998852950000014, -37.84326128 ], [ 144.997404210000013, -37.84261222 ], [ 144.99700539, -37.84243394 ], [ 144.99664173, -37.84227933 ], [ 144.99603955, -37.84205271 ], [ 144.99470568000001, -37.84158662 ], [ 144.99454375, -37.84152348 ], [ 144.994330459999986, -37.84143522 ], [ 144.994077190000013, -37.8413252 ], [ 144.993947029999987, -37.8412599 ], [ 144.99382792, -37.84119353 ], [ 144.993523149999987, -37.84100891 ], [ 144.99338631, -37.84091727 ], [ 144.99326244, -37.84083784 ], [ 144.9931564, -37.84076303 ], [ 144.99304709, -37.84067898 ], [ 144.992925609999986, -37.84057427 ], [ 144.99279028, -37.84042318 ], [ 144.99272786, -37.84034479 ], [ 144.99267287, -37.84026491 ], [ 144.9926206, -37.84018066 ], [ 144.992566649999986, -37.84007908 ], [ 144.992517740000011, -37.83996794 ], [ 144.99248386, -37.83987616 ], [ 144.992454259999988, -37.83978194 ], [ 144.99240576, -37.83959267 ], [ 144.99237785, -37.83940223 ], [ 144.99236765, -37.83918749 ], [ 144.99237449, -37.83903602 ], [ 144.99239247, -37.83888421 ], [ 144.99241591, -37.83874033 ], [ 144.99284057, -37.83672371 ], [ 144.9929287, -37.83628084 ], [ 144.99299511000001, -37.8358304 ], [ 144.99306345, -37.83522922 ], [ 144.993116750000013, -37.83479684 ], [ 144.993160350000011, -37.8345047 ], [ 144.993209510000014, -37.8342378 ], [ 144.993502260000014, -37.83282677 ], [ 144.993816149999986, -37.83136932 ], [ 144.99390324, -37.83095194 ], [ 144.99404938, -37.83010354 ], [ 144.99422507, -37.82911199 ], [ 144.994320179999988, -37.82853686 ], [ 144.994340380000011, -37.82822747 ], [ 144.99432268000001, -37.82791572 ], [ 144.99427155, -37.8276098 ], [ 144.99411518, -37.82716637 ], [ 144.993962180000011, -37.82680392 ], [ 144.993804039999986, -37.82656449 ], [ 144.99356662, -37.82624881 ], [ 144.993276869999988, -37.82594793 ], [ 144.993051470000012, -37.82575042 ], [ 144.99286604, -37.82559604 ], [ 144.99249991, -37.82531359 ], [ 144.992309979999987, -37.8251613 ], [ 144.992214069999989, -37.82509108 ], [ 144.99198949, -37.82491396 ], [ 144.991711689999988, -37.82470483 ], [ 144.99145729, -37.82453828 ], [ 144.990873420000014, -37.82424598 ], [ 144.99026712, -37.82404341 ], [ 144.990179376868014, -37.824019344256513 ] ] } },
{ "type": "Feature", "properties": { "from_stop": "Caulfield Railway Station", "to_stop": "Clayton Railway Station", "minutes": 32.3, "tier": 45, "centre": "southern-cross", "MODE": "REGIONAL TRAIN" }, "geometry": { "type": "LineString", "coordinates": [ [ 145.042619206479685, -37.877315942653233 ], [ 145.04307266, -37.87761429 ], [ 145.04349115, -37.87789422 ], [ 145.04366194, -37.87802241 ], [ 145.04468784, -37.87887657 ], [ 145.044805129999986, -37.87895998 ], [ 145.04606171, -37.87979813 ], [ 145.0464644, -37.88008292 ], [ 145.04720257, -37.88063227 ], [ 145.04755434, -37.88087386 ], [ 145.047878379999986, -37.88108479 ], [ 145.04824702, -37.88130358 ], [ 145.04914413, -37.88181113 ], [ 145.04970918, -37.88213573 ], [ 145.050081909999989, -37.88234611 ], [ 145.050268749999987, -37.88244852 ], [ 145.05064719, -37.88264088 ], [ 145.05104255, -37.88282559 ], [ 145.05123848, -37.88291103 ], [ 145.05244627, -37.88340991 ], [ 145.05284545, -37.88358377 ], [ 145.05640447, -37.88518353 ], [ 145.05815153, -37.88597216 ], [ 145.05965851, -37.88664704 ], [ 145.06012335, -37.88685918 ], [ 145.06635547, -37.88967096 ], [ 145.06750648, -37.89018786 ], [ 145.06862515, -37.89069422 ], [ 145.06928806, -37.89099194 ], [ 145.070064910000013, -37.89133353 ], [ 145.07263458, -37.89249148 ], [ 145.073816099999988, -37.89303243 ], [ 145.07803737, -37.89493617 ], [ 145.078311219999989, -37.89506681 ], [ 145.07927615, -37.89554361 ], [ 145.07982092, -37.89579555 ], [ 145.082329109999989, -37.89692877 ], [ 145.084283950000014, -37.89780871 ], [ 145.08551746, -37.89836887 ], [ 145.085825160000013, -37.89851986 ], [ 145.086036979999989, -37.89863578 ], [ 145.08624986, -37.89876387 ], [ 145.08653954, -37.89895648 ], [ 145.08701097, -37.89930218 ], [ 145.08739902, -37.89960038 ], [ 145.08884194, -37.90068893 ], [ 145.08960532, -37.90126826 ], [ 145.08986586, -37.90147129 ], [ 145.09064942, -37.90209789 ], [ 145.090975039999989, -37.90234857 ], [ 145.093561349999987, -37.9043084 ], [ 145.094324379999989, -37.90488246 ], [ 145.09579535, -37.90599797 ], [ 145.10055983, -37.90960284 ], [ 145.10089939, -37.90984947 ], [ 145.10141753, -37.91021083 ], [ 145.101625039999988, -37.91035972 ], [ 145.10229886, -37.91086894 ], [ 145.10353712, -37.9117936 ], [ 145.10483936, -37.91278399 ], [ 145.10769449, -37.91494448 ], [ 145.10999657, -37.91667913 ], [ 145.111325169999986, -37.91768618 ], [ 145.11343932, -37.91928067 ], [ 145.11481434, -37.9203224 ], [ 145.11505195, -37.92049761 ], [ 145.11534441, -37.92070317 ], [ 145.11555569, -37.92084489 ], [ 145.11636904, -37.92136816 ], [ 145.116595069999988, -37.92151606 ], [ 145.116805449999987, -37.92165758 ], [ 145.11703204, -37.92181882 ], [ 145.117179779999987, -37.92192744 ], [ 145.117948360000014, -37.92252109 ], [ 145.11831888, -37.92280287 ], [ 145.11859671, -37.92300737 ], [ 145.119449440000011, -37.92361651 ], [ 145.11973738, -37.9238264 ], [ 145.12018916, -37.92416571 ], [ 145.120655246443022, -37.924526293418907 ] ] } },
{ "type": "Feature", "properties": { "from_stop": "Clayton Railway Station", "to_stop": "Clayton Station", "minutes": 32.3, "tier": 45, "centre": "southern-cross", "MODE": "REGIONAL TRAIN" }, "geometry": { "type": "LineString", "coordinates": [ [ 145.120655230073794, -37.924526340430866 ], [ 145.120694034779149, -37.924556366296926 ] ] } },
{ "type": "Feature", "properties": { "from_stop": "Rockbank Railway Station", "to_stop": "Cobblebank Railway Station", "minutes": 39.3, "tier": 45, "centre": "southern-cross", "MODE": "REGIONAL TRAIN" }, "geometry": { "type": "LineString", "coordinates": [ [ 144.650675631671589, -37.729161091350655 ], [ 144.65000735000001, -37.72886656 ], [ 144.64252944, -37.72560806 ], [ 144.64022272, -37.72460037 ], [ 144.639562930000011, -37.72432033 ], [ 144.63880918000001, -37.72402326 ], [ 144.63810378, -37.72377942 ], [ 144.63562773000001, -37.72296974 ], [ 144.626122149999986, -37.71985253 ], [ 144.61849229, -37.71734787 ], [ 144.61047582, -37.7147334 ], [ 144.609447139999986, -37.71438543 ], [ 144.607683830000013, -37.71376724 ], [ 144.604096757095704, -37.712578934998959 ] ] } },
{ "type": "Feature", "properties": { "from_stop": "Cobblebank Railway Station", "to_stop": "Cobblebank Station", "minutes": 39.4, "tier": 45, "centre": "southern-cross", "MODE": "REGIONAL TRAIN" }, "geometry": { "type": "LineString", "coordinates": [ [ 144.604096757095704, -37.712578934998959 ], [ 144.603855384013798, -37.712498974304559 ] ] } },
{ "type": "Feature", "properties": { "from_stop": "Craigieburn Station", "to_stop": "Craigieburn Railway Station", "minutes": 36.7, "tier": 45, "centre": "southern-cross", "MODE": "REGIONAL TRAIN" }, "geometry": { "type": "LineString", "coordinates": [ [ 144.943350809222324, -37.601944054731703 ], [ 144.943196448539396, -37.602303199624714 ] ] } },
{ "type": "Feature", "properties": { "from_stop": "Broadmeadows Station", "to_stop": "Craigieburn Station", "minutes": 36.6, "tier": 45, "centre": "southern-cross", "MODE": "REGIONAL TRAIN" }, "geometry": { "type": "LineString", "coordinates": [ [ 144.919632682810516, -37.682990056124986 ], [ 144.919636200000014, -37.6829856 ], [ 144.92032724, -37.68210778 ], [ 144.92079485, -37.68150349 ], [ 144.92101804, -37.68120967 ], [ 144.92118815, -37.68099341 ], [ 144.92132726, -37.68080761 ], [ 144.921472740000013, -37.68059623 ], [ 144.92163344, -37.68033114 ], [ 144.92181585, -37.68000308 ], [ 144.92203573, -37.67958808 ], [ 144.92219004, -37.67926331 ], [ 144.92232544, -37.67894587 ], [ 144.9224448, -37.67863814 ], [ 144.92258157, -37.67823484 ], [ 144.92270364, -37.67780171 ], [ 144.92282825, -37.67725301 ], [ 144.92306846, -37.67605136 ], [ 144.92319315, -37.67540597 ], [ 144.92322134, -37.67527336 ], [ 144.923409959999987, -37.67432728 ], [ 144.923623850000013, -37.67323953 ], [ 144.92384948, -37.67208818 ], [ 144.92399114, -37.6713416 ], [ 144.924196200000011, -37.67032606 ], [ 144.92430353, -37.66974929 ], [ 144.92465558, -37.66800277 ], [ 144.92475284, -37.66749449 ], [ 144.924835800000011, -37.66709646 ], [ 144.92500432, -37.6662314 ], [ 144.92514981, -37.6654647 ], [ 144.92550065, -37.66371527 ], [ 144.925597720000013, -37.66321303 ], [ 144.925841709999986, -37.66199431 ], [ 144.92616805, -37.6603415 ], [ 144.92624984, -37.65996462 ], [ 144.92638836, -37.65944743 ], [ 144.926541289999989, -37.65898673 ], [ 144.926723689999989, -37.65853006 ], [ 144.92693015, -37.6580885 ], [ 144.9271719, -37.65764152 ], [ 144.9272929, -37.65742781 ], [ 144.92746931, -37.65714136 ], [ 144.92889722000001, -37.65486553 ], [ 144.92959233, -37.65377459 ], [ 144.929597300000012, -37.6537708 ], [ 144.92981046, -37.65343001 ], [ 144.93075769, -37.65193237 ], [ 144.93246355, -37.64922257 ], [ 144.9328016, -37.64867264 ], [ 144.933050970000011, -37.64822236 ], [ 144.9332736, -37.64775088 ], [ 144.933474749999988, -37.64728164 ], [ 144.93364112, -37.64680368 ], [ 144.93378585, -37.64631741 ], [ 144.933899020000013, -37.64588556 ], [ 144.9343791, -37.64351346 ], [ 144.93440284, -37.64341736 ], [ 144.93442647, -37.64333351 ], [ 144.93449489, -37.64311806 ], [ 144.93452671, -37.642992 ], [ 144.93463748, -37.64245034 ], [ 144.9348028, -37.64160837 ], [ 144.934927640000012, -37.64102081 ], [ 144.9350765, -37.64026173 ], [ 144.935197249999987, -37.63970312 ], [ 144.93530986, -37.63912319 ], [ 144.93610457, -37.63520608 ], [ 144.93639828, -37.63373624 ], [ 144.93656194, -37.63293217 ], [ 144.93673671, -37.63205016 ], [ 144.93898927, -37.62092344 ], [ 144.94168635, -37.60752626 ], [ 144.941837060000012, -37.60679306 ], [ 144.94216545, -37.60514914 ], [ 144.94226204, -37.60474321 ], [ 144.94241358, -37.6042301 ], [ 144.94259463, -37.6037148 ], [ 144.94280738, -37.60320843 ], [ 144.943196448539396, -37.602303199624714 ] ] } },
{ "type": "Feature", "properties": { "from_stop": "Clayton Station", "to_stop": "Dandenong Railway Station", "minutes": 48.9, "tier": 60, "centre": "southern-cross", "MODE": "REGIONAL TRAIN" }, "geometry": { "type": "LineString", "coordinates": [ [ 145.120694034779149, -37.924556366296926 ], [ 145.12100841, -37.92479962 ], [ 145.12342482, -37.9266301 ], [ 145.12468734, -37.9275926 ], [ 145.12510617, -37.92794479 ], [ 145.126016130000011, -37.92869762 ], [ 145.12661866, -37.92917322 ], [ 145.128600189999986, -37.93068829 ], [ 145.128960119999988, -37.93094653 ], [ 145.129494889999989, -37.9313183 ], [ 145.12993387, -37.93162717 ], [ 145.13087751, -37.93233392 ], [ 145.131301369999989, -37.93267859 ], [ 145.1316635, -37.93299453 ], [ 145.13212535, -37.93338496 ], [ 145.13253744, -37.93370944 ], [ 145.136675059999988, -37.93682943 ], [ 145.138900510000013, -37.93851563 ], [ 145.13916054, -37.93870863 ], [ 145.14302317, -37.94162264 ], [ 145.14595555, -37.9438448 ], [ 145.147217649999988, -37.94478371 ], [ 145.14913783, -37.94622366 ], [ 145.150513960000012, -37.94717939 ], [ 145.150773359999988, -37.94736379 ], [ 145.15138972, -37.94778559 ], [ 145.15244177, -37.94853334 ], [ 145.152647409999986, -37.94868806 ], [ 145.15302904, -37.94899532 ], [ 145.15465501, -37.9502131 ], [ 145.155384919999989, -37.95079293 ], [ 145.15586996, -37.95118462 ], [ 145.15656525, -37.95176173 ], [ 145.157965069999989, -37.95289311 ], [ 145.15860575, -37.95340681 ], [ 145.15948755, -37.95405018 ], [ 145.160666459999987, -37.9549389 ], [ 145.161304050000012, -37.95538594 ], [ 145.16169245, -37.95564362 ], [ 145.16223869, -37.95599839 ], [ 145.16276292, -37.95636426 ], [ 145.16377786000001, -37.95715801 ], [ 145.16544213, -37.95853396 ], [ 145.16602264, -37.95897198 ], [ 145.16649783, -37.95932048 ], [ 145.16687416, -37.95957544 ], [ 145.16732932, -37.95987379 ], [ 145.16812527, -37.96040059 ], [ 145.168433459999989, -37.96061789 ], [ 145.168738499999989, -37.9608382 ], [ 145.17070404, -37.96231393 ], [ 145.17207615, -37.96334927 ], [ 145.17288032, -37.96395204 ], [ 145.174063069999988, -37.9648314 ], [ 145.17432847, -37.96501747 ], [ 145.175442479999987, -37.96583808 ], [ 145.17670872, -37.96680513 ], [ 145.17685776, -37.9669099 ], [ 145.178161350000011, -37.96794258 ], [ 145.179565599999989, -37.96902619 ], [ 145.18340211, -37.97219974 ], [ 145.184073969999986, -37.97272307 ], [ 145.18514284, -37.97350864 ], [ 145.186483970000012, -37.97451496 ], [ 145.187422239999989, -37.97521117 ], [ 145.188332620000011, -37.97581052 ], [ 145.18875379, -37.97609096 ], [ 145.189905220000014, -37.97684739 ], [ 145.1931677, -37.9791307 ], [ 145.196428989999987, -37.98140056 ], [ 145.19811872, -37.98257403 ], [ 145.200028690000011, -37.98388333 ], [ 145.20059124, -37.98428531 ], [ 145.201381160000011, -37.98484216 ], [ 145.20407744, -37.98671773 ], [ 145.20589938, -37.98798963 ], [ 145.20676394, -37.98858471 ], [ 145.20732965, -37.98887874 ], [ 145.20839842, -37.98937004 ], [ 145.20911444, -37.98970637 ], [ 145.2097115, -37.98998113 ] ] } },
{ "type": "Feature", "properties": { "from_stop": "Clayton Station", "to_stop": "Dandenong Station", "minutes": 48.9, "tier": 60, "centre": "southern-cross", "MODE": "REGIONAL TRAIN" }, "geometry": { "type": "LineString", "coordinates": [ [ 145.2097115, -37.98998113 ], [ 145.20911444, -37.98970637 ], [ 145.20839842, -37.98937004 ], [ 145.20732965, -37.98887874 ], [ 145.20676394, -37.98858471 ], [ 145.20589938, -37.98798963 ], [ 145.20407744, -37.98671773 ], [ 145.201381160000011, -37.98484216 ], [ 145.20059124, -37.98428531 ], [ 145.200028690000011, -37.98388333 ], [ 145.19811872, -37.98257403 ], [ 145.196428989999987, -37.98140056 ], [ 145.1931677, -37.9791307 ], [ 145.189905220000014, -37.97684739 ], [ 145.18875379, -37.97609096 ], [ 145.188332620000011, -37.97581052 ], [ 145.187422239999989, -37.97521117 ], [ 145.186483970000012, -37.97451496 ], [ 145.18514284, -37.97350864 ], [ 145.184073969999986, -37.97272307 ], [ 145.18340211, -37.97219974 ], [ 145.179565599999989, -37.96902619 ], [ 145.178161350000011, -37.96794258 ], [ 145.17685776, -37.9669099 ], [ 145.17670872, -37.96680513 ], [ 145.175442479999987, -37.96583808 ], [ 145.17432847, -37.96501747 ], [ 145.174063069999988, -37.9648314 ], [ 145.17288032, -37.96395204 ], [ 145.17207615, -37.96334927 ], [ 145.17070404, -37.96231393 ], [ 145.168738499999989, -37.9608382 ], [ 145.168433459999989, -37.96061789 ], [ 145.16812527, -37.96040059 ], [ 145.16732932, -37.95987379 ], [ 145.16687416, -37.95957544 ], [ 145.16649783, -37.95932048 ], [ 145.16602264, -37.95897198 ], [ 145.16544213, -37.95853396 ], [ 145.16377786000001, -37.95715801 ], [ 145.16276292, -37.95636426 ], [ 145.16223869, -37.95599839 ], [ 145.16169245, -37.95564362 ], [ 145.161304050000012, -37.95538594 ], [ 145.160666459999987, -37.9549389 ], [ 145.15948755, -37.95405018 ], [ 145.15860575, -37.95340681 ], [ 145.157965069999989, -37.95289311 ], [ 145.15656525, -37.95176173 ], [ 145.15586996, -37.95118462 ], [ 145.155384919999989, -37.95079293 ], [ 145.15465501, -37.9502131 ], [ 145.15302904, -37.94899532 ], [ 145.152647409999986, -37.94868806 ], [ 145.15244177, -37.94853334 ], [ 145.15138972, -37.94778559 ], [ 145.150773359999988, -37.94736379 ], [ 145.150513960000012, -37.94717939 ], [ 145.14913783, -37.94622366 ], [ 145.147217649999988, -37.94478371 ], [ 145.14595555, -37.9438448 ], [ 145.14302317, -37.94162264 ], [ 145.13916054, -37.93870863 ], [ 145.138900510000013, -37.93851563 ], [ 145.136675059999988, -37.93682943 ], [ 145.13253744, -37.93370944 ], [ 145.13212535, -37.93338496 ], [ 145.1316635, -37.93299453 ], [ 145.131301369999989, -37.93267859 ], [ 145.13087751, -37.93233392 ], [ 145.12993387, -37.93162717 ], [ 145.129494889999989, -37.9313183 ], [ 145.128960119999988, -37.93094653 ], [ 145.128600189999986, -37.93068829 ], [ 145.12661866, -37.92917322 ], [ 145.126016130000011, -37.92869762 ], [ 145.12510617, -37.92794479 ], [ 145.12468734, -37.9275926 ], [ 145.12342482, -37.9266301 ], [ 145.12100841, -37.92479962 ], [ 145.120694034779149, -37.924556366296926 ] ] } },
{ "type": "Feature", "properties": { "from_stop": "Ardeer Station", "to_stop": "Deer Park Railway Station", "minutes": 24.2, "tier": 30, "centre": "southern-cross", "MODE": "REGIONAL TRAIN" }, "geometry": { "type": "LineString", "coordinates": [ [ 144.771068834323756, -37.777322930903082 ], [ 144.77122312, -37.77736617 ], [ 144.772064660000012, -37.77759594 ], [ 144.77332771, -37.77795992 ], [ 144.77628605000001, -37.77878792 ], [ 144.776805309999986, -37.77893749 ], [ 144.77794032, -37.77924151 ], [ 144.77991517000001, -37.77987577 ], [ 144.781565230000012, -37.78039988 ], [ 144.78233427, -37.78061506 ], [ 144.78261457, -37.78068819 ], [ 144.78302631, -37.78078939 ], [ 144.783677430000012, -37.78094259 ], [ 144.78428157, -37.78106822 ], [ 144.78471878, -37.78114926 ], [ 144.78506006, -37.78120713 ], [ 144.78578576000001, -37.78131522 ], [ 144.78674195, -37.78143493 ], [ 144.78933565, -37.78170308 ], [ 144.79054002, -37.78183129 ], [ 144.79439176, -37.78222646 ], [ 144.79627125, -37.78242836 ], [ 144.79687146, -37.7824851 ], [ 144.79894622, -37.7827226 ], [ 144.800086060000012, -37.78288051 ], [ 144.800857330000014, -37.78298116 ], [ 144.801538060000013, -37.78305262 ], [ 144.801540082786829, -37.783052767494873 ] ] } },
{ "type": "Feature", "properties": { "from_stop": "Deer Park Railway Station", "to_stop": "Deer Park Station", "minutes": 24.2, "tier": 30, "centre": "southern-cross", "MODE": "REGIONAL TRAIN" }, "geometry": { "type": "LineString", "coordinates": [ [ 144.771068834323756, -37.777322930903082 ], [ 144.770834056375577, -37.77725713356724 ] ] } },
{ "type": "Feature", "properties": { "from_stop": "Donnybrook Station", "to_stop": "Donnybrook Railway Station", "minutes": 40.5, "tier": 45, "centre": "southern-cross", "MODE": "REGIONAL TRAIN" }, "geometry": { "type": "LineString", "coordinates": [ [ 144.970220296455608, -37.542037012503933 ], [ 144.970201997452648, -37.542069719731053 ] ] } },
{ "type": "Feature", "properties": { "from_stop": "Craigieburn Railway Station", "to_stop": "Donnybrook Station", "minutes": 40.5, "tier": 45, "centre": "southern-cross", "MODE": "REGIONAL TRAIN" }, "geometry": { "type": "LineString", "coordinates": [ [ 144.943350809222324, -37.601944054731696 ], [ 144.943395329999987, -37.60184047 ], [ 144.94416641, -37.60008152 ], [ 144.94444533, -37.59943337 ], [ 144.944665179999987, -37.59891486 ], [ 144.94510122, -37.59791563 ], [ 144.946045, -37.59573476 ], [ 144.948150489999989, -37.59088282 ], [ 144.95654925, -37.5714725 ], [ 144.95893042, -37.56595812 ], [ 144.96569007, -37.55035079 ], [ 144.96601475, -37.54966606 ], [ 144.96630213, -37.54908784 ], [ 144.96659403000001, -37.54852627 ], [ 144.9692843, -37.5437265 ], [ 144.969904500000013, -37.54260146 ], [ 144.970201997452648, -37.542069719731053 ] ] } },
{ "type": "Feature", "properties": { "from_stop": "North Melbourne Railway Station", "to_stop": "Essendon Railway Station", "minutes": 11.3, "tier": 15, "centre": "southern-cross", "MODE": "REGIONAL TRAIN" }, "geometry": { "type": "LineString", "coordinates": [ [ 144.916293000841392, -37.756010082845286 ], [ 144.916310259999989, -37.75702932 ], [ 144.91631845, -37.75738074 ], [ 144.91632055, -37.75764951 ], [ 144.916331430000014, -37.7579698 ], [ 144.9163287, -37.75836627 ], [ 144.91633041, -37.75858862 ], [ 144.91635378, -37.75879144 ], [ 144.91639131, -37.7590839 ], [ 144.91642585, -37.75930944 ], [ 144.916476390000014, -37.7595916 ], [ 144.91656335, -37.76003633 ], [ 144.91663091, -37.76033077 ], [ 144.916656280000012, -37.76040962 ], [ 144.91670994, -37.76064551 ], [ 144.916776410000011, -37.76087783 ], [ 144.9168254, -37.76104506 ], [ 144.91687325, -37.7611845 ], [ 144.91692537, -37.76135404 ], [ 144.91706614, -37.76170528 ], [ 144.917146800000012, -37.76188532 ], [ 144.91731843, -37.76224153 ], [ 144.91761756, -37.76277094 ], [ 144.917898470000011, -37.7632255 ], [ 144.91824227, -37.76377354 ], [ 144.91827847, -37.76382267 ], [ 144.91853968, -37.7642676 ], [ 144.91869105, -37.76454531 ], [ 144.91886585, -37.76489797 ], [ 144.91893875, -37.7650511 ], [ 144.91903224, -37.76526741 ], [ 144.91911316, -37.7654626 ], [ 144.919212320000014, -37.76571163 ], [ 144.91928445, -37.76592459 ], [ 144.919397049999986, -37.76629363 ], [ 144.91947309, -37.76655757 ], [ 144.919503600000013, -37.7666923 ], [ 144.91960814, -37.76717474 ], [ 144.919959729999988, -37.76885543 ], [ 144.92060899, -37.77199947 ], [ 144.92069335, -37.77238828 ], [ 144.92075712, -37.77266931 ], [ 144.92082876, -37.77294859 ], [ 144.92089815, -37.773187 ], [ 144.9209687, -37.77341246 ], [ 144.92105976, -37.77367541 ], [ 144.92111757, -37.77382873 ], [ 144.92121369, -37.77406914 ], [ 144.92133679, -37.77435582 ], [ 144.92145905000001, -37.77461986 ], [ 144.921627769999986, -37.77494383 ], [ 144.92171717, -37.7751042 ], [ 144.92184669, -37.77531601 ], [ 144.92198532, -37.77555906 ], [ 144.92211685, -37.77575973 ], [ 144.92230195, -37.77602614 ], [ 144.92253414000001, -37.77633808 ], [ 144.92272685, -37.77658398 ], [ 144.922855809999987, -37.77673883 ], [ 144.92307019, -37.77698133 ], [ 144.92328038, -37.77721123 ], [ 144.92406349, -37.77804997 ], [ 144.92417076000001, -37.77815613 ], [ 144.92569967, -37.77977283 ], [ 144.926081900000014, -37.78018941 ], [ 144.92648822000001, -37.78068653 ], [ 144.92690256, -37.78125463 ], [ 144.92713579, -37.78162002 ], [ 144.92732055, -37.78193228 ], [ 144.927504160000012, -37.78226931 ], [ 144.9276439, -37.78254284 ], [ 144.92779187, -37.78285923 ], [ 144.9280364, -37.78345029 ], [ 144.928174500000011, -37.78385617 ], [ 144.92827768, -37.78420278 ], [ 144.928458010000014, -37.78492193 ], [ 144.92883427000001, -37.78657491 ], [ 144.929011370000012, -37.78728391 ], [ 144.929238410000011, -37.78826252 ], [ 144.92969844000001, -37.79018597 ], [ 144.92981379, -37.79070752 ], [ 144.92998344, -37.79141982 ], [ 144.930345390000014, -37.79296899 ], [ 144.930500669999986, -37.79361867 ], [ 144.9306832, -37.79425243 ], [ 144.93072183000001, -37.79437378 ], [ 144.930931359999988, -37.79498007 ], [ 144.930999320000012, -37.79520223 ], [ 144.93210173, -37.79849556 ], [ 144.93225322, -37.79891529 ], [ 144.93238066, -37.79916318 ], [ 144.93267569, -37.79963274 ], [ 144.93280686, -37.79983258 ], [ 144.93305045, -37.80019182 ], [ 144.93318488, -37.80036424 ], [ 144.93329977, -37.80049647 ], [ 144.93342316, -37.80062489 ], [ 144.933502010000012, -37.80070116 ], [ 144.933582519999987, -37.80077521 ], [ 144.93367468, -37.80085469 ], [ 144.93387023, -37.80101033 ], [ 144.93412519, -37.80118224 ], [ 144.93437756, -37.80134491 ], [ 144.93460693, -37.8014733 ], [ 144.93512461, -37.80173398 ], [ 144.93580689, -37.80206712 ], [ 144.93726633, -37.80279787 ], [ 144.937918130000014, -37.80312109 ], [ 144.938258749999989, -37.80331711 ], [ 144.93854227, -37.80349996 ], [ 144.93872054, -37.80364033 ], [ 144.938919059999989, -37.80380449 ], [ 144.9393923, -37.80422668 ], [ 144.93974502, -37.80460062 ], [ 144.940052220000013, -37.80491663 ], [ 144.940191840000011, -37.80503794 ], [ 144.940543170000012, -37.80537652 ], [ 144.94079008, -37.8056347 ], [ 144.94107815000001, -37.80595668 ], [ 144.941410191424836, -37.806386987264879 ] ] } },
{ "type": "Feature", "properties": { "from_stop": "Essendon Railway Station", "to_stop": "Essendon Station", "minutes": 11.3, "tier": 15, "centre": "southern-cross", "MODE": "REGIONAL TRAIN" }, "geometry": { "type": "LineString", "coordinates": [ [ 144.916021793467962, -37.756001990159298 ], [ 144.91602181, -37.75600309 ], [ 144.916021978412488, -37.756014329915736 ] ] } },
{ "type": "Feature", "properties": { "from_stop": "Southern Cross Railway Station", "to_stop": "Flinders Street Railway Station", "minutes": 2.4, "tier": 15, "centre": "southern-cross", "MODE": "REGIONAL TRAIN" }, "geometry": { "type": "LineString", "coordinates": [ [ 144.966970600091628, -37.818325813918015 ], [ 144.966790980000013, -37.81838009 ], [ 144.96589819, -37.81861574 ], [ 144.96554072, -37.81871825 ], [ 144.96515717, -37.81881859 ], [ 144.96490879000001, -37.81887819 ], [ 144.96394411, -37.81908807 ], [ 144.96330513, -37.81924382 ], [ 144.96270032000001, -37.81932203 ], [ 144.96246973, -37.81937076 ], [ 144.96225075000001, -37.81941023 ], [ 144.962102429999987, -37.81943353 ], [ 144.961961269999989, -37.81944811 ], [ 144.961861739999989, -37.81945288 ], [ 144.96164991, -37.81945579 ], [ 144.96149635, -37.81946287 ], [ 144.96122889, -37.819485 ], [ 144.961059729999988, -37.81950559 ], [ 144.96091558, -37.81952571 ], [ 144.96078262, -37.81954828 ], [ 144.96064644, -37.81957612 ], [ 144.960425140000012, -37.81962951 ], [ 144.960082879999987, -37.8197237 ], [ 144.95942464, -37.81992263 ], [ 144.95921701, -37.8199831 ], [ 144.95898336, -37.82006016 ], [ 144.9587611, -37.82014858 ], [ 144.95847555, -37.82027061 ], [ 144.95818537, -37.82043247 ], [ 144.95791441, -37.82059801 ], [ 144.957491589999989, -37.82086941 ], [ 144.95723307, -37.82101208 ], [ 144.95696661, -37.82111686 ], [ 144.95668581000001, -37.82120229 ], [ 144.95640475, -37.82126022 ], [ 144.956102210000012, -37.82129327 ], [ 144.95579224, -37.82130339 ], [ 144.955486650000012, -37.82127862 ], [ 144.955207120000011, -37.82123141 ], [ 144.95495263, -37.82116589 ], [ 144.95466722, -37.8210645 ], [ 144.954508659999988, -37.82099326 ], [ 144.954353450000013, -37.82091613 ], [ 144.9540244, -37.82070783 ], [ 144.95381611, -37.82054938 ], [ 144.95370535, -37.82045473 ], [ 144.95353585, -37.82029444 ], [ 144.95331887, -37.82012152 ], [ 144.95310587, -37.81991144 ], [ 144.95307775, -37.8198604 ], [ 144.95300043, -37.81975173 ], [ 144.95276843, -37.81941137 ], [ 144.952585449999987, -37.81915514 ], [ 144.952419742047908, -37.818945388640998 ] ] } },
{ "type": "Feature", "properties": { "from_stop": "Flinders Street Railway Station", "to_stop": "Flinders Street Station", "minutes": 2.4, "tier": 15, "centre": "southern-cross", "MODE": "REGIONAL TRAIN" }, "geometry": { "type": "Point", "coordinates": [ 144.966970600091628, -37.818325813918015 ] } },
{ "type": "Feature", "properties": { "from_stop": "Footscray Station", "to_stop": "Footscray Railway Station", "minutes": 6.4, "tier": 15, "centre": "southern-cross", "MODE": "REGIONAL TRAIN" }, "geometry": { "type": "LineString", "coordinates": [ [ 144.902147737168264, -37.801592494237049 ], [ 144.902117733774418, -37.801607587856125 ] ] } },
{ "type": "Feature", "properties": { "from_stop": "North Melbourne Railway Station", "to_stop": "Footscray Station", "minutes": 6.4, "tier": 15, "centre": "southern-cross", "MODE": "REGIONAL TRAIN" }, "geometry": { "type": "LineString", "coordinates": [ [ 144.902147737168264, -37.801592494237049 ], [ 144.90215029, -37.80159121 ], [ 144.90250515, -37.80141279 ], [ 144.902846610000012, -37.80122593 ], [ 144.903124139999989, -37.80105884 ], [ 144.90475608, -37.80001406 ], [ 144.904970850000012, -37.79989307 ], [ 144.90517559, -37.79978577 ], [ 144.90544454, -37.79966061 ], [ 144.90608124, -37.79938653 ], [ 144.90655917, -37.7991847 ], [ 144.9069346, -37.799037 ], [ 144.90721965, -37.79893257 ], [ 144.90745259, -37.79885209 ], [ 144.90783765, -37.79872917 ], [ 144.908144600000014, -37.7986418 ], [ 144.90853811, -37.79853722 ], [ 144.909016220000012, -37.79842532 ], [ 144.909276330000012, -37.79837172 ], [ 144.909594629999987, -37.79831249 ], [ 144.90982625, -37.79827424 ], [ 144.910153509999986, -37.7982276 ], [ 144.910616760000011, -37.79818707 ], [ 144.910973969999986, -37.79816592 ], [ 144.91156544, -37.79815361 ], [ 144.91338445, -37.7981344 ], [ 144.913949339999988, -37.79813053 ], [ 144.914236929999987, -37.79813319 ], [ 144.91447545, -37.79814471 ], [ 144.91475022, -37.7981631 ], [ 144.91503823, -37.79818739 ], [ 144.91568798, -37.79827162 ], [ 144.91687492, -37.79844429 ], [ 144.918362300000013, -37.79866434 ], [ 144.919824260000013, -37.79888393 ], [ 144.9225765, -37.79929028 ], [ 144.92294146, -37.7993488 ], [ 144.92538326, -37.79971762 ], [ 144.92602213, -37.79980178 ], [ 144.926295, -37.799832 ], [ 144.92655295, -37.79985123 ], [ 144.92695305, -37.79986368 ], [ 144.92708835, -37.79987084 ], [ 144.92721215, -37.79988266 ], [ 144.92734037, -37.79989888 ], [ 144.92812905, -37.80001549 ], [ 144.928495020000014, -37.80006681 ], [ 144.9288, -37.80011453 ], [ 144.92946077, -37.80020789 ], [ 144.93026007, -37.80032656 ], [ 144.93062031, -37.80039228 ], [ 144.93088935, -37.8004454 ], [ 144.93121967, -37.80051717 ], [ 144.93153475, -37.8005975 ], [ 144.93184978, -37.80068793 ], [ 144.932811179999987, -37.80098516 ], [ 144.93331367, -37.80115899 ], [ 144.93377713000001, -37.80132717 ], [ 144.93402952, -37.80142424 ], [ 144.93436338, -37.8015687 ], [ 144.93473305, -37.80174018 ], [ 144.935468969999988, -37.8021132 ], [ 144.93636175, -37.8025469 ], [ 144.936991080000013, -37.80286126 ], [ 144.9379299, -37.8033392 ], [ 144.93804534, -37.80340277 ], [ 144.93822352, -37.80351394 ], [ 144.93840186, -37.80363566 ], [ 144.93863464, -37.80381321 ], [ 144.93889468, -37.80403566 ], [ 144.94009405, -37.8050994 ], [ 144.9403327, -37.80533571 ], [ 144.940634139999986, -37.80570371 ], [ 144.940882140000014, -37.80596353 ], [ 144.9411421, -37.80628763 ], [ 144.941292008883948, -37.806479918913332 ] ] } },
{ "type": "Feature", "properties": { "from_stop": "Wallan Railway Station", "to_stop": "Heathcote Junction Railway Station", "minutes": 52.9, "tier": 60, "centre": "southern-cross", "MODE": "REGIONAL TRAIN" }, "geometry": { "type": "LineString", "coordinates": [ [ 145.005457315610613, -37.416572525923947 ], [ 145.00551737, -37.41640824 ], [ 145.00567031, -37.4160524 ], [ 145.00590635, -37.41559233 ], [ 145.00619871, -37.41512151 ], [ 145.006560830000012, -37.41463572 ], [ 145.00695776, -37.41418837 ], [ 145.00738422, -37.41377721 ], [ 145.01615521, -37.40625136 ], [ 145.01789159, -37.40477029 ], [ 145.02278388, -37.40058126 ], [ 145.02321476, -37.40020229 ], [ 145.02365201, -37.3997953 ], [ 145.02404092, -37.39940111 ], [ 145.02439497, -37.3990176 ], [ 145.024767809999986, -37.39856366 ], [ 145.02512449, -37.39809278 ], [ 145.02546246, -37.39761121 ], [ 145.028564530000011, -37.39311488 ], [ 145.02911279, -37.39230957 ], [ 145.03147847, -37.38886163 ], [ 145.03173597, -37.38845657 ], [ 145.031985529999986, -37.38798352 ], [ 145.03219472, -37.38750403 ], [ 145.03234495, -37.38705437 ], [ 145.0324575, -37.386594 ], [ 145.03253533, -37.38614864 ], [ 145.032572890000012, -37.38569251 ], [ 145.032575540000011, -37.38520661 ], [ 145.03254605, -37.38469304 ], [ 145.03231539, -37.38128079 ], [ 145.03225375, -37.38070963 ], [ 145.03215438, -37.38013839 ], [ 145.032025729999987, -37.37960353 ], [ 145.0318728, -37.3790898 ], [ 145.03169312, -37.37860166 ], [ 145.0314356, -37.3780241 ], [ 145.03121031, -37.37757864 ], [ 145.030955549999987, -37.37710332 ], [ 145.03068489, -37.37660511 ], [ 145.028069879168271, -37.371821610695697 ] ] } },
{ "type": "Feature", "properties": { "from_stop": "Heathcote Junction Railway Station", "to_stop": "Heathcote Junction Station", "minutes": 52.9, "tier": 60, "centre": "southern-cross", "MODE": "REGIONAL TRAIN" }, "geometry": { "type": "LineString", "coordinates": [ [ 145.028007719608354, -37.371631027676472 ], [ 145.028100960360092, -37.371803648027566 ] ] } },
{ "type": "Feature", "properties": { "from_stop": "Lara Station", "to_stop": "Lara Railway Station", "minutes": 55.3, "tier": 60, "centre": "southern-cross", "MODE": "REGIONAL TRAIN" }, "geometry": { "type": "Point", "coordinates": [ 144.414345970419475, -38.022364344138914 ] } },
{ "type": "Feature", "properties": { "from_stop": "Little River Railway Station", "to_stop": "Lara Station", "minutes": 55.3, "tier": 60, "centre": "southern-cross", "MODE": "REGIONAL TRAIN" }, "geometry": { "type": "LineString", "coordinates": [ [ 144.414345970419475, -38.022364344138914 ], [ 144.41438865, -38.02232502 ], [ 144.4151312, -38.02158302 ], [ 144.41555152, -38.02113858 ], [ 144.416010910000011, -38.02062589 ], [ 144.416611679999988, -38.01997934 ], [ 144.41721787, -38.01937922 ], [ 144.417687269999988, -38.01894387 ], [ 144.41844096, -38.0183205 ], [ 144.419125009999988, -38.01779227 ], [ 144.42022473, -38.01698933 ], [ 144.42134316, -38.01616517 ], [ 144.42247505, -38.01534309 ], [ 144.42504193, -38.01345819 ], [ 144.427206500000011, -38.01188377 ], [ 144.43193517, -38.00840951 ], [ 144.43817784, -38.00383011 ], [ 144.439803219999988, -38.00263169 ], [ 144.44144472, -38.00143333 ], [ 144.443204329999986, -38.00014399 ], [ 144.44464195, -37.99909785 ], [ 144.44697942, -37.99738263 ], [ 144.44907035, -37.99586179 ], [ 144.46812472, -37.98189081 ], [ 144.476652300000012, -37.97562047 ], [ 144.479511519999988, -37.97354634 ], [ 144.48084993, -37.97261808 ], [ 144.48318605, -37.97107879 ], [ 144.48522455, -37.96980593 ], [ 144.48667838, -37.96893684 ], [ 144.487925569999987, -37.96821163 ], [ 144.49049782, -37.96679898 ], [ 144.492066849999986, -37.96598922 ], [ 144.49335439, -37.96534628 ], [ 144.496165850000011, -37.96404239 ], [ 144.49648455, -37.9638914 ], [ 144.49815025, -37.9631303 ], [ 144.498502510285107, -37.962967185847369 ] ] } },
{ "type": "Feature", "properties": { "from_stop": "Little River Station", "to_stop": "Little River Railway Station", "minutes": 49.3, "tier": 60, "centre": "southern-cross", "MODE": "REGIONAL TRAIN" }, "geometry": { "type": "Point", "coordinates": [ 144.498485522103323, -37.962930506034127 ] } },
{ "type": "Feature", "properties": { "from_stop": "Wyndham Vale Station", "to_stop": "Little River Station", "minutes": 49.3, "tier": 60, "centre": "southern-cross", "MODE": "REGIONAL TRAIN" }, "geometry": { "type": "LineString", "coordinates": [ [ 144.498502510285107, -37.962967185847369 ], [ 144.50054809, -37.96201998 ], [ 144.50464116, -37.96013787 ], [ 144.50567645000001, -37.95966839 ], [ 144.506676879999986, -37.9592433 ], [ 144.50971046, -37.95806112 ], [ 144.51796098, -37.95491002 ], [ 144.525350479999986, -37.95206749 ], [ 144.53526657, -37.9482477 ], [ 144.54302027, -37.94526389 ], [ 144.54682104, -37.94378957 ], [ 144.54866915, -37.94308101 ], [ 144.55929656, -37.93899356 ], [ 144.575904689999987, -37.93258802 ], [ 144.58149035, -37.93044909 ], [ 144.58217112, -37.93017861 ], [ 144.58683911, -37.92843064 ], [ 144.5873987, -37.92820477 ], [ 144.58785935, -37.92800904 ], [ 144.58833958, -37.92779217 ], [ 144.58896908, -37.92749104 ], [ 144.58931256, -37.92731606 ], [ 144.590326690000012, -37.9267532 ], [ 144.59076546, -37.92648852 ], [ 144.59122059, -37.92617912 ], [ 144.59174439, -37.92582923 ], [ 144.59214985, -37.92552512 ], [ 144.59241425, -37.92532228 ], [ 144.59291264, -37.92493104 ], [ 144.59339436, -37.92451396 ], [ 144.59378976, -37.92416223 ], [ 144.59415456, -37.92382439 ], [ 144.594571519999988, -37.9234076 ], [ 144.59488345, -37.92308616 ], [ 144.59519459, -37.92274352 ], [ 144.59545922, -37.92241768 ], [ 144.59580166, -37.92202883 ], [ 144.59609396, -37.92167049 ], [ 144.59642514, -37.92121481 ], [ 144.5967733, -37.92070586 ], [ 144.597051349999987, -37.92028549 ], [ 144.59731824, -37.91983381 ], [ 144.59757013, -37.91938147 ], [ 144.59780483, -37.91894346 ], [ 144.59804896, -37.91843589 ], [ 144.59825569, -37.91795874 ], [ 144.59847005, -37.9174257 ], [ 144.59863539, -37.91694789 ], [ 144.59879855, -37.91644308 ], [ 144.598924509999989, -37.91597302 ], [ 144.599056780000012, -37.91543136 ], [ 144.59915725, -37.91492997 ], [ 144.599649660000011, -37.91229526 ], [ 144.59979665, -37.91161189 ], [ 144.60022976, -37.90969407 ], [ 144.60033855, -37.90916742 ], [ 144.600558119999988, -37.90800353 ], [ 144.600866450000012, -37.90631591 ], [ 144.60111475, -37.90500572 ], [ 144.60180931, -37.90125036 ], [ 144.60201564, -37.90021937 ], [ 144.6022122, -37.89938399 ], [ 144.60241188, -37.89864149 ], [ 144.60268018, -37.89781694 ], [ 144.60451315, -37.89210844 ], [ 144.60473735, -37.89140428 ], [ 144.604866179999988, -37.89097977 ], [ 144.60506419, -37.89026616 ], [ 144.605278950000013, -37.88943908 ], [ 144.6056034, -37.88817421 ], [ 144.605675459999986, -37.88791183 ], [ 144.605860549999989, -37.8871893 ], [ 144.60650403, -37.88471262 ], [ 144.60690501, -37.88314041 ], [ 144.60699438, -37.88276096 ], [ 144.60707715, -37.88237814 ], [ 144.60715468, -37.88198161 ], [ 144.60725775, -37.88128786 ], [ 144.607295599999986, -37.88094738 ], [ 144.60732647, -37.88063992 ], [ 144.60734667, -37.88040568 ], [ 144.60736767, -37.88012568 ], [ 144.60747059, -37.87887423 ], [ 144.60752756, -37.8781363 ], [ 144.6075791, -37.87756946 ], [ 144.607615579999987, -37.87720453 ], [ 144.6076597, -37.87685301 ], [ 144.60771015, -37.87649196 ], [ 144.60776546, -37.87612471 ], [ 144.607874149999986, -37.87548136 ], [ 144.60833205, -37.87284257 ], [ 144.608336268547845, -37.872818142905473 ] ] } },
{ "type": "Feature", "properties": { "from_stop": "Cobblebank Station", "to_stop": "Melton Railway Station", "minutes": 42.4, "tier": 45, "centre": "southern-cross", "MODE": "REGIONAL TRAIN" }, "geometry": { "type": "LineString", "coordinates": [ [ 144.603855387511373, -37.71249896239371 ], [ 144.6031769, -37.71227421 ], [ 144.600878849999987, -37.71152284 ], [ 144.599143950000013, -37.71096026 ], [ 144.59685344, -37.71025547 ], [ 144.58717126, -37.70707883 ], [ 144.58390445, -37.7060029 ], [ 144.58278525, -37.70564211 ], [ 144.57929887, -37.70449667 ], [ 144.578493439999988, -37.70423673 ], [ 144.57775055, -37.70403808 ], [ 144.57731102, -37.70394172 ], [ 144.577045840000011, -37.70389302 ], [ 144.57676339, -37.70384549 ], [ 144.576461310000013, -37.70380512 ], [ 144.575977349999988, -37.70374957 ], [ 144.57495086, -37.70361221 ], [ 144.57222991, -37.70328729 ] ] } },
{ "type": "Feature", "properties": { "from_stop": "Cobblebank Station", "to_stop": "Melton Station", "minutes": 42.4, "tier": 45, "centre": "southern-cross", "MODE": "REGIONAL TRAIN" }, "geometry": { "type": "LineString", "coordinates": [ [ 144.57222991, -37.70328729 ], [ 144.57495086, -37.70361221 ], [ 144.575977349999988, -37.70374957 ], [ 144.576461310000013, -37.70380512 ], [ 144.57676339, -37.70384549 ], [ 144.577045840000011, -37.70389302 ], [ 144.57731102, -37.70394172 ], [ 144.57775055, -37.70403808 ], [ 144.578493439999988, -37.70423673 ], [ 144.57929887, -37.70449667 ], [ 144.58278525, -37.70564211 ], [ 144.58390445, -37.7060029 ], [ 144.58717126, -37.70707883 ], [ 144.59685344, -37.71025547 ], [ 144.599143950000013, -37.71096026 ], [ 144.600878849999987, -37.71152284 ], [ 144.6031769, -37.71227421 ], [ 144.603855387511373, -37.71249896239371 ] ] } },
{ "type": "Feature", "properties": { "from_stop": "North Melbourne Station", "to_stop": "North Melbourne Railway Station", "minutes": 2.4, "tier": 15, "centre": "southern-cross", "MODE": "REGIONAL TRAIN" }, "geometry": { "type": "LineString", "coordinates": [ [ 144.942145082471086, -37.807574191839265 ], [ 144.941787299999987, -37.80711627 ], [ 144.9414827, -37.80672227 ], [ 144.941292916889324, -37.806480087583026 ] ] } },
{ "type": "Feature", "properties": { "from_stop": "Southern Cross Railway Station", "to_stop": "North Melbourne Station", "minutes": 2.2, "tier": 15, "centre": "southern-cross", "MODE": "REGIONAL TRAIN" }, "geometry": { "type": "LineString", "coordinates": [ [ 144.94226950299057, -37.807475853983597 ], [ 144.94260967, -37.80790511 ], [ 144.94293729, -37.80825977 ], [ 144.94348954, -37.80898819 ], [ 144.943929419999989, -37.80955082 ], [ 144.944190920000011, -37.80988981 ], [ 144.94456637, -37.81036768 ], [ 144.94485981, -37.81073489 ], [ 144.945131, -37.81102782 ], [ 144.94544495, -37.81132339 ], [ 144.94578092, -37.81159068 ], [ 144.9460954, -37.81183029 ], [ 144.94630644, -37.8119987 ], [ 144.94654839, -37.81220794 ], [ 144.9467026, -37.81234878 ], [ 144.94721929, -37.81274818 ], [ 144.94745638, -37.81296463 ], [ 144.947807149999988, -37.81329291 ], [ 144.94828055, -37.81377491 ], [ 144.94877105, -37.81440698 ], [ 144.94898071, -37.81466674 ], [ 144.949176599999987, -37.81492338 ], [ 144.94966068, -37.81552524 ], [ 144.94987952, -37.81576957 ], [ 144.94995773, -37.81587033 ], [ 144.95039975, -37.81648172 ], [ 144.95062342, -37.8167694 ], [ 144.95099224, -37.81722658 ], [ 144.95127068, -37.81755486 ], [ 144.95129553000001, -37.81758863 ], [ 144.951485639999987, -37.81779209 ], [ 144.95168614, -37.81801817 ], [ 144.95200262, -37.8184174 ] ] } },
{ "type": "Feature", "properties": { "from_stop": "Richmond Station", "to_stop": "Richmond Railway Station", "minutes": 6.2, "tier": 15, "centre": "southern-cross", "MODE": "REGIONAL TRAIN" }, "geometry": { "type": "Point", "coordinates": [ 144.990156675666157, -37.824101785044377 ] } },
{ "type": "Feature", "properties": { "from_stop": "Flinders Street Railway Station", "to_stop": "Richmond Station", "minutes": 6.2, "tier": 15, "centre": "southern-cross", "MODE": "REGIONAL TRAIN" }, "geometry": { "type": "LineString", "coordinates": [ [ 144.966970600091628, -37.818325813918015 ], [ 144.96697518, -37.81832443 ], [ 144.967927370000012, -37.81805546 ], [ 144.96812459, -37.8179974 ], [ 144.96839903, -37.81793978 ], [ 144.968590760000012, -37.81790379 ], [ 144.96880398, -37.81785827 ], [ 144.969017220000012, -37.81780418 ], [ 144.96970023, -37.81760337 ], [ 144.970422320000011, -37.81742739 ], [ 144.97053816, -37.81739532 ], [ 144.97081734, -37.81733894 ], [ 144.97110175, -37.81727004 ], [ 144.97135928, -37.81718697 ], [ 144.971668959999988, -37.81710786 ], [ 144.971962710000014, -37.81703804 ], [ 144.972299310000011, -37.81697967 ], [ 144.97256615, -37.81694687 ], [ 144.972850490000013, -37.81692572 ], [ 144.973413810000011, -37.81692667 ], [ 144.97370817, -37.8169339 ], [ 144.973877140000013, -37.81694447 ], [ 144.97417765, -37.8169847 ], [ 144.9744296, -37.81702264 ], [ 144.97481316, -37.81712044 ], [ 144.97509485, -37.81720513 ], [ 144.97532956, -37.81728351 ], [ 144.97556963, -37.81738199 ], [ 144.975827040000013, -37.81749862 ], [ 144.976131470000013, -37.8176575 ], [ 144.977175570000014, -37.81827752 ], [ 144.97748675, -37.8184512 ], [ 144.97782071, -37.81862294 ], [ 144.97835978, -37.81892156 ], [ 144.97903473, -37.81931597 ], [ 144.97927607, -37.81946006 ], [ 144.97966098, -37.81964231 ], [ 144.98057695, -37.82018052 ], [ 144.980882830000013, -37.82032032 ], [ 144.981647790000011, -37.82075987 ], [ 144.9818979, -37.82090771 ], [ 144.982181559999987, -37.82103748 ], [ 144.982478320000013, -37.82121199 ], [ 144.98292294, -37.82148013 ], [ 144.983394299999986, -37.82174703 ], [ 144.98365868, -37.82188817 ], [ 144.98388979, -37.8220082 ], [ 144.98411446, -37.8221183 ], [ 144.98438339, -37.82224276 ], [ 144.98479375, -37.82242182 ], [ 144.98574012, -37.8228056 ], [ 144.986141049999986, -37.82295602 ], [ 144.98630337, -37.82301106 ], [ 144.98669227, -37.8231318 ], [ 144.98695923, -37.82319539 ], [ 144.98773116000001, -37.8233599 ], [ 144.988057950000012, -37.82343749 ], [ 144.990179376868014, -37.824019344256513 ] ] } },
{ "type": "Feature", "properties": { "from_stop": "Rockbank Station", "to_stop": "Rockbank Railway Station", "minutes": 35.2, "tier": 45, "centre": "southern-cross", "MODE": "REGIONAL TRAIN" }, "geometry": { "type": "LineString", "coordinates": [ [ 144.650717998456656, -37.729179763636552 ], [ 144.650675631671589, -37.729161091350655 ] ] } },
{ "type": "Feature", "properties": { "from_stop": "Caroline Springs Station", "to_stop": "Rockbank Station", "minutes": 35.2, "tier": 45, "centre": "southern-cross", "MODE": "REGIONAL TRAIN" }, "geometry": { "type": "LineString", "coordinates": [ [ 144.735693278885662, -37.766141218454258 ], [ 144.73568662, -37.76613832 ], [ 144.703934839999988, -37.75231566 ], [ 144.67030101, -37.73770598 ], [ 144.65300165, -37.73017694 ], [ 144.65124932, -37.72941399 ], [ 144.650723050000011, -37.72918199 ], [ 144.650717998456656, -37.729179763636552 ] ] } },
{ "type": "Feature", "properties": { "from_stop": "Southern Cross Station", "to_stop": "Southern Cross Railway Station", "minutes": 0.0, "tier": 15, "centre": "southern-cross", "MODE": "REGIONAL TRAIN" }, "geometry": { "type": "Point", "coordinates": [ 144.95200262, -37.8184174 ] } },
{ "type": "Feature", "properties": { "from_stop": "Watergardens Station", "to_stop": "Sunbury Railway Station", "minutes": 55.1, "tier": 60, "centre": "southern-cross", "MODE": "REGIONAL TRAIN" }, "geometry": { "type": "LineString", "coordinates": [ [ 144.774082968326098, -37.700982846380676 ], [ 144.7740822, -37.70098187 ], [ 144.77340478, -37.70012081 ], [ 144.77173559, -37.69798603 ], [ 144.770882699999987, -37.69690789 ], [ 144.7702188, -37.6960558 ], [ 144.76992912, -37.69568977 ], [ 144.7698447, -37.69557399 ], [ 144.76968786, -37.69538449 ], [ 144.76956561, -37.69522924 ], [ 144.769017280000014, -37.69452182 ], [ 144.75896703, -37.68169037 ], [ 144.75227752, -37.67317336 ], [ 144.74819795, -37.66797194 ], [ 144.746628789999988, -37.66597607 ], [ 144.743476789999988, -37.66193832 ], [ 144.73896489, -37.65617933 ], [ 144.73492099, -37.65102726 ], [ 144.72710866, -37.64101937 ], [ 144.7230564, -37.6358781 ], [ 144.722761209999987, -37.63546607 ], [ 144.72248564, -37.63504603 ], [ 144.7221911, -37.63457228 ], [ 144.72196345, -37.63416046 ], [ 144.7217273, -37.63369288 ], [ 144.7214984, -37.63320733 ], [ 144.7213111, -37.63269509 ], [ 144.72113506, -37.63220047 ], [ 144.720992779999989, -37.63168 ], [ 144.72022965, -37.6284982 ], [ 144.72018864, -37.62827915 ], [ 144.71990713, -37.62700973 ], [ 144.71912525, -37.62343231 ], [ 144.71839399000001, -37.62010242 ], [ 144.718101850000011, -37.61869663 ], [ 144.71802237, -37.61822811 ], [ 144.717960260000012, -37.6177328 ], [ 144.717910429999989, -37.61725782 ], [ 144.71788833, -37.61678383 ], [ 144.71787365, -37.61589311 ], [ 144.717889320000012, -37.61521051 ], [ 144.717930130000013, -37.61382026 ], [ 144.71797308, -37.61198938 ], [ 144.718019450000014, -37.60869021 ], [ 144.718152370000013, -37.60176173 ], [ 144.71819893, -37.59996381 ], [ 144.71823118, -37.59670996 ], [ 144.718338749999987, -37.59514274 ], [ 144.71860736, -37.59374581 ], [ 144.7189299, -37.59254466 ], [ 144.71968245, -37.59093468 ], [ 144.720746749999989, -37.58920554 ], [ 144.72299361, -37.58605347 ], [ 144.72527015, -37.58291652 ], [ 144.725779960000011, -37.58222416 ], [ 144.72633059, -37.58146607 ], [ 144.726400250000012, -37.58137604 ], [ 144.72645466, -37.58129985 ], [ 144.72648544, -37.58126314 ], [ 144.727209820000013, -37.58024625 ], [ 144.72733571, -37.58007213 ], [ 144.72742266, -37.57996089 ], [ 144.727932773356457, -37.579249397643132 ] ] } },
{ "type": "Feature", "properties": { "from_stop": "Sunbury Railway Station", "to_stop": "Sunbury Station", "minutes": 55.1, "tier": 60, "centre": "southern-cross", "MODE": "REGIONAL TRAIN" }, "geometry": { "type": "LineString", "coordinates": [ [ 144.728013149319679, -37.579137307776584 ], [ 144.72801153, -37.57913955 ], [ 144.727932773356457, -37.579249397643132 ] ] } },
{ "type": "Feature", "properties": { "from_stop": "Footscray Railway Station", "to_stop": "Sunshine Railway Station", "minutes": 17.4, "tier": 30, "centre": "southern-cross", "MODE": "REGIONAL TRAIN" }, "geometry": { "type": "LineString", "coordinates": [ [ 144.902117733774418, -37.801607587856125 ], [ 144.90210133, -37.80161584 ], [ 144.90137829, -37.80194162 ], [ 144.90100825, -37.80208669 ], [ 144.900419269999986, -37.8022904 ], [ 144.9000595, -37.80239744 ], [ 144.89968564, -37.80249242 ], [ 144.89932622, -37.80255892 ], [ 144.89886833, -37.80261761 ], [ 144.89835595, -37.80267516 ], [ 144.89765872000001, -37.80273048 ], [ 144.895305549999989, -37.80287039 ], [ 144.895062239999987, -37.80288749 ], [ 144.894819320000011, -37.80289865 ], [ 144.89457105, -37.80289862 ], [ 144.89433358, -37.80289771 ], [ 144.89406731, -37.80288772 ], [ 144.89296083, -37.80276844 ], [ 144.892380120000013, -37.80272056 ], [ 144.891797739999987, -37.80268301 ], [ 144.89140275, -37.80265034 ], [ 144.890263659999988, -37.80251603 ], [ 144.887711849999988, -37.80218119 ], [ 144.88728371, -37.80212809 ], [ 144.88650696, -37.80204891 ], [ 144.88602949, -37.80201285 ], [ 144.885538669999988, -37.80198323 ], [ 144.88484293, -37.8019628 ], [ 144.88439078, -37.80194341 ], [ 144.883899969999987, -37.80189747 ], [ 144.88113465, -37.80157198 ], [ 144.880724359999988, -37.80151477 ], [ 144.87989543, -37.80139396 ], [ 144.878602550000011, -37.80121387 ], [ 144.87798844, -37.80113116 ], [ 144.87691555, -37.80100702 ], [ 144.87035063, -37.80027821 ], [ 144.86953875, -37.80018584 ], [ 144.869179519999989, -37.8001423 ], [ 144.868477039999988, -37.80004912 ], [ 144.867156529999988, -37.79985633 ], [ 144.866385650000012, -37.79974837 ], [ 144.86550269, -37.79963982 ], [ 144.86434386, -37.79951238 ], [ 144.86185427, -37.79923317 ], [ 144.860900460000011, -37.79913267 ], [ 144.85864215, -37.79888022 ], [ 144.85722701, -37.79872534 ], [ 144.85577637, -37.79858854 ], [ 144.85379491, -37.79840889 ], [ 144.85228224, -37.79826173 ], [ 144.849692839999989, -37.79796584 ], [ 144.84639454, -37.79753816 ], [ 144.84587634, -37.79746353 ], [ 144.84546493, -37.79739572 ], [ 144.84520916, -37.7973494 ], [ 144.84457117, -37.79721562 ], [ 144.843905119999988, -37.79704699 ], [ 144.843205899999987, -37.79683602 ], [ 144.842611440000013, -37.79662723 ], [ 144.841995239999989, -37.79638119 ], [ 144.84167538, -37.79624286 ], [ 144.84119807, -37.79602044 ], [ 144.84097623, -37.79590878 ], [ 144.84059607, -37.79570427 ], [ 144.8403839, -37.79558431 ], [ 144.84005156, -37.79538726 ], [ 144.83969668, -37.79516096 ], [ 144.83924543, -37.79485557 ], [ 144.83872696, -37.79448712 ], [ 144.83628976, -37.79274116 ], [ 144.83605615, -37.79256258 ], [ 144.83578186, -37.79234252 ], [ 144.83560881, -37.79218623 ], [ 144.83534344, -37.7919211 ], [ 144.83509795, -37.79165192 ], [ 144.83480207, -37.79128079 ], [ 144.834380470000013, -37.79071549 ], [ 144.8340005, -37.79021827 ], [ 144.833570329999986, -37.78964371 ], [ 144.833171920000012, -37.78911704 ], [ 144.83294784, -37.78881508 ], [ 144.832788213136951, -37.788604563802686 ] ] } },
{ "type": "Feature", "properties": { "from_stop": "Sunshine Railway Station", "to_stop": "Sunshine Station", "minutes": 17.5, "tier": 30, "centre": "southern-cross", "MODE": "REGIONAL TRAIN" }, "geometry": { "type": "LineString", "coordinates": [ [ 144.832740317933514, -37.788640108029945 ], [ 144.83249837, -37.78831865 ], [ 144.83249580906886, -37.788315263283756 ] ] } },
{ "type": "Feature", "properties": { "from_stop": "Tarneit Station", "to_stop": "Tarneit Railway Station", "minutes": 31.2, "tier": 45, "centre": "southern-cross", "MODE": "REGIONAL TRAIN" }, "geometry": { "type": "LineString", "coordinates": [ [ 144.694715546318889, -37.832159523836872 ], [ 144.694491036905106, -37.832129098016509 ] ] } },
{ "type": "Feature", "properties": { "from_stop": "Deer Park Station", "to_stop": "Tarneit Station", "minutes": 31.2, "tier": 45, "centre": "southern-cross", "MODE": "REGIONAL TRAIN" }, "geometry": { "type": "LineString", "coordinates": [ [ 144.694715546318889, -37.832159523836872 ], [ 144.69471692, -37.83215971 ], [ 144.69614302, -37.83235407 ], [ 144.70026457, -37.83286757 ], [ 144.70095324, -37.83293959 ], [ 144.70164183, -37.83299251 ], [ 144.702322650000013, -37.83302851 ], [ 144.70301135, -37.83305601 ], [ 144.70343662, -37.83305989 ], [ 144.70440210000001, -37.83305808 ], [ 144.70506916, -37.83302847 ], [ 144.70575269, -37.83298826 ], [ 144.70644395, -37.83293316 ], [ 144.70713086, -37.83286048 ], [ 144.70781353000001, -37.83277447 ], [ 144.70849657, -37.83267287 ], [ 144.70918494, -37.83254182 ], [ 144.70987359, -37.83238734 ], [ 144.71055967, -37.8322201 ], [ 144.71193212, -37.83184316 ], [ 144.71261508, -37.83162962 ], [ 144.7133011, -37.83137558 ], [ 144.71398713, -37.83111739 ], [ 144.71468373, -37.8308148 ], [ 144.71513477, -37.83060899 ], [ 144.71604772, -37.83015442 ], [ 144.71673381, -37.82979034 ], [ 144.71741716, -37.82940078 ], [ 144.71810302, -37.82897757 ], [ 144.71879167, -37.82850781 ], [ 144.719477719999986, -37.82800403 ], [ 144.720157050000012, -37.8274638 ], [ 144.72084388, -37.82686766 ], [ 144.72119742000001, -37.82655046 ], [ 144.72153583, -37.82623016 ], [ 144.721908070000012, -37.8258515 ], [ 144.72258624, -37.82508523 ], [ 144.72290754, -37.82470008 ], [ 144.723306939999986, -37.82417298 ], [ 144.723593709999989, -37.82377283 ], [ 144.72395701, -37.82325909 ], [ 144.7242761, -37.82272016 ], [ 144.72458525, -37.82216418 ], [ 144.72722957, -37.81730612 ], [ 144.7315304, -37.80938386 ], [ 144.73185414, -37.80879282 ], [ 144.73209798, -37.80831487 ], [ 144.73238708, -37.80767891 ], [ 144.732629370000012, -37.80709504 ], [ 144.73284919, -37.80652552 ], [ 144.732942290000011, -37.80625553 ], [ 144.733137950000014, -37.80566247 ], [ 144.73326927, -37.80518622 ], [ 144.7334247, -37.80455318 ], [ 144.73353985, -37.80392226 ], [ 144.73651708, -37.78363212 ], [ 144.736691259999986, -37.78248957 ], [ 144.73677475, -37.78210485 ], [ 144.73686125, -37.78177435 ], [ 144.73696695000001, -37.78141719 ], [ 144.73707095, -37.7811009 ], [ 144.737192779999987, -37.78078054 ], [ 144.73731909, -37.78046243 ], [ 144.73756899, -37.77991888 ], [ 144.73786979, -37.77937758 ], [ 144.738038390000014, -37.77909848 ], [ 144.73821805, -37.77882141 ], [ 144.738372590000012, -37.7785935 ], [ 144.73858974, -37.77828939 ], [ 144.73874848, -37.77808418 ], [ 144.73902017, -37.77774867 ], [ 144.73925890000001, -37.77747417 ], [ 144.739522529999988, -37.77719086 ], [ 144.73981111, -37.77689704 ], [ 144.74013426, -37.77659009 ], [ 144.74064033, -37.7761486 ], [ 144.74095211, -37.77589784 ], [ 144.74126518, -37.77566099 ], [ 144.741594139999989, -37.77542759 ], [ 144.74201032, -37.77514882 ], [ 144.74230105, -37.7749666 ], [ 144.74282355, -37.77466301 ], [ 144.743148209999987, -37.77448892 ], [ 144.743511829999989, -37.77430268 ], [ 144.74392706, -37.77410292 ], [ 144.74423957, -37.77396589 ], [ 144.74473353, -37.7737607 ], [ 144.744986680000011, -37.77366407 ], [ 144.74556816, -37.77345532 ], [ 144.74617002, -37.77326679 ], [ 144.74663234, -37.77313109 ], [ 144.74694402, -37.77305117 ], [ 144.74728739, -37.77295934 ], [ 144.748937039999987, -37.77253697 ], [ 144.74935255, -37.7724283 ], [ 144.749696809999989, -37.77234422 ], [ 144.75001581, -37.77227741 ], [ 144.7502536, -37.77223753 ], [ 144.750566850000013, -37.77219908 ], [ 144.75086427, -37.77217728 ], [ 144.75108631, -37.77217043 ], [ 144.75131846, -37.77217081 ], [ 144.75152302, -37.77217877 ], [ 144.75171555, -37.77219029 ], [ 144.75195706, -37.77221517 ], [ 144.752230630000014, -37.77225383 ], [ 144.75245779, -37.77229502 ], [ 144.75277196, -37.77236139 ], [ 144.75308005, -37.77242954 ], [ 144.75335961, -37.77249516 ], [ 144.75368468, -37.77257597 ], [ 144.75385383, -37.77262119 ], [ 144.75463625, -37.77284284 ], [ 144.75560891, -37.77311451 ], [ 144.75584853, -37.77317594 ], [ 144.75602457, -37.77323363 ], [ 144.756658359999989, -37.77340746 ], [ 144.75794757, -37.77378003 ], [ 144.76106392, -37.77464251 ], [ 144.76324718, -37.77525406 ], [ 144.76442905, -37.77557001 ], [ 144.76579806, -37.77590066 ], [ 144.76698177, -37.77619391 ], [ 144.76752825, -37.77633584 ], [ 144.76806935, -37.77647919 ], [ 144.77083176, -37.77725649 ], [ 144.770834056375577, -37.77725713356724 ] ] } },
{ "type": "Feature", "properties": { "from_stop": "Wallan Station", "to_stop": "Wallan Railway Station", "minutes": 49.6, "tier": 60, "centre": "southern-cross", "MODE": "REGIONAL TRAIN" }, "geometry": { "type": "LineString", "coordinates": [ [ 145.005498534339381, -37.416587599679985 ], [ 145.005402120000014, -37.41685132 ], [ 145.005397942486837, -37.416867593045403 ] ] } },
{ "type": "Feature", "properties": { "from_stop": "Donnybrook Railway Station", "to_stop": "Wallan Station", "minutes": 49.5, "tier": 60, "centre": "southern-cross", "MODE": "REGIONAL TRAIN" }, "geometry": { "type": "LineString", "coordinates": [ [ 145.005358913578846, -37.416856374691449 ], [ 145.00535808, -37.41685878 ], [ 145.00527896, -37.41713241 ], [ 145.005217, -37.41741057 ], [ 145.005165909999988, -37.41768377 ], [ 145.00466176, -37.4205821 ], [ 145.00255626, -37.43260747 ], [ 145.0015693, -37.43820753 ], [ 145.000839649999989, -37.4423851 ], [ 144.99991301, -37.4477385 ], [ 144.99578105, -37.47133112 ], [ 144.99423865, -37.48018201 ], [ 144.99413678, -37.48072264 ], [ 144.99402145, -37.48124618 ], [ 144.99388735, -37.48175697 ], [ 144.993742450000013, -37.48223585 ], [ 144.993576170000011, -37.48273186 ], [ 144.99342331, -37.48314482 ], [ 144.98565786, -37.50254526 ], [ 144.981753950000012, -37.51227351 ], [ 144.980860650000011, -37.51448929 ], [ 144.98065154, -37.51503194 ], [ 144.98045837, -37.51560416 ], [ 144.98028936, -37.51615732 ], [ 144.98014993000001, -37.51672108 ], [ 144.98003189, -37.51726781 ], [ 144.97992725, -37.5178337 ], [ 144.97953304, -37.52066957 ], [ 144.97942042, -37.52152686 ], [ 144.97893405, -37.52506348 ], [ 144.97882764, -37.52566871 ], [ 144.97870692, -37.52621323 ], [ 144.97853787, -37.52677477 ], [ 144.97833674, -37.52731719 ], [ 144.97810336, -37.5278469 ], [ 144.97783247000001, -37.52837443 ], [ 144.973637520000011, -37.53585936 ], [ 144.97195847, -37.5388477 ], [ 144.97119389, -37.54021613 ], [ 144.97070062, -37.54111959 ], [ 144.97018706983738, -37.542018224802661 ] ] } },
{ "type": "Feature", "properties": { "from_stop": "Wandong Station", "to_stop": "Wandong Railway Station", "minutes": 55.6, "tier": 60, "centre": "southern-cross", "MODE": "REGIONAL TRAIN" }, "geometry": { "type": "LineString", "coordinates": [ [ 145.026517764568581, -37.354644488399131 ], [ 145.026701398261963, -37.3552206710444 ] ] } },
{ "type": "Feature", "properties": { "from_stop": "Heathcote Junction Station", "to_stop": "Wandong Station", "minutes": 55.5, "tier": 60, "centre": "southern-cross", "MODE": "REGIONAL TRAIN" }, "geometry": { "type": "LineString", "coordinates": [ [ 145.026701398261963, -37.3552206710444 ], [ 145.02672801, -37.35530417 ], [ 145.02678966, -37.35553664 ], [ 145.02683259, -37.3557296 ], [ 145.026894379999987, -37.35603876 ], [ 145.02693449, -37.35625303 ], [ 145.02698407, -37.35658876 ], [ 145.02702172, -37.35696187 ], [ 145.02704182, -37.35745762 ], [ 145.027035070000011, -37.35782324 ], [ 145.02702573, -37.35813662 ], [ 145.026996200000013, -37.3584841 ], [ 145.02685671, -37.35977074 ], [ 145.02658179, -37.36207208 ], [ 145.026470530000012, -37.36302193 ], [ 145.026120490000011, -37.36610763 ], [ 145.02610028, -37.36650411 ], [ 145.02610569, -37.36697853 ], [ 145.02614734, -37.36742723 ], [ 145.02620635, -37.3677651 ], [ 145.02630546, -37.36815411 ], [ 145.026411450000012, -37.36852611 ], [ 145.026608579999987, -37.36901004 ], [ 145.027000320000013, -37.36978489 ], [ 145.02770709, -37.37107446 ], [ 145.028007719608354, -37.371631027676472 ] ] } },
{ "type": "Feature", "properties": { "from_stop": "Sunshine Station", "to_stop": "Watergardens Railway Station", "minutes": 33.5, "tier": 45, "centre": "southern-cross", "MODE": "REGIONAL TRAIN" }, "geometry": { "type": "LineString", "coordinates": [ [ 144.83254215110955, -37.788280056753479 ], [ 144.831788749999987, -37.78728647 ], [ 144.83117393, -37.78644184 ], [ 144.83065396, -37.78563492 ], [ 144.83041214, -37.78528433 ], [ 144.829968369999989, -37.78469923 ], [ 144.829479740000011, -37.78399011 ], [ 144.82924078, -37.78360407 ], [ 144.82899519, -37.78327801 ], [ 144.82841803, -37.78244821 ], [ 144.828098219999987, -37.7820203 ], [ 144.82781259, -37.78166187 ], [ 144.82750245, -37.78123756 ], [ 144.82674085, -37.7802243 ], [ 144.826377259999987, -37.77973358 ], [ 144.825430469999986, -37.77848169 ], [ 144.8250617, -37.7780015 ], [ 144.824121569999988, -37.77674856 ], [ 144.82392715, -37.7764985 ], [ 144.82355429, -37.77599182 ], [ 144.823380859999986, -37.77577757 ], [ 144.823123970000012, -37.77543173 ], [ 144.822515149999987, -37.77462502 ], [ 144.82224143, -37.77425751 ], [ 144.82118237, -37.77285906 ], [ 144.820914390000013, -37.7724821 ], [ 144.81729055, -37.76769626 ], [ 144.81666693, -37.76685671 ], [ 144.81631148, -37.76638278 ], [ 144.81471821, -37.76426669 ], [ 144.81406057, -37.76340496 ], [ 144.81394443, -37.76324357 ], [ 144.81366366, -37.76289042 ], [ 144.81343927, -37.762616 ], [ 144.812681379999987, -37.76174781 ], [ 144.81241169, -37.76143163 ], [ 144.81223645, -37.76121534 ], [ 144.81193595, -37.7608274 ], [ 144.8116387, -37.76042599 ], [ 144.811337900000012, -37.76003291 ], [ 144.8112318, -37.75988963 ], [ 144.810985249999987, -37.75956631 ], [ 144.810082240000014, -37.75836369 ], [ 144.808778350000011, -37.75663814 ], [ 144.808330250000012, -37.75604153 ], [ 144.80799532, -37.75558363 ], [ 144.80777705, -37.7552648 ], [ 144.80763163, -37.75504248 ], [ 144.807211919999986, -37.75438466 ], [ 144.806991, -37.75405189 ], [ 144.806873200000013, -37.75388614 ], [ 144.806801979999989, -37.7537883 ], [ 144.8065665, -37.75347581 ], [ 144.80581706000001, -37.75246201 ], [ 144.805150630000014, -37.75157024 ], [ 144.80461274000001, -37.75086083 ], [ 144.803800310000014, -37.7497761 ], [ 144.80309338, -37.74887753 ], [ 144.802229149999988, -37.74786067 ], [ 144.80140494, -37.74678877 ], [ 144.80120666, -37.74653986 ], [ 144.80070525, -37.74589654 ], [ 144.80009948, -37.74514465 ], [ 144.79991855, -37.74492364 ], [ 144.79973338, -37.7446885 ], [ 144.79917248000001, -37.74396664 ], [ 144.79876016, -37.74342383 ], [ 144.79841794, -37.74292072 ], [ 144.798095, -37.74238732 ], [ 144.7978813, -37.74199357 ], [ 144.797664270000013, -37.74147856 ], [ 144.7971053, -37.7399656 ], [ 144.79670164, -37.73873013 ], [ 144.79630065, -37.7374319 ], [ 144.79408755, -37.73036431 ], [ 144.79408378, -37.73034594 ], [ 144.793835449999989, -37.72957242 ], [ 144.79362785, -37.72891402 ], [ 144.79341864, -37.72822558 ], [ 144.79331715, -37.72791774 ], [ 144.7932068, -37.72756079 ], [ 144.792962569999986, -37.72679888 ], [ 144.79279634, -37.7263332 ], [ 144.79254015, -37.72567244 ], [ 144.79214185, -37.72479617 ], [ 144.791942150000011, -37.72438042 ], [ 144.79169934, -37.72391898 ], [ 144.791338599999989, -37.72328357 ], [ 144.791081139999989, -37.72285709 ], [ 144.79074434, -37.72232882 ], [ 144.79025095, -37.72162243 ], [ 144.78954285, -37.72068572 ], [ 144.78844854, -37.71928957 ], [ 144.78742788, -37.71799643 ], [ 144.78693435, -37.71735779 ], [ 144.78601705, -37.71619933 ], [ 144.78316182, -37.7125583 ], [ 144.78247793, -37.71168303 ], [ 144.778868530000011, -37.70708392 ], [ 144.77849985, -37.70663341 ], [ 144.77810591, -37.70610971 ], [ 144.77765392, -37.70552823 ], [ 144.77692973, -37.70460512 ], [ 144.776607930000011, -37.70420722 ], [ 144.77602599, -37.70346234 ], [ 144.77578041000001, -37.70314076 ], [ 144.77469543, -37.70176782 ], [ 144.774533029999986, -37.70155478 ], [ 144.774182593104911, -37.701109448496823 ] ] } },
{ "type": "Feature", "properties": { "from_stop": "Watergardens Railway Station", "to_stop": "Watergardens Station", "minutes": 33.5, "tier": 45, "centre": "southern-cross", "MODE": "REGIONAL TRAIN" }, "geometry": { "type": "LineString", "coordinates": [ [ 144.774082968326098, -37.700982846380676 ], [ 144.774182593104911, -37.701109448496823 ] ] } },
{ "type": "Feature", "properties": { "from_stop": "Tarneit Railway Station", "to_stop": "Wyndham Vale Railway Station", "minutes": 40.0, "tier": 45, "centre": "southern-cross", "MODE": "REGIONAL TRAIN" }, "geometry": { "type": "LineString", "coordinates": [ [ 144.608385623165134, -37.872532359753293 ], [ 144.608708439999987, -37.87066312 ], [ 144.60891174, -37.86945589 ], [ 144.60897823, -37.86897117 ], [ 144.609041819999987, -37.86837881 ], [ 144.609071449999988, -37.86789506 ], [ 144.609087210000013, -37.86746033 ], [ 144.60908932000001, -37.86692727 ], [ 144.60908047, -37.86656836 ], [ 144.60905875, -37.86619242 ], [ 144.60902644, -37.86580996 ], [ 144.60895738, -37.86521076 ], [ 144.60889656, -37.86480663 ], [ 144.60880813, -37.86432157 ], [ 144.60871254, -37.86386438 ], [ 144.6085109, -37.86302756 ], [ 144.608467710000014, -37.8628589 ], [ 144.60822579, -37.86184464 ], [ 144.60814087, -37.8615287 ], [ 144.608015709999989, -37.86113191 ], [ 144.607901340000012, -37.86073571 ], [ 144.60771632, -37.85996222 ], [ 144.607634960000013, -37.85961003 ], [ 144.60754506, -37.8591672 ], [ 144.60749905, -37.85890989 ], [ 144.60742818, -37.85845492 ], [ 144.60740895, -37.85832207 ], [ 144.607362349999988, -37.85791796 ], [ 144.607323939999986, -37.85748563 ], [ 144.607307420000012, -37.8571426 ], [ 144.60729415, -37.85679387 ], [ 144.60729034, -37.85640902 ], [ 144.6072977, -37.85601277 ], [ 144.60731562, -37.85564151 ], [ 144.60734512, -37.85523877 ], [ 144.60738637, -37.8548314 ], [ 144.60744274000001, -37.85439911 ], [ 144.60751326, -37.85396161 ], [ 144.60761989, -37.85342996 ], [ 144.607680820000013, -37.85315527 ], [ 144.607790630000011, -37.85272209 ], [ 144.60793836, -37.85221289 ], [ 144.608090510000011, -37.85174578 ], [ 144.608289750000012, -37.85120024 ], [ 144.60847793, -37.85073314 ], [ 144.608699949999988, -37.8502351 ], [ 144.60881738, -37.84999139 ], [ 144.60903473, -37.84956381 ], [ 144.60929393, -37.84908923 ], [ 144.60961988, -37.84853608 ], [ 144.60997812, -37.84798583 ], [ 144.6103582, -37.8474454 ], [ 144.610773990000013, -37.84690019 ], [ 144.61122518, -37.846353 ], [ 144.61164681, -37.84587658 ], [ 144.61184284, -37.84566492 ], [ 144.61227005, -37.84523014 ], [ 144.61253381, -37.84497273 ], [ 144.61275631, -37.84476133 ], [ 144.61301855, -37.84452596 ], [ 144.6132811, -37.84429546 ], [ 144.61362301, -37.84400692 ], [ 144.614004670000014, -37.84369782 ], [ 144.614475199999987, -37.84333898 ], [ 144.61481686, -37.84308972 ], [ 144.61516863, -37.8428439 ], [ 144.615484360000011, -37.84263043 ], [ 144.61595179, -37.84233198 ], [ 144.61627425, -37.84213504 ], [ 144.616634080000011, -37.84192128 ], [ 144.6173779, -37.84150128 ], [ 144.61767995, -37.84134159 ], [ 144.61888307000001, -37.84069514 ], [ 144.62881063, -37.8353833 ], [ 144.62921028, -37.83516562 ], [ 144.64047464, -37.82911058 ], [ 144.64122692, -37.82874854 ], [ 144.64257106, -37.82815242 ], [ 144.642996399999987, -37.82799586 ], [ 144.64326306000001, -37.82788801 ], [ 144.643947379999986, -37.82764002 ], [ 144.644637280000012, -37.82741314 ], [ 144.64532465, -37.82720098 ], [ 144.64601201, -37.82701441 ], [ 144.64669955, -37.82684685 ], [ 144.64738655, -37.82670694 ], [ 144.64807346, -37.82656278 ], [ 144.648761150000013, -37.82644388 ], [ 144.64945126, -37.82635268 ], [ 144.65013305, -37.82627636 ], [ 144.65082314, -37.82621074 ], [ 144.65151044000001, -37.82616831 ], [ 144.65219625, -37.82613712 ], [ 144.65288426, -37.82611912 ], [ 144.653574850000012, -37.82611279 ], [ 144.65426026, -37.82612654 ], [ 144.654949140000014, -37.82615982 ], [ 144.65563685, -37.82619803 ], [ 144.65701388, -37.8263634 ], [ 144.65769832, -37.82645452 ], [ 144.65838786, -37.82656052 ], [ 144.66001072, -37.8268169 ], [ 144.68516163000001, -37.83087588 ], [ 144.68653715, -37.83107287 ], [ 144.68790812, -37.83124498 ], [ 144.69306124, -37.83193533 ], [ 144.694491036905106, -37.832129098016509 ] ] } },
{ "type": "Feature", "properties": { "from_stop": "Wyndham Vale Railway Station", "to_stop": "Wyndham Vale Station", "minutes": 40.1, "tier": 45, "centre": "southern-cross", "MODE": "REGIONAL TRAIN" }, "geometry": { "type": "LineString", "coordinates": [ [ 144.608385623165134, -37.872532359753293 ], [ 144.608336268547845, -37.872818142905473 ] ] } }
]
}
