{
"type": "FeatureCollection",
"name": "commute_mst_regional_train__bendigo",
"crs": { "type": "name", "properties": { "name": "urn:ogc:def:crs:OGC:1.3:CRS84" } },
"features": [
{ "type": "Feature", "properties": { "from_stop": "Bendigo Station", "to_stop": "Bendigo Railway Station", "minutes": 0.0, "tier": 15, "centre": "bendigo", "MODE": "REGIONAL TRAIN" }, "geometry": { "type": "LineString", "coordinates": [ [ 144.282862849999987, -36.76561007 ], [ 144.282860731342851, -36.765611629010699 ] ] } },
{ "type": "Feature", "properties": { "from_stop": "Kangaroo Flat Station", "to_stop": "Castlemaine Railway Station", "minutes": 26.0, "tier": 30, "centre": "bendigo", "MODE": "REGIONAL TRAIN" }, "geometry": { "type": "LineString", "coordinates": [ [ 144.213917027289142, -37.062826098363679 ], [ 144.21415133, -37.06189692 ], [ 144.2142825, -37.06140978 ], [ 144.215331099999986, -37.05732549 ], [ 144.2156831, -37.05590906 ], [ 144.215837850000014, -37.05538841 ], [ 144.216051850000014, -37.054803 ], [ 144.21622285, -37.05439123 ], [ 144.216630009999989, -37.0535904 ], [ 144.21777726, -37.05182712 ], [ 144.219303129999986, -37.04937992 ], [ 144.220687989999988, -37.04739266 ], [ 144.22162984, -37.04600031 ], [ 144.22208767, -37.04545332 ], [ 144.222601809999986, -37.04492188 ], [ 144.22420566, -37.04346679 ], [ 144.22485738, -37.04280529 ], [ 144.22534618, -37.0421999 ], [ 144.226014740000011, -37.04118653 ], [ 144.22686192, -37.03945948 ], [ 144.227578349999987, -37.03822589 ], [ 144.22795294, -37.03773343 ], [ 144.228613239999987, -37.03700687 ], [ 144.23108227, -37.03439013 ], [ 144.233486879999987, -37.03188971 ], [ 144.2343773, -37.03088056 ], [ 144.23488015, -37.03022129 ], [ 144.235588080000014, -37.0291539 ], [ 144.23622850000001, -37.02792047 ], [ 144.23744285, -37.02454234 ], [ 144.23783834, -37.02360579 ], [ 144.23819809, -37.02264426 ], [ 144.23858340000001, -37.02190438 ], [ 144.239694899999989, -37.02000126 ], [ 144.23993959, -37.01965271 ], [ 144.240414570000013, -37.01898998 ], [ 144.24259754, -37.01609787 ], [ 144.243403480000012, -37.01507893 ], [ 144.24414231, -37.01425911 ], [ 144.244929140000011, -37.01348528 ], [ 144.24576391, -37.01278042 ], [ 144.24640679, -37.01218283 ], [ 144.24707032, -37.01149849 ], [ 144.24720567, -37.01135069 ], [ 144.24834144, -37.00980481 ], [ 144.249045169999988, -37.00863414 ], [ 144.249364359999987, -37.00815861 ], [ 144.249624649999987, -37.00780193 ], [ 144.249768460000013, -37.00761233 ], [ 144.250259770000014, -37.0070623 ], [ 144.250779200000011, -37.00653933 ], [ 144.25132101, -37.00600921 ], [ 144.2519809, -37.00531413 ], [ 144.252267749999987, -37.00500879 ], [ 144.252630470000014, -37.00461519 ], [ 144.25297848, -37.0042335 ], [ 144.25319961, -37.00398693 ], [ 144.25354525, -37.00356806 ], [ 144.253770159999988, -37.00327246 ], [ 144.25397235, -37.00298679 ], [ 144.25429165, -37.00249422 ], [ 144.254481989999988, -37.00215358 ], [ 144.25468315, -37.00178092 ], [ 144.25483607000001, -37.00144671 ], [ 144.25498633, -37.00107404 ], [ 144.25507751, -37.00083194 ], [ 144.255235699999986, -37.00031996 ], [ 144.255388579999988, -36.99971161 ], [ 144.255428599999988, -36.99939884 ], [ 144.255495450000012, -36.9989426 ], [ 144.25553156, -36.99857288 ], [ 144.25554573, -36.99782588 ], [ 144.255524470000012, -36.99735787 ], [ 144.25551866, -36.99690112 ], [ 144.255469119999987, -36.99655411 ], [ 144.25540745, -36.99621016 ], [ 144.25532156, -36.99581824 ], [ 144.25520354, -36.99535439 ], [ 144.255058670000011, -36.99476853 ], [ 144.25497015, -36.99438718 ], [ 144.254854920000014, -36.99375524 ], [ 144.254793189999987, -36.99325394 ], [ 144.254762340000013, -36.99280616 ], [ 144.25475026, -36.99211424 ], [ 144.25483875, -36.99144691 ], [ 144.25490309, -36.99058563 ], [ 144.25505333000001, -36.98991288 ], [ 144.25523569, -36.98917166 ], [ 144.25535911, -36.98852893 ], [ 144.255461, -36.98777909 ], [ 144.25547708, -36.98716632 ], [ 144.2554342, -36.9863779 ], [ 144.25539133, -36.98592371 ], [ 144.25526793, -36.98527238 ], [ 144.25513378, -36.98474526 ], [ 144.25492459, -36.98410249 ], [ 144.25469388, -36.98355826 ], [ 144.25425399, -36.982637 ], [ 144.25376083, -36.98152654 ], [ 144.25357175, -36.98100273 ], [ 144.25342668, -36.98051419 ], [ 144.253313209999988, -36.97987454 ], [ 144.25306099, -36.97880182 ], [ 144.252682670000013, -36.97774411 ], [ 144.25228549, -36.97688277 ], [ 144.25208376, -36.9764396 ], [ 144.25174328, -36.97592589 ], [ 144.25132724, -36.9753114 ], [ 144.25081649, -36.97460117 ], [ 144.24999688, -36.97349808 ], [ 144.24877303, -36.97176958 ], [ 144.2477273, -36.9703853 ], [ 144.24638711, -36.96850962 ], [ 144.245837239999986, -36.96774673 ], [ 144.245457710000011, -36.96723129 ], [ 144.24528611, -36.96699121 ], [ 144.245105020000011, -36.96674369 ], [ 144.244855589999986, -36.96641366 ], [ 144.244278900000012, -36.96562608 ], [ 144.244057590000011, -36.96529184 ], [ 144.24383235, -36.96493597 ], [ 144.24361771, -36.96456637 ], [ 144.24342596, -36.96419127 ], [ 144.24335224, -36.96403384 ], [ 144.2432154, -36.96373049 ], [ 144.243074650000011, -36.96337369 ], [ 144.24295795, -36.96303827 ], [ 144.24283455, -36.96262997 ], [ 144.24274071, -36.96226778 ], [ 144.24267088, -36.96193138 ], [ 144.24261064, -36.96158096 ], [ 144.242567689999987, -36.96124023 ], [ 144.24253135, -36.9607815 ], [ 144.242513949999989, -36.96032079 ], [ 144.24249595, -36.95974282 ], [ 144.24249660000001, -36.95963776 ], [ 144.24247455, -36.95882981 ], [ 144.242465180000011, -36.95861971 ], [ 144.24244366, -36.95828858 ], [ 144.24240889, -36.95796074 ], [ 144.242345809999989, -36.95749022 ], [ 144.242324450000012, -36.95737879 ], [ 144.24217816, -36.95668114 ], [ 144.24142984, -36.95375111 ], [ 144.241024759999988, -36.95221639 ], [ 144.24071952, -36.95091785 ], [ 144.24059613, -36.95042916 ], [ 144.24043792, -36.94986974 ], [ 144.24024209000001, -36.94927601 ], [ 144.24007042, -36.94883441 ], [ 144.23986921, -36.94836491 ], [ 144.23963061, -36.9478676 ], [ 144.23941055, -36.9474603 ], [ 144.23912091, -36.94695882 ], [ 144.23874546, -36.94637776 ], [ 144.23813119, -36.9454861 ], [ 144.23753296000001, -36.94459859 ], [ 144.237103960000013, -36.94393409 ], [ 144.236814149999987, -36.94344099 ], [ 144.23657011, -36.94299293 ], [ 144.236361030000012, -36.94256208 ], [ 144.23616775, -36.94212908 ], [ 144.235945179999987, -36.94156527 ], [ 144.235776179999988, -36.94105714 ], [ 144.23558442, -36.94039879 ], [ 144.23540601, -36.93971939 ], [ 144.23519416, -36.93893703 ], [ 144.23498224, -36.93825947 ], [ 144.23479452, -36.93776 ], [ 144.23460143, -36.93730979 ], [ 144.234349290000011, -36.93677601 ], [ 144.23413474, -36.93637297 ], [ 144.2339254, -36.93599988 ], [ 144.23358755000001, -36.93545527 ], [ 144.23310206, -36.93472862 ], [ 144.23232959, -36.93358154 ], [ 144.231900380000013, -36.93295343 ], [ 144.231211050000013, -36.9318984 ], [ 144.23093209000001, -36.93141816 ], [ 144.23068543, -36.93095723 ], [ 144.230422510000011, -36.93040616 ], [ 144.23016227, -36.92977802 ], [ 144.22998528, -36.92929979 ], [ 144.229805590000012, -36.9287102 ], [ 144.22934145, -36.92683199 ], [ 144.228944610000013, -36.92517234 ], [ 144.2278985, -36.92074233 ], [ 144.2277484, -36.92001528 ], [ 144.22764654, -36.9193355 ], [ 144.22750955, -36.91809817 ], [ 144.22739427, -36.91701751 ], [ 144.22724953, -36.91559138 ], [ 144.22695983, -36.91280769 ], [ 144.226827609999987, -36.91146692 ], [ 144.226741, -36.91067322 ], [ 144.226625649999988, -36.91000998 ], [ 144.22650109, -36.90944934 ], [ 144.22634663, -36.90887737 ], [ 144.22615588, -36.90831942 ], [ 144.22591992, -36.90767417 ], [ 144.225104030000011, -36.90548412 ], [ 144.22451738, -36.90392077 ], [ 144.22424002, -36.90315236 ], [ 144.22410851, -36.90272528 ], [ 144.22395899, -36.90212333 ], [ 144.22382975, -36.90153753 ], [ 144.22375451, -36.9010504 ], [ 144.22369806, -36.90062346 ], [ 144.223670270000014, -36.90020161 ], [ 144.22362306, -36.89956618 ], [ 144.22354797, -36.89844653 ], [ 144.22342734, -36.89659318 ], [ 144.223397760000012, -36.8960162 ], [ 144.22339241, -36.89545203 ], [ 144.22342464, -36.89478268 ], [ 144.2234756, -36.89425291 ], [ 144.22356412, -36.89365228 ], [ 144.22368484, -36.89303033 ], [ 144.223829599999988, -36.89247247 ], [ 144.223987779999987, -36.89196197 ], [ 144.22419978, -36.89137198 ], [ 144.22451625, -36.89059537 ], [ 144.224913249999986, -36.88963653 ], [ 144.22572334, -36.88769507 ], [ 144.22603439, -36.88692499 ], [ 144.226155080000012, -36.88658168 ], [ 144.226259770000013, -36.88623393 ], [ 144.22633785, -36.8859582 ], [ 144.22644632, -36.88548122 ], [ 144.226515299999988, -36.88505703 ], [ 144.22656317, -36.88463334 ], [ 144.22659796, -36.88405669 ], [ 144.22660697, -36.88343564 ], [ 144.22659176, -36.88317106 ], [ 144.22655765, -36.88231254 ], [ 144.226517449999989, -36.88164429 ], [ 144.226544929999989, -36.88103052 ], [ 144.2266081, -36.88026456 ], [ 144.22670362, -36.8797051 ], [ 144.226942290000011, -36.87865847 ], [ 144.227221680000014, -36.8775927 ], [ 144.22837586, -36.87368976 ], [ 144.228635849999989, -36.87276853 ], [ 144.22881085, -36.87213197 ], [ 144.22910601000001, -36.8710754 ], [ 144.229320449999989, -36.87024412 ], [ 144.22954476000001, -36.86950598 ], [ 144.229774170000013, -36.86876913 ], [ 144.22998977, -36.86797681 ], [ 144.230364079999987, -36.86657864 ], [ 144.230476329999988, -36.86597991 ], [ 144.23055659, -36.86549037 ], [ 144.23059727, -36.86501632 ], [ 144.23058988, -36.86402847 ], [ 144.23056356, -36.86345913 ], [ 144.230502019999989, -36.86297079 ], [ 144.2304307, -36.86247358 ], [ 144.23015263, -36.86124854 ], [ 144.23002999, -36.86065721 ], [ 144.2299451, -36.86014463 ], [ 144.22989336, -36.85968951 ], [ 144.229857939999988, -36.85839109 ], [ 144.22988984, -36.85802623 ], [ 144.22993516, -36.85773712 ], [ 144.22999393, -36.85724654 ], [ 144.230090139999987, -36.85680261 ], [ 144.23022443, -36.85627946 ], [ 144.230556900000011, -36.85530188 ], [ 144.23070483, -36.85494099 ], [ 144.23210634, -36.85157896 ], [ 144.23247067, -36.85072097 ], [ 144.23302125, -36.84969782 ], [ 144.23337354, -36.84919803 ], [ 144.23387754, -36.84850848 ], [ 144.234479349999987, -36.84784274 ], [ 144.23519196, -36.84716976 ], [ 144.23716005, -36.84551919 ], [ 144.24042492, -36.84285119 ], [ 144.2413152, -36.84194574 ], [ 144.24187171, -36.84123322 ], [ 144.24242809, -36.840402 ], [ 144.242947500000014, -36.83934797 ], [ 144.24339255000001, -36.83810108 ], [ 144.243986150000012, -36.83620094 ], [ 144.24433864, -36.83511717 ], [ 144.24496923, -36.8337812 ], [ 144.246082089999987, -36.83185119 ], [ 144.24726954, -36.8299091 ], [ 144.24779292, -36.82877178 ], [ 144.248062119999986, -36.82796984 ], [ 144.248223450000012, -36.8273843 ], [ 144.248305140000014, -36.82705997 ], [ 144.2483537, -36.82675893 ], [ 144.24837165, -36.82662417 ], [ 144.24841179, -36.82623922 ], [ 144.24842675, -36.82597182 ], [ 144.24843607, -36.82571178 ], [ 144.24843239, -36.82537952 ], [ 144.24841962, -36.82505697 ], [ 144.24840139, -36.82481494 ], [ 144.24838397, -36.82463493 ], [ 144.24831255, -36.82410023 ], [ 144.24826252, -36.82383224 ], [ 144.24811757, -36.82324447 ], [ 144.24801806, -36.8229154 ], [ 144.247902579999987, -36.82257487 ], [ 144.24774756, -36.82215584 ], [ 144.24756051, -36.82166695 ], [ 144.247417649999988, -36.82131497 ], [ 144.24731645, -36.82104876 ], [ 144.24721144, -36.82078544 ], [ 144.246366959999989, -36.81861251 ], [ 144.245732159999989, -36.81699146 ], [ 144.24548164, -36.81632924 ], [ 144.245339589999986, -36.81593321 ], [ 144.24527025, -36.81571658 ], [ 144.24522006, -36.81554726 ], [ 144.24512725, -36.81520987 ], [ 144.245051030000013, -36.81491612 ], [ 144.24499633, -36.81468497 ], [ 144.24494048, -36.81441719 ], [ 144.24489595, -36.81418366 ], [ 144.24483405, -36.81377823 ], [ 144.24481065, -36.81359952 ], [ 144.24478941000001, -36.81341357 ], [ 144.24476385, -36.81315127 ], [ 144.244746209999988, -36.81290241 ], [ 144.24473394, -36.81265718 ], [ 144.24472512, -36.81228434 ], [ 144.24472382, -36.81211102 ], [ 144.244728689999988, -36.81180644 ], [ 144.24474226000001, -36.81151559 ], [ 144.2447693, -36.81116178 ], [ 144.24480187, -36.81084713 ], [ 144.24482746000001, -36.81063378 ], [ 144.244849499999987, -36.81048154 ], [ 144.24490362, -36.81015387 ], [ 144.24496077, -36.80985402 ], [ 144.245034589999989, -36.80951446 ], [ 144.245123510000013, -36.80915046 ], [ 144.2454716, -36.80784101 ], [ 144.24558377, -36.80742853 ], [ 144.24570146, -36.80701239 ], [ 144.24584784000001, -36.80646156 ], [ 144.24615495, -36.80532517 ], [ 144.24694402, -36.80242842 ], [ 144.24764568, -36.79981161 ], [ 144.248279810000014, -36.79748017 ], [ 144.24859285, -36.79631381 ], [ 144.24875080000001, -36.79573261 ], [ 144.248811960000012, -36.79551738 ], [ 144.24899215, -36.79484711 ], [ 144.24899331997085, -36.794842772333958 ] ] } },
{ "type": "Feature", "properties": { "from_stop": "Castlemaine Railway Station", "to_stop": "Castlemaine Station", "minutes": 26.0, "tier": 30, "centre": "bendigo", "MODE": "REGIONAL TRAIN" }, "geometry": { "type": "LineString", "coordinates": [ [ 144.213917027289142, -37.062826098363679 ], [ 144.213904427614864, -37.062876065112611 ] ] } },
{ "type": "Feature", "properties": { "from_stop": "Raywood Railway Station", "to_stop": "Dingee Railway Station", "minutes": 37.8, "tier": 45, "centre": "bendigo", "MODE": "REGIONAL TRAIN" }, "geometry": { "type": "LineString", "coordinates": [ [ 144.201751095582438, -36.532075730968828 ], [ 144.20192658, -36.53118663 ], [ 144.20211068, -36.53004778 ], [ 144.20230122000001, -36.52873948 ], [ 144.202400360000013, -36.52827832 ], [ 144.20311654, -36.52417881 ], [ 144.203889, -36.51999923 ], [ 144.20464009, -36.51570956 ], [ 144.205297230000014, -36.51216992 ], [ 144.205806779999989, -36.50936083 ], [ 144.20721236, -36.50157998 ], [ 144.207901639999989, -36.49767526 ], [ 144.20874376, -36.49302422 ], [ 144.209165, -36.49075791 ], [ 144.20969068, -36.48773252 ], [ 144.21050075, -36.483234 ], [ 144.21101844, -36.48050591 ], [ 144.21181228, -36.47610622 ], [ 144.212289739999989, -36.47328939 ], [ 144.2133304, -36.46734916 ], [ 144.21428534, -36.46214617 ], [ 144.21543864, -36.45574784 ], [ 144.21703193, -36.44695829 ], [ 144.21843204000001, -36.43915608 ], [ 144.21866268, -36.43792607 ], [ 144.219134669999988, -36.43525903 ], [ 144.219453140000013, -36.4333767 ], [ 144.21985536, -36.43119721 ], [ 144.22007671, -36.42986028 ], [ 144.22017713, -36.42930576 ], [ 144.22019393, -36.42918827 ], [ 144.22023274, -36.42901614 ], [ 144.22067969, -36.42667871 ], [ 144.221377, -36.42279819 ], [ 144.222401670000011, -36.41713898 ], [ 144.22286571, -36.41450822 ], [ 144.22303745, -36.41350286 ], [ 144.223066569999986, -36.41335826 ], [ 144.22318585, -36.4127173 ], [ 144.224000210000014, -36.40823719 ], [ 144.22463326, -36.40479186 ], [ 144.22544856, -36.40040522 ], [ 144.225521570000012, -36.39999497 ], [ 144.22637132, -36.39499051 ], [ 144.22709022, -36.39095731 ], [ 144.22793773, -36.38638852 ], [ 144.22806699, -36.38547661 ], [ 144.22842053, -36.38351231 ], [ 144.22930032, -36.37856286 ], [ 144.229718709999986, -36.376399 ], [ 144.23018539, -36.3737341 ], [ 144.23068835, -36.37090917 ], [ 144.230744789999989, -36.37065967 ], [ 144.23098048, -36.36976724 ], [ 144.23107959, -36.36923196 ], [ 144.231080769937279, -36.369225585487818 ] ] } },
{ "type": "Feature", "properties": { "from_stop": "Raywood Railway Station", "to_stop": "Dingee Station", "minutes": 37.8, "tier": 45, "centre": "bendigo", "MODE": "REGIONAL TRAIN" }, "geometry": { "type": "LineString", "coordinates": [ [ 144.231080769937279, -36.369225585487818 ], [ 144.23107959, -36.36923196 ], [ 144.23098048, -36.36976724 ], [ 144.230744789999989, -36.37065967 ], [ 144.23068835, -36.37090917 ], [ 144.23018539, -36.3737341 ], [ 144.229718709999986, -36.376399 ], [ 144.22930032, -36.37856286 ], [ 144.22842053, -36.38351231 ], [ 144.22806699, -36.38547661 ], [ 144.22793773, -36.38638852 ], [ 144.22709022, -36.39095731 ], [ 144.22637132, -36.39499051 ], [ 144.225521570000012, -36.39999497 ], [ 144.22544856, -36.40040522 ], [ 144.22463326, -36.40479186 ], [ 144.224000210000014, -36.40823719 ], [ 144.22318585, -36.4127173 ], [ 144.223066569999986, -36.41335826 ], [ 144.22303745, -36.41350286 ], [ 144.22286571, -36.41450822 ], [ 144.222401670000011, -36.41713898 ], [ 144.221377, -36.42279819 ], [ 144.22067969, -36.42667871 ], [ 144.22023274, -36.42901614 ], [ 144.22019393, -36.42918827 ], [ 144.22017713, -36.42930576 ], [ 144.22007671, -36.42986028 ], [ 144.21985536, -36.43119721 ], [ 144.219453140000013, -36.4333767 ], [ 144.219134669999988, -36.43525903 ], [ 144.21866268, -36.43792607 ], [ 144.21843204000001, -36.43915608 ], [ 144.21703193, -36.44695829 ], [ 144.21543864, -36.45574784 ], [ 144.21428534, -36.46214617 ], [ 144.2133304, -36.46734916 ], [ 144.212289739999989, -36.47328939 ], [ 144.21181228, -36.47610622 ], [ 144.21101844, -36.48050591 ], [ 144.21050075, -36.483234 ], [ 144.20969068, -36.48773252 ], [ 144.209165, -36.49075791 ], [ 144.20874376, -36.49302422 ], [ 144.207901639999989, -36.49767526 ], [ 144.20721236, -36.50157998 ], [ 144.205806779999989, -36.50936083 ], [ 144.205297230000014, -36.51216992 ], [ 144.20464009, -36.51570956 ], [ 144.203889, -36.51999923 ], [ 144.20311654, -36.52417881 ], [ 144.202400360000013, -36.52827832 ], [ 144.20230122000001, -36.52873948 ], [ 144.20211068, -36.53004778 ], [ 144.20192658, -36.53118663 ], [ 144.201751095582438, -36.532075730968828 ] ] } },
{ "type": "Feature", "properties": { "from_stop": "Bendigo Railway Station", "to_stop": "Eaglehawk Railway Station", "minutes": 12.1, "tier": 15, "centre": "bendigo", "MODE": "REGIONAL TRAIN" }, "geometry": { "type": "LineString", "coordinates": [ [ 144.282929761629902, -36.765561241792668 ], [ 144.28613361, -36.76322326 ], [ 144.28638483, -36.76303596 ], [ 144.28672742, -36.76277667 ], [ 144.2868707, -36.76266152 ], [ 144.28709715, -36.76246861 ], [ 144.28727625, -36.76230652 ], [ 144.2874411, -36.76214806 ], [ 144.287637170000011, -36.7619495 ], [ 144.28782765, -36.76174405 ], [ 144.287897, -36.76166389 ], [ 144.28814922, -36.76134981 ], [ 144.28852207, -36.76083517 ], [ 144.288705, -36.76055123 ], [ 144.28878666, -36.76041116 ], [ 144.28892155, -36.76016821 ], [ 144.288970830000011, -36.76007309 ], [ 144.28907816, -36.75985276 ], [ 144.289178420000013, -36.75962326 ], [ 144.28921675, -36.75953014 ], [ 144.289301310000013, -36.75930758 ], [ 144.28937606, -36.75909642 ], [ 144.28955255, -36.75855306 ], [ 144.28990468, -36.75743027 ], [ 144.29012935, -36.75668876 ], [ 144.29039957, -36.75584329 ], [ 144.290829699999989, -36.75447301 ], [ 144.29096598000001, -36.75402777 ], [ 144.29123377, -36.75317431 ], [ 144.291449730000011, -36.75258426 ], [ 144.29163214, -36.75213296 ], [ 144.29186413, -36.75165061 ], [ 144.2920045, -36.75138822 ], [ 144.292147949999986, -36.75112744 ], [ 144.29256946000001, -36.75037616 ], [ 144.29280019, -36.74995488 ], [ 144.29303625, -36.74953146 ], [ 144.29325344, -36.7490394 ], [ 144.29342775, -36.74855366 ], [ 144.29352512, -36.74824307 ], [ 144.29357274, -36.74806374 ], [ 144.29361695, -36.74787018 ], [ 144.29368667, -36.74751777 ], [ 144.293723660000012, -36.74730017 ], [ 144.29374934, -36.74709501 ], [ 144.293773359999989, -36.74685142 ], [ 144.29379132, -36.74655372 ], [ 144.293794569999989, -36.74643898 ], [ 144.293795929999987, -36.74613251 ], [ 144.293783100000013, -36.74583158 ], [ 144.29376574, -36.74560237 ], [ 144.29374028, -36.74537713 ], [ 144.29369001, -36.74502947 ], [ 144.29362631, -36.74470071 ], [ 144.29356332, -36.7444282 ], [ 144.29344121, -36.7440188 ], [ 144.2932106, -36.74338902 ], [ 144.293069190000011, -36.74305092 ], [ 144.2930203, -36.74294428 ], [ 144.29280927, -36.74254493 ], [ 144.29272258, -36.74239246 ], [ 144.29263186, -36.74224008 ], [ 144.29241263, -36.74190489 ], [ 144.29220841, -36.74161447 ], [ 144.29204367, -36.74139533 ], [ 144.29194981, -36.74127802 ], [ 144.29172927, -36.74101237 ], [ 144.29152815, -36.74078971 ], [ 144.291380870000012, -36.74063783 ], [ 144.2911981, -36.74046028 ], [ 144.29110494, -36.74037417 ], [ 144.29089983, -36.74019214 ], [ 144.290801069999986, -36.74010914 ], [ 144.290669369999989, -36.74000151 ], [ 144.29053385, -36.73989749 ], [ 144.29026638, -36.73970224 ], [ 144.2899961, -36.73952008 ], [ 144.289845320000012, -36.73942337 ], [ 144.289697100000012, -36.73933329 ], [ 144.28938525, -36.73915532 ], [ 144.289218799999986, -36.73906781 ], [ 144.28904981, -36.73898249 ], [ 144.2888893, -36.73890466 ], [ 144.28871608, -36.73882501 ], [ 144.28855539, -36.73875529 ], [ 144.28839358, -36.73868897 ], [ 144.28821335, -36.73861754 ], [ 144.28800386, -36.73854093 ], [ 144.28782479, -36.73847818 ], [ 144.28763174, -36.73841502 ], [ 144.28740025, -36.73834621 ], [ 144.28715477, -36.73827743 ], [ 144.28693622, -36.73822288 ], [ 144.2867132, -36.7381712 ], [ 144.28646525, -36.73811859 ], [ 144.28620622, -36.73806898 ], [ 144.285222659999988, -36.73788476 ], [ 144.28135531, -36.73717432 ], [ 144.27462295, -36.73593312 ], [ 144.27094086, -36.73525813 ], [ 144.27069997000001, -36.73521223 ], [ 144.270192189999989, -36.73512082 ], [ 144.269648100000012, -36.73500226 ], [ 144.269469890000011, -36.73495681 ], [ 144.269314040000012, -36.73491249 ], [ 144.268982060000013, -36.73480826 ], [ 144.268684650000012, -36.73469861 ], [ 144.268563410000013, -36.73465058 ], [ 144.26834245, -36.73455737 ], [ 144.26810672, -36.73444508 ], [ 144.26797524, -36.73437654 ], [ 144.26783842, -36.73430391 ], [ 144.26769323, -36.73422082 ], [ 144.26756731, -36.7341471 ], [ 144.267474959999987, -36.73408973 ], [ 144.2673605, -36.73401798 ], [ 144.26724092, -36.73393917 ], [ 144.26700675, -36.73377347 ], [ 144.26661776, -36.73346182 ], [ 144.266279770000011, -36.73312323 ], [ 144.26590432, -36.73268896 ], [ 144.26547991000001, -36.7321074 ], [ 144.26522985, -36.73175559 ], [ 144.26488905, -36.73128527 ], [ 144.26439427, -36.73059529 ], [ 144.26388019, -36.72988802 ], [ 144.26348158, -36.72933119 ], [ 144.26311084, -36.72882494 ], [ 144.26291271, -36.72854669 ], [ 144.26269513, -36.72826123 ], [ 144.2625634, -36.72809932 ], [ 144.262363279999988, -36.72786464 ], [ 144.262214, -36.72769872 ], [ 144.26201803, -36.72749522 ], [ 144.26178975, -36.72726864 ], [ 144.26164485000001, -36.72713391 ], [ 144.2614002, -36.72691749 ], [ 144.26127151, -36.72680881 ], [ 144.26097631, -36.7265751 ], [ 144.26085486, -36.72648317 ], [ 144.26057497, -36.7262818 ], [ 144.26042394000001, -36.72617784 ], [ 144.26018975, -36.72602329 ], [ 144.26005572, -36.72593892 ], [ 144.25990622, -36.7258486 ], [ 144.259610720000012, -36.72567706 ], [ 144.25942941, -36.72557816 ], [ 144.258973020000013, -36.72534091 ], [ 144.25877011, -36.72523854 ], [ 144.258438250000012, -36.72507607 ], [ 144.258266670000012, -36.72499002 ], [ 144.25812588, -36.72491621 ], [ 144.25798547, -36.72483817 ], [ 144.257817210000013, -36.72474057 ], [ 144.257673399999987, -36.72464821 ], [ 144.25723216, -36.72434407 ], [ 144.256822629999988, -36.7240522 ], [ 144.25632155, -36.7236999 ], [ 144.25588142, -36.72338379 ], [ 144.2533062, -36.72155739 ], [ 144.25242355, -36.72094384 ], [ 144.25194514, -36.72063477 ], [ 144.25033453, -36.71961047 ], [ 144.250043909999988, -36.71943523 ], [ 144.24955674, -36.71914658 ], [ 144.24894265, -36.71879759 ], [ 144.24839838, -36.71849987 ] ] } },
{ "type": "Feature", "properties": { "from_stop": "Eaglehawk Railway Station", "to_stop": "Eaglehawk Station", "minutes": 12.1, "tier": 15, "centre": "bendigo", "MODE": "REGIONAL TRAIN" }, "geometry": { "type": "Point", "coordinates": [ 144.24839838, -36.71849987 ] } },
{ "type": "Feature", "properties": { "from_stop": "Goornong Station", "to_stop": "Elmore Railway Station", "minutes": 38.7, "tier": 45, "centre": "bendigo", "MODE": "REGIONAL TRAIN" }, "geometry": { "type": "LineString", "coordinates": [ [ 144.504556415395939, -36.614789909633849 ], [ 144.5045614, -36.61478832 ], [ 144.50593633, -36.61436001 ], [ 144.510340609999986, -36.61292689 ], [ 144.52148743, -36.60940512 ], [ 144.52712034000001, -36.60762272 ], [ 144.531414070000011, -36.60624256 ], [ 144.533496219999989, -36.60545204 ], [ 144.53455016, -36.60498042 ], [ 144.53659886, -36.6038938 ], [ 144.538064209999987, -36.60298679 ], [ 144.53984159, -36.60175724 ], [ 144.540776169999987, -36.60097253 ], [ 144.542040750000012, -36.59981996 ], [ 144.54318317, -36.59854968 ], [ 144.54383069, -36.5977601 ], [ 144.545131919999989, -36.59594537 ], [ 144.54628649, -36.59394916 ], [ 144.54780765000001, -36.59132996 ], [ 144.54851745, -36.59010154 ], [ 144.55119205, -36.58562526 ], [ 144.55367228, -36.58133798 ], [ 144.55627472, -36.57688361 ], [ 144.55893214, -36.57231611 ], [ 144.561085350000013, -36.56858218 ], [ 144.56497875, -36.56184478 ], [ 144.57625854, -36.54255368 ], [ 144.57656581, -36.54207811 ], [ 144.57664275, -36.5419498 ], [ 144.585239800000011, -36.52736081 ], [ 144.59277884, -36.51635218 ], [ 144.60381849, -36.5002651 ], [ 144.60413811, -36.49982314 ], [ 144.60518522000001, -36.49831982 ], [ 144.60571361, -36.49755758 ], [ 144.6060328, -36.49708541 ], [ 144.60640835, -36.49658408 ], [ 144.60709759, -36.49560731 ], [ 144.607570864453947, -36.494895853215027 ] ] } },
{ "type": "Feature", "properties": { "from_stop": "Elmore Railway Station", "to_stop": "Elmore Station", "minutes": 38.7, "tier": 45, "centre": "bendigo", "MODE": "REGIONAL TRAIN" }, "geometry": { "type": "LineString", "coordinates": [ [ 144.607619385002295, -36.494822969311237 ], [ 144.60761831, -36.49482453 ], [ 144.607570864453947, -36.494895853215027 ] ] } },
{ "type": "Feature", "properties": { "from_stop": "Epsom Station", "to_stop": "Epsom Railway Station", "minutes": 10.9, "tier": 15, "centre": "bendigo", "MODE": "REGIONAL TRAIN" }, "geometry": { "type": "LineString", "coordinates": [ [ 144.320954908271773, -36.706759437294721 ], [ 144.32095593, -36.70675416 ] ] } },
{ "type": "Feature", "properties": { "from_stop": "Bendigo Railway Station", "to_stop": "Epsom Station", "minutes": 10.9, "tier": 15, "centre": "bendigo", "MODE": "REGIONAL TRAIN" }, "geometry": { "type": "LineString", "coordinates": [ [ 144.320954908271773, -36.706759437294721 ], [ 144.320835069999987, -36.70737841 ], [ 144.32076036, -36.70777957 ], [ 144.32063126, -36.70842868 ], [ 144.32003956, -36.71147989 ], [ 144.319764490000011, -36.71288246 ], [ 144.31968325, -36.71328076 ], [ 144.31959744, -36.71364994 ], [ 144.31951104, -36.71395549 ], [ 144.31946595, -36.71409983 ], [ 144.31937498, -36.71437562 ], [ 144.319209949999987, -36.71483693 ], [ 144.31903402, -36.71525779 ], [ 144.31893885, -36.71546752 ], [ 144.31883165, -36.7156886 ], [ 144.318551680000013, -36.71623599 ], [ 144.31841849, -36.71647054 ], [ 144.318234780000012, -36.71678642 ], [ 144.318060870000011, -36.71704889 ], [ 144.31787136, -36.7173157 ], [ 144.31710665, -36.71836872 ], [ 144.31584934, -36.71997531 ], [ 144.314972680000011, -36.72111348 ], [ 144.314014, -36.72239777 ], [ 144.31230303000001, -36.72458914 ], [ 144.31087242000001, -36.72646212 ], [ 144.310771390000014, -36.72658879 ], [ 144.31069052, -36.72669899 ], [ 144.30993945, -36.72767296 ], [ 144.30939515, -36.72840008 ], [ 144.308295500000014, -36.72982964 ], [ 144.307088529999987, -36.73138167 ], [ 144.30653874, -36.7321073 ], [ 144.30618911, -36.73256449 ], [ 144.30447652, -36.73479508 ], [ 144.30279031, -36.73699849 ], [ 144.3003249, -36.74021146 ], [ 144.300193119999989, -36.7403805 ], [ 144.29948019, -36.74131283 ], [ 144.29894382, -36.74200267 ], [ 144.29845698, -36.74265607 ], [ 144.29802515, -36.74320959 ], [ 144.296091280000013, -36.74572638 ], [ 144.29565668, -36.74629696 ], [ 144.29458255, -36.74769623 ], [ 144.293779230000013, -36.74873965 ], [ 144.29312737, -36.74961212 ], [ 144.29293463, -36.74988638 ], [ 144.29256946000001, -36.75037616 ], [ 144.292147949999986, -36.75112744 ], [ 144.2920045, -36.75138822 ], [ 144.29186413, -36.75165061 ], [ 144.29163214, -36.75213296 ], [ 144.291449730000011, -36.75258426 ], [ 144.29123377, -36.75317431 ], [ 144.29096598000001, -36.75402777 ], [ 144.290829699999989, -36.75447301 ], [ 144.29039957, -36.75584329 ], [ 144.29012935, -36.75668876 ], [ 144.28990468, -36.75743027 ], [ 144.289676750000012, -36.75815901 ], [ 144.28955255, -36.75855306 ], [ 144.28937606, -36.75909642 ], [ 144.28933615, -36.75921204 ], [ 144.28925324, -36.75943544 ], [ 144.289178420000013, -36.75962326 ], [ 144.28907816, -36.75985276 ], [ 144.288970830000011, -36.76007309 ], [ 144.28886384, -36.76027414 ], [ 144.288705, -36.76055123 ], [ 144.28852207, -36.76083517 ], [ 144.28814922, -36.76134981 ], [ 144.28793208, -36.76162197 ], [ 144.28782765, -36.76174405 ], [ 144.287637170000011, -36.7619495 ], [ 144.28754244000001, -36.7620471 ], [ 144.2874411, -36.76214806 ], [ 144.28727625, -36.76230652 ], [ 144.28709715, -36.76246861 ], [ 144.2868707, -36.76266152 ], [ 144.28672742, -36.76277667 ], [ 144.28613361, -36.76322326 ], [ 144.282929761629902, -36.765561241792668 ] ] } },
{ "type": "Feature", "properties": { "from_stop": "Huntly Railway Station", "to_stop": "Goornong Railway Station", "minutes": 26.1, "tier": 30, "centre": "bendigo", "MODE": "REGIONAL TRAIN" }, "geometry": { "type": "LineString", "coordinates": [ [ 144.503460210984883, -36.615139498811025 ], [ 144.50272241, -36.61537479 ], [ 144.47679446, -36.62355638 ], [ 144.4751799, -36.62405416 ], [ 144.467498010000014, -36.62648238 ], [ 144.461259289999987, -36.62847501 ], [ 144.45944597, -36.62902674 ], [ 144.45757608, -36.62965546 ], [ 144.45737542, -36.62972841 ], [ 144.455583679999989, -36.63045159 ], [ 144.446260349999989, -36.63473926 ], [ 144.42633149, -36.64394649 ], [ 144.41377873, -36.64973973 ], [ 144.40959453, -36.65166354 ], [ 144.40532774, -36.65363929 ], [ 144.40454355, -36.65399224 ], [ 144.40224522, -36.65505052 ], [ 144.39887644, -36.65659547 ], [ 144.39674671, -36.65743887 ], [ 144.39490938, -36.65806513 ], [ 144.38751444, -36.660376 ], [ 144.381962609999988, -36.66212838 ], [ 144.38134131000001, -36.66232677 ], [ 144.37570485, -36.66406599 ], [ 144.37131251, -36.66543841 ], [ 144.37124949, -36.66545594 ], [ 144.3698374094987, -36.665901639933139 ] ] } },
{ "type": "Feature", "properties": { "from_stop": "Goornong Railway Station", "to_stop": "Goornong Station", "minutes": 26.2, "tier": 30, "centre": "bendigo", "MODE": "REGIONAL TRAIN" }, "geometry": { "type": "LineString", "coordinates": [ [ 144.504556415395939, -36.614789909633849 ], [ 144.503460210984883, -36.615139498811025 ] ] } },
{ "type": "Feature", "properties": { "from_stop": "Huntly Station", "to_stop": "Huntly Railway Station", "minutes": 17.6, "tier": 30, "centre": "bendigo", "MODE": "REGIONAL TRAIN" }, "geometry": { "type": "LineString", "coordinates": [ [ 144.3698374094987, -36.665901639933139 ], [ 144.36944401, -36.66602581 ], [ 144.36826295, -36.66638894 ], [ 144.368258275169637, -36.666390398835738 ] ] } },
{ "type": "Feature", "properties": { "from_stop": "Epsom Railway Station", "to_stop": "Huntly Station", "minutes": 17.5, "tier": 30, "centre": "bendigo", "MODE": "REGIONAL TRAIN" }, "geometry": { "type": "LineString", "coordinates": [ [ 144.368258275169637, -36.666390398835738 ], [ 144.35643042, -36.67008142 ], [ 144.35291675, -36.67118292 ], [ 144.35103109, -36.67177019 ], [ 144.34968995, -36.67227791 ], [ 144.34870301, -36.6727168 ], [ 144.34703726, -36.67362893 ], [ 144.345261670000014, -36.67476686 ], [ 144.343653710000012, -36.67580486 ], [ 144.34285035, -36.67632639 ], [ 144.341796319999986, -36.67700192 ], [ 144.341415579999989, -36.67723927 ], [ 144.34095412, -36.67751347 ], [ 144.340759639999987, -36.67762484 ], [ 144.34047554, -36.67777819 ], [ 144.34024872, -36.67789586 ], [ 144.33941726, -36.6783031 ], [ 144.33912547, -36.67843266 ], [ 144.33871575, -36.67860788 ], [ 144.33833044, -36.67876284 ], [ 144.337928799999986, -36.67891472 ], [ 144.33737227, -36.67910963 ], [ 144.33705475, -36.67921608 ], [ 144.336389770000011, -36.6794539 ], [ 144.336067750000012, -36.67957764 ], [ 144.33572996, -36.67971706 ], [ 144.33541949, -36.67985584 ], [ 144.33509346, -36.68000796 ], [ 144.33476146000001, -36.6801741 ], [ 144.33440797, -36.68036318 ], [ 144.334002559999988, -36.68059752 ], [ 144.33356959, -36.68086872 ], [ 144.333214950000013, -36.68111023 ], [ 144.332829409999988, -36.68139097 ], [ 144.33254156000001, -36.68161658 ], [ 144.33226722, -36.68183951 ], [ 144.33195898, -36.68211099 ], [ 144.3317041, -36.6823504 ], [ 144.33146082, -36.6825908 ], [ 144.33115572, -36.68291668 ], [ 144.330910929999988, -36.68319426 ], [ 144.330656119999986, -36.68350577 ], [ 144.33039292, -36.68385602 ], [ 144.33019234, -36.68414252 ], [ 144.33001037, -36.6844216 ], [ 144.32984191, -36.68470152 ], [ 144.32968997, -36.68496964 ], [ 144.32952253, -36.68529113 ], [ 144.32939785, -36.68555392 ], [ 144.32922865, -36.68593277 ], [ 144.32833348, -36.68797248 ], [ 144.32818795, -36.68831068 ], [ 144.3272905, -36.690366 ], [ 144.32491787, -36.69577832 ], [ 144.32448574, -36.69677039 ], [ 144.323812159999989, -36.69829918 ], [ 144.323438149999987, -36.69915701 ], [ 144.32238146, -36.70156549 ], [ 144.3220972, -36.70221941 ], [ 144.32198985, -36.7024842 ], [ 144.32188154, -36.70277357 ], [ 144.32179346, -36.70302491 ], [ 144.321690280000013, -36.70334063 ], [ 144.32160916, -36.7036106 ], [ 144.321525369999989, -36.703919 ], [ 144.32141918, -36.70436307 ], [ 144.32115292, -36.70574547 ], [ 144.32112308, -36.70588917 ], [ 144.321046282999703, -36.706286589307737 ] ] } },
{ "type": "Feature", "properties": { "from_stop": "Bendigo Station", "to_stop": "Kangaroo Flat Railway Station", "minutes": 4.0, "tier": 15, "centre": "bendigo", "MODE": "REGIONAL TRAIN" }, "geometry": { "type": "LineString", "coordinates": [ [ 144.282860731342851, -36.765611629010699 ], [ 144.282515890000013, -36.76586538 ], [ 144.282250870000013, -36.76604316 ], [ 144.282088249999987, -36.76614083 ], [ 144.28191633, -36.76623864 ], [ 144.28169048, -36.76636027 ], [ 144.28091543, -36.76677034 ], [ 144.280706470000013, -36.76686064 ], [ 144.280579640000013, -36.76690902 ], [ 144.27973824, -36.76720572 ], [ 144.27958407, -36.76725131 ], [ 144.27873779, -36.76748004 ], [ 144.27793662, -36.76768718 ], [ 144.27717009, -36.76789041 ], [ 144.2767758, -36.76799178 ], [ 144.276160080000011, -36.76815872 ], [ 144.27591614, -36.76822126 ], [ 144.27532072, -36.76838776 ], [ 144.27490355, -36.76851509 ], [ 144.27359596, -36.76887019 ], [ 144.27127669, -36.76949242 ], [ 144.27057555, -36.76968278 ], [ 144.27025057, -36.76980636 ], [ 144.269783460000014, -36.76999263 ], [ 144.269677800000011, -36.77003148 ], [ 144.26955605, -36.77007518 ], [ 144.26913072, -36.77019203 ], [ 144.26903095, -36.77022254 ], [ 144.26887075, -36.77027978 ], [ 144.268590960000012, -36.77039889 ], [ 144.26813535, -36.77055748 ], [ 144.26787024, -36.77065439 ], [ 144.267575279999988, -36.77076846 ], [ 144.26736619, -36.77085846 ], [ 144.26688865, -36.77107963 ], [ 144.26447575, -36.77221442 ], [ 144.26374626, -36.77255197 ], [ 144.26315068, -36.77283773 ], [ 144.26290311, -36.77295107 ], [ 144.26170413, -36.77351824 ], [ 144.2610898, -36.77380454 ], [ 144.260625260000012, -36.77401184 ], [ 144.260224060000013, -36.77420202 ], [ 144.259837870000013, -36.77439517 ], [ 144.259490050000011, -36.77458018 ], [ 144.259172330000013, -36.77475697 ], [ 144.25884094, -36.7749557 ], [ 144.25849802, -36.775173 ], [ 144.2582011, -36.7753727 ], [ 144.25789244, -36.77559043 ], [ 144.257141749999988, -36.77614076 ], [ 144.25678199, -36.7764121 ], [ 144.25642682, -36.77670237 ], [ 144.256068090000014, -36.77701708 ], [ 144.255757, -36.77730891 ], [ 144.25548346, -36.77759692 ], [ 144.2552054, -36.77789861 ], [ 144.25494515, -36.77819711 ], [ 144.25474101, -36.77843941 ], [ 144.25454249, -36.77868436 ], [ 144.25434625, -36.7789409 ], [ 144.254129870000014, -36.77923104 ], [ 144.25389732, -36.77955992 ], [ 144.2536666, -36.77990947 ], [ 144.25345033, -36.78025603 ], [ 144.2532795, -36.78055037 ], [ 144.25311571, -36.78084524 ], [ 144.25293036, -36.78121053 ], [ 144.252778549999988, -36.78152108 ], [ 144.252600089999987, -36.78193186 ], [ 144.25244152, -36.78232796 ], [ 144.25232882, -36.78264158 ], [ 144.25221892, -36.78296418 ], [ 144.25210261, -36.78334431 ], [ 144.2520418, -36.78356307 ], [ 144.25093131, -36.78768074 ], [ 144.2498409, -36.79170037 ], [ 144.248995401829347, -36.794835053845013 ] ] } },
{ "type": "Feature", "properties": { "from_stop": "Kangaroo Flat Railway Station", "to_stop": "Kangaroo Flat Station", "minutes": 4.0, "tier": 15, "centre": "bendigo", "MODE": "REGIONAL TRAIN" }, "geometry": { "type": "LineString", "coordinates": [ [ 144.248995401829347, -36.794835053845013 ], [ 144.24899331997085, -36.794842772333958 ] ] } },
{ "type": "Feature", "properties": { "from_stop": "Malmsbury Station", "to_stop": "Kyneton Railway Station", "minutes": 49.0, "tier": 60, "centre": "bendigo", "MODE": "REGIONAL TRAIN" }, "geometry": { "type": "LineString", "coordinates": [ [ 144.450603515967856, -37.258275767821253 ], [ 144.449921460000013, -37.25784957 ], [ 144.44873114, -37.2572013 ], [ 144.44839478, -37.25704932 ], [ 144.44807588, -37.25691114 ], [ 144.44779626, -37.2567949 ], [ 144.44750847, -37.25668713 ], [ 144.44712059, -37.25655188 ], [ 144.44679033, -37.2564431 ], [ 144.44640594, -37.25630477 ], [ 144.44482378, -37.25568684 ], [ 144.44435193000001, -37.25551453 ], [ 144.44386451, -37.25534954 ], [ 144.44338857, -37.25520489 ], [ 144.44293424, -37.25508838 ], [ 144.44243560000001, -37.25497847 ], [ 144.441892450000012, -37.2548713 ], [ 144.44136956, -37.25479187 ], [ 144.440888159999986, -37.25472207 ], [ 144.440477679999987, -37.25467904 ], [ 144.43642406, -37.25430183 ], [ 144.43595586, -37.25425564 ], [ 144.435453, -37.25419734 ], [ 144.43497414, -37.25412298 ], [ 144.434518520000012, -37.25404164 ], [ 144.434121839999989, -37.25396743 ], [ 144.43369801, -37.25387948 ], [ 144.43330255, -37.25379259 ], [ 144.43286314, -37.25367898 ], [ 144.432422089999989, -37.25355703 ], [ 144.43198367, -37.25342721 ], [ 144.43158858000001, -37.25330329 ], [ 144.4312142, -37.25317999 ], [ 144.430817139999988, -37.25303782 ], [ 144.430468100000013, -37.25290561 ], [ 144.43010164, -37.2527586 ], [ 144.42981346, -37.25263664 ], [ 144.42949176, -37.25249294 ], [ 144.42921791, -37.25236417 ], [ 144.42890886, -37.25221002 ], [ 144.42859496, -37.2520491 ], [ 144.42819855, -37.25183809 ], [ 144.427894790000011, -37.25166756 ], [ 144.427618, -37.25150619 ], [ 144.42728885, -37.25130312 ], [ 144.426995870000013, -37.25111733 ], [ 144.42673111, -37.25093728 ], [ 144.42644101, -37.25073326 ], [ 144.42621879, -37.25057163 ], [ 144.425707179999989, -37.25018543 ], [ 144.42550723, -37.25002221 ], [ 144.42503736, -37.24962539 ], [ 144.42459904, -37.24921916 ], [ 144.42429844, -37.24892983 ], [ 144.4240484, -37.24867224 ], [ 144.42355017, -37.24812539 ], [ 144.423313259999986, -37.24783627 ], [ 144.42310555, -37.24759033 ], [ 144.42288455, -37.24729417 ], [ 144.417757200000011, -37.24002539 ], [ 144.41641493, -37.23807699 ], [ 144.41045735, -37.22960069 ], [ 144.40506646, -37.2219447 ], [ 144.39550774, -37.20833002 ], [ 144.38720075, -37.1964411 ], [ 144.386788309999986, -37.1958968 ], [ 144.386567140000011, -37.19563022 ], [ 144.38631614, -37.19535009 ], [ 144.38605565, -37.19507399 ], [ 144.38577955, -37.19479989 ], [ 144.38555334, -37.19459142 ], [ 144.385303130000011, -37.19436682 ], [ 144.385075980000011, -37.19417589 ], [ 144.38475298, -37.19392256 ], [ 144.3843881, -37.1936492 ], [ 144.38406906, -37.19343164 ], [ 144.38369757000001, -37.19319319 ], [ 144.38335462, -37.19299276 ], [ 144.383013870000013, -37.19279716 ], [ 144.38268452, -37.19261406 ], [ 144.38232697, -37.19242881 ], [ 144.382013910000012, -37.19228617 ], [ 144.38163882, -37.19212288 ], [ 144.3812888, -37.19197744 ], [ 144.38095232, -37.19184753 ], [ 144.37532801, -37.18976647 ], [ 144.375325888192293, -37.189765680144895 ] ] } },
{ "type": "Feature", "properties": { "from_stop": "Kyneton Railway Station", "to_stop": "Kyneton Station", "minutes": 49.0, "tier": 60, "centre": "bendigo", "MODE": "REGIONAL TRAIN" }, "geometry": { "type": "LineString", "coordinates": [ [ 144.450782260000011, -37.25838746 ], [ 144.45078488040437, -37.258389220184114 ] ] } },
{ "type": "Feature", "properties": { "from_stop": "Castlemaine Station", "to_stop": "Malmsbury Railway Station", "minutes": 40.0, "tier": 45, "centre": "bendigo", "MODE": "REGIONAL TRAIN" }, "geometry": { "type": "LineString", "coordinates": [ [ 144.375315209353431, -37.189761704885782 ], [ 144.37450766, -37.18946109 ], [ 144.37408708000001, -37.18930802 ], [ 144.37339979, -37.18903433 ], [ 144.372714949999988, -37.1887258 ], [ 144.37237446, -37.18855649 ], [ 144.37202584, -37.18837501 ], [ 144.371706960000012, -37.18819662 ], [ 144.371011079999988, -37.18776844 ], [ 144.37065465, -37.1875265 ], [ 144.37033097, -37.18729501 ], [ 144.37002582, -37.1870652 ], [ 144.3694922, -37.18659988 ], [ 144.36920103, -37.18632766 ], [ 144.36891463, -37.18605113 ], [ 144.36865189, -37.18577449 ], [ 144.36840995, -37.18550219 ], [ 144.36818102, -37.18523469 ], [ 144.367960790000012, -37.18495692 ], [ 144.36776017, -37.18467878 ], [ 144.36757523, -37.18440621 ], [ 144.36090635, -37.17401639 ], [ 144.36056272, -37.17346777 ], [ 144.36025075, -37.17292201 ], [ 144.35999881, -37.17237597 ], [ 144.359785359999989, -37.17182746 ], [ 144.35958771, -37.17128164 ], [ 144.359401819999988, -37.170734 ], [ 144.359245640000012, -37.17019046 ], [ 144.35912855, -37.16964021 ], [ 144.359036089999989, -37.1690907 ], [ 144.358968909999987, -37.16854607 ], [ 144.3588762, -37.16745108 ], [ 144.35841965, -37.1614355 ], [ 144.35825123, -37.15866059 ], [ 144.35818985, -37.1579529 ], [ 144.35814855000001, -37.15732828 ], [ 144.35798287, -37.15572621 ], [ 144.357889660000012, -37.1548628 ], [ 144.35763694, -37.1521362 ], [ 144.357439269999986, -37.1491158 ], [ 144.35735312, -37.14800761 ], [ 144.35686669, -37.14258287 ], [ 144.356686450000012, -37.14032694 ], [ 144.356362780000012, -37.13533053 ], [ 144.35628043, -37.13417178 ], [ 144.35625561, -37.13388259 ], [ 144.356212480000011, -37.13357929 ], [ 144.35612995, -37.13319544 ], [ 144.35596765, -37.13259399 ], [ 144.355859759999987, -37.13222112 ], [ 144.35564785, -37.13152213 ], [ 144.355466009999986, -37.13100684 ], [ 144.35527808, -37.13056649 ], [ 144.35505772, -37.13008476 ], [ 144.35495434, -37.12986654 ], [ 144.35476178, -37.12947213 ], [ 144.35457777, -37.12915198 ], [ 144.35430266, -37.12874302 ], [ 144.35399806, -37.12830816 ], [ 144.35164222, -37.12507794 ], [ 144.349004040000011, -37.12147855 ], [ 144.348620720000014, -37.1209308 ], [ 144.34827685, -37.12038484 ], [ 144.34799013, -37.11983971 ], [ 144.34750373, -37.11874446 ], [ 144.347301, -37.11819526 ], [ 144.3471193, -37.11764608 ], [ 144.346967979999988, -37.11709749 ], [ 144.3468503, -37.11655524 ], [ 144.34675755, -37.11600489 ], [ 144.346681389999986, -37.11545961 ], [ 144.346616, -37.11490907 ], [ 144.34654052, -37.11436037 ], [ 144.346473159999988, -37.11381474 ], [ 144.3463844, -37.11326611 ], [ 144.346261739999989, -37.11271879 ], [ 144.34609622, -37.11217087 ], [ 144.345896470000014, -37.11162381 ], [ 144.34566569, -37.11107596 ], [ 144.3453905, -37.11053072 ], [ 144.34512946000001, -37.11008276 ], [ 144.3448435, -37.10963974 ], [ 144.34455551, -37.10925174 ], [ 144.344208689999988, -37.10881808 ], [ 144.34392759, -37.10849394 ], [ 144.34357646, -37.10811929 ], [ 144.34323841, -37.10779577 ], [ 144.3428748, -37.10745986 ], [ 144.342495719999988, -37.10714496 ], [ 144.342117339999987, -37.10686811 ], [ 144.34164168, -37.10653519 ], [ 144.34113026, -37.10620524 ], [ 144.34067549, -37.10594451 ], [ 144.339749579999989, -37.10546017 ], [ 144.33906446, -37.1051174 ], [ 144.33837717, -37.10476916 ], [ 144.33768969, -37.10442957 ], [ 144.33717135, -37.10416641 ], [ 144.33631148, -37.10373786 ], [ 144.33583239, -37.10352046 ], [ 144.33528246, -37.10328902 ], [ 144.33476381, -37.10309577 ], [ 144.33425374, -37.10293741 ], [ 144.33386855, -37.10284016 ], [ 144.3335142, -37.10275532 ], [ 144.33297402, -37.10264718 ], [ 144.33260593, -37.10258519 ], [ 144.3321971, -37.10253012 ], [ 144.331733469999989, -37.10247507 ], [ 144.33123131, -37.10243772 ], [ 144.330829920000014, -37.10241741 ], [ 144.32949675, -37.10239702 ], [ 144.321899339999987, -37.10218707 ], [ 144.32121378, -37.10216608 ], [ 144.32052528, -37.10215538 ], [ 144.31984246, -37.10216219 ], [ 144.31915067, -37.10219052 ], [ 144.318467450000014, -37.102244 ], [ 144.317775149999989, -37.10231214 ], [ 144.31709346, -37.10241457 ], [ 144.31640703, -37.10252681 ], [ 144.31572215, -37.10266504 ], [ 144.31503672, -37.10282541 ], [ 144.31434554, -37.10301449 ], [ 144.31365718, -37.10322589 ], [ 144.312976920000011, -37.10345909 ], [ 144.31228335, -37.10373786 ], [ 144.31091515, -37.10430023 ], [ 144.310225269999989, -37.1045697 ], [ 144.3095463, -37.10479129 ], [ 144.30919538, -37.10488983 ], [ 144.30885021, -37.10498166 ], [ 144.308168200000011, -37.10513018 ], [ 144.30748129, -37.10525191 ], [ 144.30679231, -37.10533646 ], [ 144.30610794, -37.10539912 ], [ 144.30541996, -37.10545557 ], [ 144.30493938, -37.10548204 ], [ 144.30472568, -37.10548628 ], [ 144.30403960000001, -37.10546067 ], [ 144.30334837, -37.10542142 ], [ 144.30266425, -37.10534358 ], [ 144.301980289999989, -37.10524239 ], [ 144.30129297, -37.10511536 ], [ 144.300601449999988, -37.1049547 ], [ 144.29992084, -37.10475923 ], [ 144.29922835, -37.1045342 ], [ 144.298545319999988, -37.10427722 ], [ 144.29785654, -37.10397972 ], [ 144.29717322, -37.10364278 ], [ 144.29511395, -37.10249882 ], [ 144.294423349999988, -37.10207006 ], [ 144.29373694, -37.10160254 ], [ 144.293050709999989, -37.10108916 ], [ 144.28278002, -37.09320521 ], [ 144.282099859999988, -37.09273706 ], [ 144.28140403, -37.09231107 ], [ 144.28072298, -37.09192183 ], [ 144.28003059, -37.0915635 ], [ 144.27934941, -37.09124751 ], [ 144.27865857, -37.09095932 ], [ 144.27797175, -37.09070069 ], [ 144.27728718, -37.09046094 ], [ 144.276607, -37.09025562 ], [ 144.275916919999986, -37.09008494 ], [ 144.26016318, -37.08600642 ], [ 144.25737698, -37.08528053 ], [ 144.256736030000013, -37.08510078 ], [ 144.25649704, -37.08503136 ], [ 144.25600291, -37.08487871 ], [ 144.25531085, -37.08465993 ], [ 144.25462635, -37.08442482 ], [ 144.25410145, -37.08423063 ], [ 144.25386907, -37.08414342 ], [ 144.25325734, -37.08389621 ], [ 144.252570029999987, -37.08359588 ], [ 144.25188513, -37.08326342 ], [ 144.251196, -37.08290519 ], [ 144.250509060000013, -37.08250798 ], [ 144.24844959, -37.08125264 ], [ 144.24776669, -37.08082262 ], [ 144.24706917, -37.08039874 ], [ 144.24638821, -37.08000237 ], [ 144.245703889999987, -37.07962448 ], [ 144.245019289999988, -37.07928244 ], [ 144.24432962, -37.07897182 ], [ 144.24364042, -37.07868888 ], [ 144.242956279999987, -37.07843389 ], [ 144.24226991, -37.07820354 ], [ 144.241580160000012, -37.07800122 ], [ 144.227850929999988, -37.07436324 ], [ 144.22716603, -37.07418429 ], [ 144.2264749, -37.07400961 ], [ 144.225790249999989, -37.07383021 ], [ 144.225097479999988, -37.0736389 ], [ 144.22231044, -37.07285676 ], [ 144.220981880000011, -37.07249174 ], [ 144.21986099, -37.07218718 ], [ 144.21868898, -37.07169362 ], [ 144.217752460000014, -37.0712372 ], [ 144.216889939999987, -37.0707042 ], [ 144.21659254, -37.07048464 ], [ 144.21623695, -37.07019873 ], [ 144.21595731, -37.06993624 ], [ 144.215511920000012, -37.06949837 ], [ 144.21523506, -37.06918178 ], [ 144.21506921, -37.06898144 ], [ 144.21465776, -37.06840612 ], [ 144.214397170000012, -37.06798926 ], [ 144.21418924, -37.06757147 ], [ 144.21398894, -37.06713287 ], [ 144.21389606, -37.06689296 ], [ 144.21380878, -37.06662634 ], [ 144.21373134000001, -37.06632408 ], [ 144.213652270000011, -37.06590977 ], [ 144.213593949999989, -37.06555551 ], [ 144.21355877, -37.06525388 ], [ 144.21354814, -37.0650005 ], [ 144.21356189, -37.06473562 ], [ 144.213596380000013, -37.06432776 ], [ 144.21365646000001, -37.06390618 ], [ 144.21371713, -37.06361879 ], [ 144.213903390000013, -37.06288018 ], [ 144.213904427614864, -37.062876065112611 ] ] } },
{ "type": "Feature", "properties": { "from_stop": "Malmsbury Railway Station", "to_stop": "Malmsbury Station", "minutes": 40.0, "tier": 45, "centre": "bendigo", "MODE": "REGIONAL TRAIN" }, "geometry": { "type": "LineString", "coordinates": [ [ 144.375315209353431, -37.189761704885782 ], [ 144.375325888192293, -37.189765680144895 ] ] } },
{ "type": "Feature", "properties": { "from_stop": "Raywood Station", "to_stop": "Raywood Railway Station", "minutes": 24.9, "tier": 30, "centre": "bendigo", "MODE": "REGIONAL TRAIN" }, "geometry": { "type": "LineString", "coordinates": [ [ 144.201387944773501, -36.534203931304212 ], [ 144.20158393, -36.5332043 ], [ 144.20174597, -36.5321017 ], [ 144.201751095582438, -36.532075730968828 ] ] } },
{ "type": "Feature", "properties": { "from_stop": "Eaglehawk Station", "to_stop": "Raywood Station", "minutes": 24.8, "tier": 30, "centre": "bendigo", "MODE": "REGIONAL TRAIN" }, "geometry": { "type": "LineString", "coordinates": [ [ 144.248394479868523, -36.718497808360283 ], [ 144.24781235, -36.71819009 ], [ 144.24716075, -36.71786392 ], [ 144.24686739, -36.71772186 ], [ 144.24602249, -36.71732633 ], [ 144.24451975, -36.71662978 ], [ 144.24434738, -36.71654784 ], [ 144.24400684, -36.71639206 ], [ 144.24379284, -36.71630663 ], [ 144.243583300000012, -36.71623148 ], [ 144.24347212, -36.71619457 ], [ 144.24335087, -36.71615769 ], [ 144.24317416, -36.71611259 ], [ 144.24288576, -36.71604517 ], [ 144.24258967, -36.71598919 ], [ 144.24243542, -36.71596417 ], [ 144.24214873, -36.71592706 ], [ 144.24177801, -36.71589539 ], [ 144.24153702000001, -36.7158826 ], [ 144.23739882000001, -36.7157606 ], [ 144.23239924, -36.71560869 ], [ 144.232121369999987, -36.71559421 ], [ 144.23185596, -36.7155728 ], [ 144.2311794, -36.71550154 ], [ 144.23089877000001, -36.71546734 ], [ 144.23059726, -36.71543482 ], [ 144.23017557, -36.71538264 ], [ 144.22996146, -36.71535071 ], [ 144.22973713, -36.71531368 ], [ 144.22949169, -36.71526596 ], [ 144.22926676, -36.71521458 ], [ 144.229006, -36.71514462 ], [ 144.22873682, -36.71506274 ], [ 144.22849413, -36.71497922 ], [ 144.228214799999989, -36.7148716 ], [ 144.22794438, -36.71475914 ], [ 144.22764622, -36.71461791 ], [ 144.2273328, -36.71445308 ], [ 144.22719484000001, -36.71437678 ], [ 144.227070950000012, -36.71430459 ], [ 144.226813490000012, -36.71414629 ], [ 144.22660104, -36.714003 ], [ 144.22640379, -36.71386061 ], [ 144.22622051, -36.7137217 ], [ 144.22597694000001, -36.71352263 ], [ 144.225722100000013, -36.71329166 ], [ 144.22353457, -36.71102614 ], [ 144.22033374, -36.70776526 ], [ 144.21947415, -36.7069086 ], [ 144.21828446, -36.70570312 ], [ 144.217318830000011, -36.70474061 ], [ 144.216172160000013, -36.70355423 ], [ 144.21574232, -36.70309124 ], [ 144.215275350000013, -36.70254077 ], [ 144.21453184, -36.70171779 ], [ 144.213437660000011, -36.70048396 ], [ 144.21275641, -36.69970758 ], [ 144.21099418, -36.6976689 ], [ 144.20998026, -36.69649044 ], [ 144.20903352, -36.69541079 ], [ 144.20691993, -36.69297189 ], [ 144.206313779999988, -36.69224491 ], [ 144.20589962, -36.69167042 ], [ 144.20542862, -36.69084261 ], [ 144.20508804, -36.69005969 ], [ 144.204825050000011, -36.68918 ], [ 144.20466959, -36.68830679 ], [ 144.20462125, -36.68729372 ], [ 144.204623950000013, -36.68616244 ], [ 144.20463475, -36.68397048 ], [ 144.204643479999987, -36.68380676 ], [ 144.204637350000013, -36.68201101 ], [ 144.20463744, -36.68071395 ], [ 144.20464013, -36.67877358 ], [ 144.204650820000012, -36.67659658 ], [ 144.20465081, -36.67341072 ], [ 144.20465618, -36.6694953 ], [ 144.204656230000012, -36.66754387 ], [ 144.2046454, -36.6658959 ], [ 144.204656199999988, -36.66331624 ], [ 144.2046535, -36.66157347 ], [ 144.204664220000012, -36.65982416 ], [ 144.204661460000011, -36.65616628 ], [ 144.20467485, -36.65400591 ], [ 144.204672319999986, -36.65194872 ], [ 144.20468574, -36.65107083 ], [ 144.20477147, -36.65010452 ], [ 144.20487071, -36.64951279 ], [ 144.2050558, -36.64875527 ], [ 144.205278389999989, -36.6479935 ], [ 144.20553856, -36.64723171 ], [ 144.20641572, -36.64483 ], [ 144.20653098, -36.64440392 ], [ 144.20662758, -36.64390026 ], [ 144.20668385, -36.64341386 ], [ 144.206699969999988, -36.64287163 ], [ 144.206654429999986, -36.64224099 ], [ 144.20656048, -36.64173097 ], [ 144.206429070000013, -36.64123602 ], [ 144.2062252, -36.64059887 ], [ 144.20564324, -36.63899344 ], [ 144.204932359999987, -36.63701109 ], [ 144.204374519999988, -36.63544209 ], [ 144.203154070000011, -36.63205208 ], [ 144.201241720000013, -36.62669446 ], [ 144.20023323, -36.62386166 ], [ 144.19991936, -36.622964 ], [ 144.19974235, -36.622443 ], [ 144.19958682, -36.62183807 ], [ 144.19947059, -36.6212438 ], [ 144.199361470000014, -36.62053362 ], [ 144.19928907, -36.61954124 ], [ 144.199286410000013, -36.61867568 ], [ 144.19927565, -36.61758643 ], [ 144.19928374, -36.6129555 ], [ 144.19928105, -36.60993492 ], [ 144.19928101, -36.60581811 ], [ 144.19927755, -36.60365878 ], [ 144.19927829, -36.59852499 ], [ 144.199272979999989, -36.5945498 ], [ 144.19925963, -36.59220892 ], [ 144.19926221, -36.58721467 ], [ 144.19925686, -36.5845161 ], [ 144.19925694, -36.57782187 ], [ 144.199247109999988, -36.57456022 ], [ 144.199254239999988, -36.5728483 ], [ 144.19923535, -36.5634366 ], [ 144.1992247, -36.55431446 ], [ 144.19922205, -36.54692387 ], [ 144.19930249, -36.54551251 ], [ 144.19946074, -36.5445816 ], [ 144.19973425, -36.54306888 ], [ 144.20005082, -36.54136864 ], [ 144.20065704000001, -36.53797879 ], [ 144.201013710000012, -36.5361125 ], [ 144.20123745, -36.53499648 ], [ 144.20126101, -36.53485104 ], [ 144.2013873, -36.53420722 ], [ 144.201387944773501, -36.534203931304212 ] ] } },
{ "type": "Feature", "properties": { "from_stop": "Rochester Station", "to_stop": "Rochester Railway Station", "minutes": 48.8, "tier": 60, "centre": "bendigo", "MODE": "REGIONAL TRAIN" }, "geometry": { "type": "LineString", "coordinates": [ [ 144.698492059816857, -36.362229831942528 ], [ 144.698466231156658, -36.362267246239696 ] ] } },
{ "type": "Feature", "properties": { "from_stop": "Elmore Station", "to_stop": "Rochester Station", "minutes": 48.8, "tier": 60, "centre": "bendigo", "MODE": "REGIONAL TRAIN" }, "geometry": { "type": "LineString", "coordinates": [ [ 144.607619385002295, -36.494822969311237 ], [ 144.60838564, -36.49371052 ], [ 144.60887145, -36.49303501 ], [ 144.609302390000011, -36.49239022 ], [ 144.61017413, -36.49102953 ], [ 144.613241679999987, -36.48658704 ], [ 144.61937058, -36.47763562 ], [ 144.625547219999987, -36.46881223 ], [ 144.62959668, -36.46279046 ], [ 144.63312265, -36.45762763 ], [ 144.63862056, -36.4496496 ], [ 144.654151469999988, -36.42697499 ], [ 144.663049089999987, -36.41392774 ], [ 144.66715202, -36.40797293 ], [ 144.68220821, -36.3859379 ], [ 144.68592575, -36.38051793 ], [ 144.689605699999987, -36.37514506 ], [ 144.6931194, -36.36995334 ], [ 144.69485071, -36.36746317 ], [ 144.69574425, -36.36616882 ], [ 144.695793830000014, -36.36608974 ], [ 144.69584415, -36.36601608 ], [ 144.69673203, -36.36474963 ], [ 144.697354819999987, -36.36382571 ], [ 144.69783099, -36.36319469 ], [ 144.69846005, -36.3622762 ], [ 144.698466231156658, -36.362267246239696 ] ] } },
{ "type": "Feature", "properties": { "from_stop": "Kyneton Station", "to_stop": "Woodend Railway Station", "minutes": 56.7, "tier": 60, "centre": "bendigo", "MODE": "REGIONAL TRAIN" }, "geometry": { "type": "LineString", "coordinates": [ [ 144.525734519432774, -37.359071333254995 ], [ 144.52533136, -37.35884133 ], [ 144.52325726, -37.35770136 ], [ 144.52046481, -37.35613877 ], [ 144.51495638, -37.3530262 ], [ 144.51349055, -37.35208602 ], [ 144.512747350000012, -37.35153122 ], [ 144.51216786, -37.35107493 ], [ 144.51188628, -37.35084038 ], [ 144.51108757, -37.35006343 ], [ 144.51027733, -37.34920883 ], [ 144.50958777, -37.34829261 ], [ 144.508929239999986, -37.3472068 ], [ 144.508295049999987, -37.34590756 ], [ 144.50785615, -37.34466669 ], [ 144.50763661, -37.34369719 ], [ 144.503960260000014, -37.33053068 ], [ 144.5037189, -37.32971166 ], [ 144.503279139999989, -37.32847039 ], [ 144.50278018, -37.32744668 ], [ 144.50234394, -37.32663146 ], [ 144.5017341, -37.32579753 ], [ 144.50078285, -37.32473081 ], [ 144.49921276, -37.3230529 ], [ 144.49681143, -37.32040377 ], [ 144.49311064, -37.31649534 ], [ 144.49276475, -37.31612042 ], [ 144.491005269999988, -37.3143499 ], [ 144.48645804, -37.30951259 ], [ 144.48494414000001, -37.30785299 ], [ 144.483483400000011, -37.3062894 ], [ 144.4826644, -37.30539568 ], [ 144.46704781, -37.28881359 ], [ 144.46643623, -37.28813922 ], [ 144.46356359, -37.28509193 ], [ 144.46053497, -37.28211196 ], [ 144.45926817, -37.28073284 ], [ 144.45860149, -37.27964523 ], [ 144.458001450000012, -37.27847813 ], [ 144.45753467, -37.27686007 ], [ 144.45738415, -37.27569659 ], [ 144.45738408, -37.27457274 ], [ 144.45752081, -37.27246985 ], [ 144.45752081, -37.27096517 ], [ 144.457315810000011, -37.26955108 ], [ 144.456905729999988, -37.26777454 ], [ 144.45635897, -37.26654171 ], [ 144.455743860000013, -37.26501877 ], [ 144.455151590000014, -37.26378594 ], [ 144.45482503, -37.26295003 ], [ 144.45439976, -37.26213596 ], [ 144.45378158, -37.26120807 ], [ 144.45331729, -37.26062241 ], [ 144.45313087, -37.26041321 ], [ 144.45288276, -37.26014103 ], [ 144.45254881, -37.25979302 ], [ 144.452184100000011, -37.25945778 ], [ 144.45190745, -37.25915606 ], [ 144.45187725, -37.25912882 ], [ 144.45146334, -37.25882207 ], [ 144.45108621, -37.25859163 ], [ 144.45078488040437, -37.258389220184114 ] ] } },
{ "type": "Feature", "properties": { "from_stop": "Woodend Railway Station", "to_stop": "Woodend Station", "minutes": 56.8, "tier": 60, "centre": "bendigo", "MODE": "REGIONAL TRAIN" }, "geometry": { "type": "LineString", "coordinates": [ [ 144.525734519432774, -37.359071333254995 ], [ 144.52615928, -37.35931366 ], [ 144.526164334036707, -37.359316543655346 ] ] } }
]
}
