{
"type": "FeatureCollection",
"name": "commute_hulls_regional_train__traralgon",
"crs": { "type": "name", "properties": { "name": "urn:ogc:def:crs:OGC:1.3:CRS84" } },
"features": [
{ "type": "Feature", "properties": { "MODE": "REGIONAL TRAIN", "transit_time_minutes_nearest_tier": 90.0, "centre": "traralgon", "centre_name": "Traralgon" }, "geometry": { "type": "Polygon", "coordinates": [ [ [ 145.857678347341789, -38.12847404537866 ], [ 145.857730249775102, -38.128475064304105 ], [ 145.857781819767382, -38.128479807875237 ], [ 145.857832629834007, -38.12848823677065 ], [ 145.857882258789317, -38.128500281119777 ], [ 145.857930295237878, -38.128515841081963 ], [ 145.936797023091032, -38.157404687413447 ], [ 146.065864110358063, -38.195431947052839 ], [ 146.15361764921704, -38.199193120510962 ], [ 146.257344255285687, -38.1692866636754 ], [ 146.257406396437773, -38.16927181842167 ], [ 146.257470271560322, -38.169262642648505 ], [ 146.261180052018915, -38.168900327065863 ], [ 146.261231622796885, -38.168897154881726 ], [ 146.261283345545735, -38.168897683105364 ], [ 146.261334795127254, -38.168901907395075 ], [ 146.261385548648491, -38.168909793028959 ], [ 146.26143518893744, -38.16892127519057 ], [ 146.2660442424515, -38.170168979322945 ], [ 146.266097068065989, -38.170185645185747 ], [ 146.26614752889364, -38.170206381087681 ], [ 146.266195123295859, -38.170230980890835 ], [ 146.322349442017924, -38.202495956199975 ], [ 146.485972315293282, -38.208676564935068 ], [ 146.536536239737188, -38.190761640765018 ], [ 146.536580003361934, -38.190747806960303 ], [ 146.536625064341024, -38.19073687102459 ], [ 146.536671115204797, -38.190728907578226 ], [ 146.591925652619523, -38.183032680647784 ], [ 146.686957777432553, -38.167081627043949 ], [ 146.78381290802804, -38.148759288743669 ], [ 146.903596731359272, -38.103407792163061 ], [ 146.903645742986043, -38.103391378537118 ], [ 146.903696478494624, -38.103378648982456 ], [ 146.903748495476947, -38.103369714499308 ], [ 146.929513686751847, -38.099927900477958 ], [ 147.059200451723626, -37.999862944264898 ], [ 147.060155135813545, -37.998207920534455 ], [ 147.063274414423546, -37.983068145396075 ], [ 147.063285645055856, -37.983026267190823 ], [ 147.063301847722016, -37.982985421932739 ], [ 147.072071492662474, -37.96406853985939 ], [ 147.07209568285441, -37.964023937338986 ], [ 147.072125794382885, -37.963981654392867 ], [ 147.074011110501118, -37.961638906097832 ], [ 147.074042567942996, -37.961603661891687 ], [ 147.074078140778084, -37.961570962677492 ], [ 147.074117502518732, -37.961541108564212 ], [ 147.074160291904491, -37.961514373548567 ], [ 147.074206116217795, -37.961491003000361 ], [ 147.079007516220059, -37.959292325781348 ], [ 147.079053936852659, -37.959273265019696 ], [ 147.079102371679625, -37.959257659129477 ], [ 147.079152411572409, -37.959245639933208 ], [ 147.079203633845282, -37.959237308956652 ], [ 147.079255605825409, -37.959232736571266 ], [ 147.079307888507628, -37.959231961399809 ], [ 147.084164990257932, -37.959336666557491 ], [ 147.084216042251143, -37.959339589646831 ], [ 147.084266555858846, -37.959346133557709 ], [ 147.084316122262663, -37.959356245328756 ], [ 147.084364340309634, -37.959369843122985 ], [ 147.084410819758887, -37.959386816890181 ], [ 147.08445518443969, -37.959407029257463 ], [ 147.088953016532656, -37.961675188893594 ], [ 147.088994910039133, -37.961698474685683 ], [ 147.089033990772805, -37.961724647125457 ], [ 147.089069942439977, -37.961753494392383 ], [ 147.08910247407033, -37.961784783017599 ], [ 147.08913132237177, -37.961818259773402 ], [ 147.089156253861603, -37.961853653722549 ], [ 147.091329758116018, -37.96529438208924 ], [ 147.091350483520472, -37.965331225776495 ], [ 147.091366963339425, -37.965369389373706 ], [ 147.091379065462263, -37.965408566957102 ], [ 147.091386692870003, -37.965448444474212 ], [ 147.091389784413082, -37.965488702261275 ], [ 147.091447982031099, -37.968378792096701 ], [ 147.091446708179518, -37.96841694006455 ], [ 147.091441360372158, -37.968454865794349 ], [ 147.064811726887569, -38.104424906323487 ], [ 147.064802187574998, -38.104462740724628 ], [ 147.064788586216537, -38.104499791394652 ], [ 147.064771022573069, -38.104535786564803 ], [ 147.062925308146532, -38.107883558087167 ], [ 147.062902671244274, -38.107920029046269 ], [ 147.062875968070387, -38.107954740366402 ], [ 147.062845415783244, -38.10798740975752 ], [ 147.062811262845031, -38.108017771535273 ], [ 147.06277378700139, -38.108045578781763 ], [ 147.059772194848676, -38.110079420672584 ], [ 147.059726897343523, -38.110107117470093 ], [ 147.059678310995423, -38.110131083224701 ], [ 147.059626926238991, -38.110151076022774 ], [ 147.05957326175772, -38.110166894054117 ], [ 147.05951785924816, -38.110178377649127 ], [ 147.054077951738407, -38.111077747853251 ], [ 147.054024097364731, -38.111084544533192 ], [ 147.053969667431545, -38.111087244337703 ], [ 147.053915160040134, -38.11108582256027 ], [ 147.053861074000736, -38.111080292211838 ], [ 147.030064310870927, -38.107723423553715 ], [ 146.854249941281665, -38.145786505008545 ], [ 146.841351104712061, -38.154775188637913 ], [ 146.841306742671065, -38.154803124776286 ], [ 146.841259085215341, -38.154827442598844 ], [ 146.841208603897485, -38.154847901488509 ], [ 146.833579505811912, -38.157569888421925 ], [ 146.833516367922698, -38.157588942921265 ], [ 146.833450818874354, -38.157601967007857 ], [ 146.788301116590702, -38.164347154021648 ], [ 146.788248927998808, -38.164352983944617 ], [ 146.722288225037062, -38.169262521150415 ], [ 146.54210824336954, -38.206208998689903 ], [ 146.419877605908908, -38.244607747473857 ], [ 146.419825205315078, -38.244621894812362 ], [ 146.419771313477867, -38.24463197267535 ], [ 146.419716437245029, -38.244637886281389 ], [ 146.419661092723004, -38.244639580013512 ], [ 146.394013617572796, -38.2444401956459 ], [ 146.393954520929384, -38.244437309276407 ], [ 146.393896120813793, -38.244429613072242 ], [ 146.39383904493198, -38.244417189755033 ], [ 146.393783906755885, -38.244400172855087 ], [ 146.333096388559227, -38.222724830901676 ], [ 146.060458369043715, -38.210893004672997 ], [ 146.060402205326056, -38.210888295443425 ], [ 146.060346906295109, -38.210879230311797 ], [ 146.060293013264072, -38.210865898015214 ], [ 145.929225869179959, -38.172636611958929 ], [ 145.929180520596248, -38.172621568308791 ], [ 145.851174552508411, -38.143523821976295 ], [ 145.851130930040398, -38.143505667331041 ], [ 145.85108945614968, -38.143484604927536 ], [ 145.85105044082286, -38.14346079219257 ], [ 145.851014175669775, -38.143434407109524 ], [ 145.847084766205285, -38.140316798599876 ], [ 145.84704500756834, -38.140281769781929 ], [ 145.847010091612873, -38.140243657029721 ], [ 145.846980399179103, -38.140202876060151 ], [ 145.846956254129736, -38.140159871693214 ], [ 145.846937919817776, -38.140115112999901 ], [ 145.846925596214277, -38.14006908818574 ], [ 145.845954962029481, -38.135199680386599 ], [ 145.845948699149289, -38.135151547966323 ], [ 145.845949009144107, -38.135103162644647 ], [ 145.845955888424243, -38.135055082748494 ], [ 145.845969257596039, -38.135007863079437 ], [ 145.845988962378811, -38.134962048511753 ], [ 145.847448891291606, -38.132085055327593 ], [ 145.847471973165796, -38.13204527965182 ], [ 145.847499832010271, -38.132007460554014 ], [ 145.847532204942951, -38.131971954893977 ], [ 145.847568786488324, -38.131939097701469 ], [ 145.850123971831437, -38.129857223598684 ], [ 145.850164294633061, -38.129827404514273 ], [ 145.850208080618188, -38.129800806857659 ], [ 145.850254918965163, -38.129777680179124 ], [ 145.850304370215298, -38.129758241462625 ], [ 145.853725824191088, -38.128572884899462 ], [ 145.853778113040534, -38.128557136914175 ], [ 145.853832104204258, -38.128545513173826 ], [ 145.85388727772613, -38.128538125619599 ], [ 145.853943102264026, -38.128535045396411 ], [ 145.857678347341789, -38.12847404537866 ] ] ] } },
{ "type": "Feature", "properties": { "MODE": "REGIONAL TRAIN", "transit_time_minutes_nearest_tier": 75.0, "centre": "traralgon", "centre_name": "Traralgon" }, "geometry": { "type": "Polygon", "coordinates": [ [ [ 145.925419516982572, -38.159329257723201 ], [ 145.92545268752346, -38.159289548770658 ], [ 145.925490976791366, -38.159252823276951 ], [ 145.925533957752123, -38.159219490829003 ], [ 145.925581151048675, -38.159189923171766 ], [ 145.925632030347259, -38.159164450062377 ], [ 145.930479298229386, -38.157012004846564 ], [ 145.930526128766076, -38.156993390685251 ], [ 145.930574925867006, -38.15697825004424 ], [ 145.930625277343609, -38.156966710816064 ], [ 145.930676757878302, -38.156958870472238 ], [ 145.930728932616802, -38.156954795239869 ], [ 145.930781360841308, -38.156954519542261 ], [ 145.935649285336154, -38.157105595861402 ], [ 145.935709659115275, -38.157110014573149 ], [ 145.935769097916676, -38.157119467983335 ], [ 145.935826930262607, -38.157133849297189 ], [ 146.065464183436063, -38.195371442255976 ], [ 146.152702495206626, -38.199226287254724 ], [ 146.257345574807204, -38.169286283962016 ], [ 146.257395360585008, -38.169274014245794 ], [ 146.257446357574452, -38.169265384904328 ], [ 146.257498139638074, -38.169260468045479 ], [ 146.262141061843579, -38.168988720528503 ], [ 146.262192767709195, -38.168987549467765 ], [ 146.262244395420254, -38.168990080244939 ], [ 146.262295520619745, -38.168996292058168 ], [ 146.262345723080699, -38.16900613384901 ], [ 146.262394590160483, -38.169019524722181 ], [ 146.266070501904949, -38.170176660885801 ], [ 146.266114221797977, -38.17019213219784 ], [ 146.266156143352703, -38.170210444710108 ], [ 146.266195970962684, -38.170231469293995 ], [ 146.325665052352832, -38.204531554443385 ], [ 146.359895782589149, -38.219267121206869 ], [ 146.362383607392644, -38.219660848988376 ], [ 146.483336927802441, -38.20968715720371 ], [ 146.536535438704846, -38.190761925394696 ], [ 146.536579451268778, -38.190747961169201 ], [ 146.536624781153989, -38.190736929827544 ], [ 146.536671115204797, -38.190728907578226 ], [ 146.591925652619523, -38.183032680647784 ], [ 146.686957847003612, -38.167081615336571 ], [ 146.783357480575944, -38.148865716029391 ], [ 146.906808968105537, -38.102604638431636 ], [ 146.906864729701027, -38.102586491858389 ], [ 146.906922605308665, -38.102573101678452 ], [ 146.906981947208948, -38.102564617748989 ], [ 146.984773806143892, -38.094747729709411 ], [ 146.98484995822858, -38.09474411956927 ], [ 147.055652485583465, -38.095118116749383 ], [ 147.05571299090829, -38.095120965491446 ], [ 147.055772771346341, -38.095128875656151 ], [ 147.055831150892004, -38.095141757794167 ], [ 147.055887469380366, -38.095159466232467 ], [ 147.061744229517615, -38.097292460553838 ], [ 147.061797493566417, -38.097314622819518 ], [ 147.061847503054224, -38.097341100458934 ], [ 147.061893700240773, -38.097371598176949 ], [ 147.061935569901067, -38.097405775843676 ], [ 147.061972645071592, -38.097443252287704 ], [ 147.063988332964755, -38.099718811979066 ], [ 147.064017306333596, -38.099755080224078 ], [ 147.064041783176549, -38.099793361638049 ], [ 147.06406154156852, -38.099833309144451 ], [ 147.064076402363156, -38.099874560560572 ], [ 147.064926800630815, -38.102748208585197 ], [ 147.064936850715412, -38.10279169366121 ], [ 147.064941458409777, -38.102835747743363 ], [ 147.064940579329715, -38.10287994656737 ], [ 147.064934221931651, -38.10292386447432 ], [ 147.064328206828321, -38.105835924242577 ], [ 147.064316431524105, -38.105879138155075 ], [ 147.064299352307501, -38.105921231994877 ], [ 147.064277133652922, -38.105961800373194 ], [ 147.064249989531447, -38.106000452591658 ], [ 147.062279660901851, -38.108507568782898 ], [ 147.06224785070853, -38.10854393202991 ], [ 147.062211682706589, -38.108577656597276 ], [ 147.06217150521212, -38.108608417695336 ], [ 147.062127705156712, -38.108635919074281 ], [ 147.059092952555375, -38.110356348279005 ], [ 147.059044507086583, -38.110380980630424 ], [ 147.058993162560768, -38.110401624151535 ], [ 147.058939443291308, -38.110418068036765 ], [ 147.058883897842804, -38.110430144365957 ], [ 147.055023185577198, -38.111105720096063 ], [ 147.054965829877858, -38.111113354553616 ], [ 147.054907788140241, -38.111116331934596 ], [ 147.054849664512858, -38.111114621247836 ], [ 147.054792063996672, -38.11110824029965 ], [ 147.013040187772532, -38.104744720085307 ], [ 146.958139575190444, -38.103260155012876 ], [ 146.860877540687483, -38.140335095409192 ], [ 146.842847657098531, -38.153818200459675 ], [ 146.842798932022447, -38.153850745699437 ], [ 146.842745907908864, -38.153878789455618 ], [ 146.83607969131873, -38.156992373547766 ], [ 146.83602195313216, -38.157015941621935 ], [ 146.835961194342445, -38.157034170650128 ], [ 146.835898203737514, -38.157046823977446 ], [ 146.788303834530979, -38.164346743125378 ], [ 146.788248829734073, -38.164352991279152 ], [ 146.722173158749484, -38.169261948659461 ], [ 146.659564112756897, -38.1775570713001 ], [ 146.541755733286152, -38.20629164800512 ], [ 146.434156342042115, -38.240384910893248 ], [ 146.434131452586115, -38.240392257044306 ], [ 146.418103185133987, -38.244789175264444 ], [ 146.418054721706369, -38.244800595708725 ], [ 146.418005167074938, -38.244808589745858 ], [ 146.4179549099307, -38.24481309467312 ], [ 146.417904344475204, -38.24481407515529 ], [ 146.394007922162416, -38.244440128361994 ], [ 146.393950008657271, -38.244436888522891 ], [ 146.393892811499427, -38.244429028354013 ], [ 146.393836921798879, -38.24441662908702 ], [ 146.393782917152976, -38.24439981886345 ], [ 146.329882405393789, -38.221460024571961 ], [ 146.189939428197164, -38.205089343111908 ], [ 146.155198995493151, -38.215225812063252 ], [ 146.15514308252682, -38.215239588267352 ], [ 146.155085674635018, -38.215248771722564 ], [ 146.155027376188968, -38.215253265748508 ], [ 146.154968800935819, -38.21525302303359 ], [ 146.061155051387516, -38.211024299583777 ], [ 146.061099154636622, -38.211019570468444 ], [ 146.061044118466583, -38.211010526391142 ], [ 146.060990476614109, -38.21099725506074 ], [ 145.928553428236512, -38.172391843307203 ], [ 145.928506089020033, -38.172376062824391 ], [ 145.928460740298107, -38.172356984040064 ], [ 145.928417749904128, -38.172334761707027 ], [ 145.928377466541662, -38.172309576076074 ], [ 145.924861594066527, -38.169900157195286 ], [ 145.924824454815422, -38.169872299942661 ], [ 145.924790630473012, -38.169841925017629 ], [ 145.924760393735085, -38.169809277309945 ], [ 145.924733988372196, -38.169774620032754 ], [ 145.924711627264713, -38.169738232600423 ], [ 145.922905668268527, -38.166428666133548 ], [ 145.922887223391115, -38.16639009318078 ], [ 145.922873323348597, -38.16635035026389 ], [ 145.922864084599837, -38.166309770382099 ], [ 145.922859584547041, -38.166268693546797 ], [ 145.922859860887456, -38.166227463932763 ], [ 145.923097526639765, -38.162556763348569 ], [ 145.923102928174103, -38.162513822821325 ], [ 145.92311350929478, -38.162471487443447 ], [ 145.923129172880351, -38.162430145766443 ], [ 145.923149775163409, -38.16239017722102 ], [ 145.923175127050399, -38.1623519486349 ], [ 145.925419516982572, -38.159329257723201 ] ] ] } },
{ "type": "Feature", "properties": { "MODE": "REGIONAL TRAIN", "transit_time_minutes_nearest_tier": 60.0, "centre": "traralgon", "centre_name": "Traralgon" }, "geometry": { "type": "Polygon", "coordinates": [ [ [ 146.189008641379985, -38.204856695741498 ], [ 146.188967751737749, -38.204871397404766 ], [ 146.158661159586359, -38.214645367624549 ], [ 146.158609776678304, -38.214659712593587 ], [ 146.158556894025367, -38.214670126143332 ], [ 146.154888762452003, -38.215247193158497 ], [ 146.154841160772889, -38.215253045715386 ], [ 146.154793103149473, -38.215255711014372 ], [ 146.154744931813212, -38.215255170075103 ], [ 146.061375254703478, -38.211056841723341 ], [ 146.061323214138383, -38.211052586689817 ], [ 146.061271885876494, -38.21104459031357 ], [ 146.061221701059452, -38.211032919761735 ], [ 146.058353528938341, -38.210251504184967 ], [ 146.058306397954567, -38.210236784415073 ], [ 146.058261107690811, -38.210218823913891 ], [ 146.058218015238396, -38.210197764291614 ], [ 146.058177460359161, -38.210173771593389 ], [ 146.055287736819167, -38.208300346152555 ], [ 146.055242310323194, -38.208267498501293 ], [ 146.05520163548735, -38.208230978920938 ], [ 146.055166186212318, -38.208191212905817 ], [ 146.055136375513143, -38.208148663774153 ], [ 146.055112550707264, -38.208103827269866 ], [ 146.052940566042651, -38.203304740965834 ], [ 146.052923007173121, -38.20325813904563 ], [ 146.052911915989057, -38.203210315215792 ], [ 146.05290742170186, -38.203161826673252 ], [ 146.052909576661676, -38.203113238358576 ], [ 146.052918355748261, -38.203065116373615 ], [ 146.053650197577042, -38.200171157234209 ], [ 146.053663358669354, -38.200129545599026 ], [ 146.053681475370041, -38.200089110389996 ], [ 146.053704383416715, -38.200050218211722 ], [ 146.053731875107445, -38.200013221678418 ], [ 146.055654758986634, -38.197686848777082 ], [ 146.055686583187736, -38.197652082765075 ], [ 146.055722453159859, -38.197619862962341 ], [ 146.055762043685945, -38.197590481487175 ], [ 146.055804995818193, -38.197564204723953 ], [ 146.058866076194448, -38.195869217350392 ], [ 146.058913449080279, -38.195845634288787 ], [ 146.058963522897074, -38.195825829175831 ], [ 146.05901581541238, -38.195809992742603 ], [ 146.059069823027926, -38.195798277500209 ], [ 146.062719739977865, -38.195156651010862 ], [ 146.062771271864165, -38.195149529854923 ], [ 146.062823413505015, -38.19514616241085 ], [ 146.062875726811711, -38.195146576971574 ], [ 146.154307066437411, -38.199148581957523 ], [ 146.215999361216689, -38.187623463602414 ], [ 146.255738019603911, -38.169833858291724 ], [ 146.255792145415938, -38.169812524492741 ], [ 146.255848828253846, -38.169795834976711 ], [ 146.255907430852346, -38.169783977377712 ], [ 146.261360948342372, -38.168920700123117 ], [ 146.261421896131395, -38.168913726946819 ], [ 146.261483440880994, -38.168911980453203 ], [ 146.261544865546341, -38.168915480990336 ], [ 146.261605454481668, -38.168924187774195 ], [ 146.261664501777545, -38.168937999363706 ], [ 146.266050534534202, -38.170170714976159 ], [ 146.266101416402108, -38.170187237278796 ], [ 146.26615004593782, -38.170207551681898 ], [ 146.266195970962684, -38.170231469293995 ], [ 146.325664923290731, -38.204531480070486 ], [ 146.361303204215972, -38.219852296717711 ], [ 146.398418160292721, -38.228510298843503 ], [ 146.481755236504085, -38.210672908505934 ], [ 146.536531224848403, -38.190763442048222 ], [ 146.536576543931176, -38.190748781556024 ], [ 146.536623288807647, -38.190737241736024 ], [ 146.536671115204797, -38.190728907578226 ], [ 146.591926526168635, -38.183032558761127 ], [ 146.690828035144023, -38.16668380351647 ], [ 146.788047556140356, -38.148252750376756 ], [ 146.877708960468709, -38.119167581776878 ], [ 146.889254805780411, -38.110757575091398 ], [ 146.889287089043592, -38.110735756800565 ], [ 146.889321338987543, -38.110715898475341 ], [ 146.900754729988904, -38.104590084797771 ], [ 146.900802698026069, -38.104567020232203 ], [ 146.900853305027169, -38.104547796476062 ], [ 146.906566305242023, -38.102645146692588 ], [ 146.906614846352795, -38.102630992626224 ], [ 146.906664811644248, -38.102620374750884 ], [ 146.906715789483741, -38.10261338054049 ], [ 146.98470960820913, -38.094748131581966 ], [ 146.984786007202246, -38.09474449575054 ], [ 147.055652478125836, -38.095118116712214 ], [ 147.055711331009149, -38.095120818968724 ], [ 147.055769515934116, -38.095128310699344 ], [ 147.055826410493296, -38.095140511764654 ], [ 147.055881406081767, -38.095157291649059 ], [ 147.061576659816808, -38.097168067757224 ], [ 147.061625724772085, -38.097187684653839 ], [ 147.06167216953898, -38.097210946328005 ], [ 147.061715561898524, -38.097237636305799 ], [ 147.061755498036462, -38.097267506209185 ], [ 147.061791606300886, -38.097300278067344 ], [ 147.061823550660932, -38.097335646903261 ], [ 147.061851033834074, -38.097373283571933 ], [ 147.064801257925751, -38.101904974381149 ], [ 147.064823059508598, -38.101942618947319 ], [ 147.064840395208051, -38.101981686197789 ], [ 147.064853118581453, -38.10202184612919 ], [ 147.064861122146084, -38.10206275950771 ], [ 147.064864338287464, -38.102104080734563 ], [ 147.06486273983063, -38.102145460765257 ], [ 147.064560614637486, -38.10526060949757 ], [ 147.064553316268757, -38.105305760802665 ], [ 147.064540288215255, -38.105350099560546 ], [ 147.064521663504138, -38.105393173002135 ], [ 147.064497632314243, -38.10543454127842 ], [ 147.062769993253994, -38.10805101071923 ], [ 147.062738774008892, -38.10809266564366 ], [ 147.062702077276924, -38.108131432712732 ], [ 147.062660326928722, -38.108166864133665 ], [ 147.062614005210634, -38.108198550642719 ], [ 147.059110042622649, -38.110346272407185 ], [ 147.059058263117322, -38.110374534970262 ], [ 147.05900285635775, -38.110398115968252 ], [ 147.058944497541603, -38.110416728037272 ], [ 147.058883897842804, -38.110430144365957 ], [ 147.055023185577198, -38.111105720096063 ], [ 147.054965829877858, -38.111113354553616 ], [ 147.054907788140241, -38.111116331934596 ], [ 147.054849664512858, -38.111114621247836 ], [ 147.054792063996672, -38.11110824029965 ], [ 147.013039193529949, -38.104744568364659 ], [ 146.958600980740897, -38.103120509185317 ], [ 146.947392077570413, -38.104200229468667 ], [ 146.868098849117104, -38.134738190007937 ], [ 146.842902085714059, -38.153781013030667 ], [ 146.842852744738877, -38.153814258417462 ], [ 146.842798943068004, -38.153842865820216 ], [ 146.836080454691341, -38.156992016403059 ], [ 146.836022493108374, -38.157015750892413 ], [ 146.835961476340117, -38.15703410021252 ], [ 146.835898203737514, -38.157046823977446 ], [ 146.788303834530979, -38.164346743125378 ], [ 146.788251910250779, -38.16435275490138 ], [ 146.711570520625258, -38.170377700368796 ], [ 146.659906379466577, -38.177479923893692 ], [ 146.633108544365967, -38.181992417595083 ], [ 146.543071218557628, -38.205870006405959 ], [ 146.419035010113845, -38.244719608077595 ], [ 146.418984162800569, -38.244733353764545 ], [ 146.418931902079208, -38.244743268662674 ], [ 146.41887869087418, -38.244749264946009 ], [ 146.418825000529552, -38.24475128949959 ], [ 146.396881839398418, -38.244761442037102 ], [ 146.396827485116034, -38.244759417887089 ], [ 146.39677362181277, -38.244753323396608 ], [ 146.393024328397587, -38.244184123193826 ], [ 146.392958544168465, -38.244170894386961 ], [ 146.392895215170654, -38.244151602847509 ], [ 146.331460291005556, -38.222021526811055 ], [ 146.331407597269674, -38.221999843334004 ], [ 146.294976245960669, -38.205040268382035 ], [ 146.214036188337531, -38.194897642261033 ], [ 146.189008641379985, -38.204856695741498 ] ] ] } },
{ "type": "Feature", "properties": { "MODE": "REGIONAL TRAIN", "transit_time_minutes_nearest_tier": 45.0, "centre": "traralgon", "centre_name": "Traralgon" }, "geometry": { "type": "Polygon", "coordinates": [ [ [ 146.321693107643426, -38.202449913038578 ], [ 146.361306540349858, -38.219853240840521 ], [ 146.398902402952245, -38.228726129936248 ], [ 146.473388555531045, -38.216101871526426 ], [ 146.485328605721037, -38.209008996433177 ], [ 146.485381181916836, -38.208981221819556 ], [ 146.485437330754877, -38.20895820876958 ], [ 146.536535249639797, -38.190761992745706 ], [ 146.536579320933441, -38.190747997647478 ], [ 146.53662471429115, -38.190736943729284 ], [ 146.536671115204797, -38.190728907578226 ], [ 146.591925354857324, -38.183032722194667 ], [ 146.683883449200749, -38.167518512052943 ], [ 146.683924841681659, -38.167512761346188 ], [ 146.708228046944896, -38.164858125963065 ], [ 146.784882778048228, -38.14856132809539 ], [ 146.784930321051036, -38.148552905241978 ], [ 146.784978600879612, -38.148547717332256 ], [ 146.785027265233794, -38.148545802222685 ], [ 146.788764210074646, -38.148524885007021 ], [ 146.788825445686825, -38.148527142754155 ], [ 146.788886020822389, -38.148534577074678 ], [ 146.788945235805983, -38.148547102098192 ], [ 146.789002406672012, -38.14856457315382 ], [ 146.793048435538907, -38.15000281500761 ], [ 146.793102904168791, -38.150025028450415 ], [ 146.793154039383126, -38.15005172963459 ], [ 146.79320125053755, -38.150082610146256 ], [ 146.793243992310863, -38.1501173132975 ], [ 146.795701912256561, -38.15234032848722 ], [ 146.795736616069519, -38.152375012068056 ], [ 146.795766847614175, -38.152412214671195 ], [ 146.795792315740215, -38.152451578018571 ], [ 146.795812775170049, -38.152492723022576 ], [ 146.797006398848197, -38.155289256916141 ], [ 146.797021653782025, -38.155331787117191 ], [ 146.797031555883848, -38.155375293190815 ], [ 146.797036009781948, -38.155419356151057 ], [ 146.797034972573329, -38.155463551648062 ], [ 146.796782446606585, -38.158407896241194 ], [ 146.796775927867657, -38.158451798566695 ], [ 146.796763990557224, -38.158494984986788 ], [ 146.79674674962925, -38.158537039591081 ], [ 146.796724371115516, -38.158577557368631 ], [ 146.795063972227183, -38.161221454206142 ], [ 146.795036669825691, -38.161260044516396 ], [ 146.795004708150657, -38.161296336074876 ], [ 146.794968395007061, -38.161329979370578 ], [ 146.794928080108804, -38.161360650396574 ], [ 146.792112486295196, -38.163301538941447 ], [ 146.792072884593438, -38.163326479401206 ], [ 146.792030636825046, -38.16334854796429 ], [ 146.791986076091575, -38.163367570630577 ], [ 146.791939553732107, -38.163383397415302 ], [ 146.789104082523892, -38.164232229161676 ], [ 146.789056725458039, -38.164244565061743 ], [ 146.789008184859512, -38.164253588756928 ], [ 146.788958831606038, -38.16425923130106 ], [ 146.711753674125134, -38.170355489781379 ], [ 146.659906587077018, -38.177479896036743 ], [ 146.615624261051863, -38.184962671074885 ], [ 146.537577977899133, -38.207076339507594 ], [ 146.466263432720609, -38.229061658858853 ], [ 146.458257258629232, -38.23285083751508 ], [ 146.458215756925057, -38.232868677856139 ], [ 146.458172526858675, -38.232883749860434 ], [ 146.4218486655557, -38.244147615224961 ], [ 146.421804106861146, -38.244159774605016 ], [ 146.421758428196569, -38.244168993800926 ], [ 146.417940095784104, -38.244808397954813 ], [ 146.417875429860061, -38.24481620486609 ], [ 146.417810056109403, -38.244818128541404 ], [ 146.394007754330204, -38.244440125699569 ], [ 146.393949855835075, -38.244436873769921 ], [ 146.393892674923251, -38.244429003872582 ], [ 146.393836802254185, -38.24441659730094 ], [ 146.393782814973122, -38.244399782210593 ], [ 146.331354901536884, -38.221977495487423 ], [ 146.331299872699049, -38.221954782020617 ], [ 146.296827555262382, -38.205775523261245 ], [ 146.296801120165412, -38.205762322528578 ], [ 146.254360798612254, -38.183246434331551 ], [ 146.254313707494418, -38.183218546424094 ], [ 146.254270507219559, -38.183186977380437 ], [ 146.254231657579027, -38.183152063201398 ], [ 146.254197572056938, -38.183114175490829 ], [ 146.25071934457722, -38.178791437596317 ], [ 146.250693754497405, -38.178756218929095 ], [ 146.250672285973224, -38.178719324414125 ], [ 146.250655113428252, -38.178681053815851 ], [ 146.250642376381052, -38.178641718078865 ], [ 146.250634178311572, -38.17860163680141 ], [ 146.250630585820801, -38.178561135638653 ], [ 146.250537813196985, -38.175610987317206 ], [ 146.250538805869553, -38.175570999863261 ], [ 146.250544288136069, -38.175531239558502 ], [ 146.250554216765124, -38.175492019888964 ], [ 146.250568513468693, -38.175453650077564 ], [ 146.251552645938801, -38.173189020134288 ], [ 146.251571196943388, -38.173151802506922 ], [ 146.251593856913303, -38.173116030663451 ], [ 146.251620447183768, -38.17308198664162 ], [ 146.251650758102869, -38.173049938856074 ], [ 146.254017973819685, -38.170765969871873 ], [ 146.254055513858077, -38.170733173594186 ], [ 146.254096945057654, -38.170703440049749 ], [ 146.254141868414166, -38.170677055585251 ], [ 146.254189851293972, -38.170654274293987 ], [ 146.257483900622304, -38.169259222911876 ], [ 146.257534479158693, -38.169240262791298 ], [ 146.25758716814795, -38.16922530776236 ], [ 146.257641460173801, -38.169214501847826 ], [ 146.257696832382805, -38.169207949112838 ], [ 146.261416320010596, -38.168914145679167 ], [ 146.261472238818072, -38.16891190750394 ], [ 146.261528166245654, -38.168914007151855 ], [ 146.261583563691346, -38.168920424402543 ], [ 146.261637897656612, -38.168931097455399 ], [ 146.265216731605904, -38.16978325813767 ], [ 146.265277498325304, -38.169800749342649 ], [ 146.265335366966866, -38.169823557751613 ], [ 146.265389593850784, -38.169851390250756 ], [ 146.321693107643426, -38.202449913038578 ] ] ] } },
{ "type": "Feature", "properties": { "MODE": "REGIONAL TRAIN", "transit_time_minutes_nearest_tier": 30.0, "centre": "traralgon", "centre_name": "Traralgon" }, "geometry": { "type": "Polygon", "coordinates": [ [ [ 146.284431311695499, -38.184434767624658 ], [ 146.325645404177664, -38.204523084215644 ], [ 146.361305324258325, -38.219853207616403 ], [ 146.401667926622224, -38.229558554338887 ], [ 146.440399655938108, -38.231853882054068 ], [ 146.447452284012968, -38.229991147271065 ], [ 146.467214766653314, -38.220553011863203 ], [ 146.483888267089498, -38.209629839445171 ], [ 146.483928420515099, -38.209605809046579 ], [ 146.483971103572912, -38.209584666548551 ], [ 146.484015983595043, -38.209566576732975 ], [ 146.484062710791505, -38.209551680589342 ], [ 146.498206379202287, -38.205605303383301 ], [ 146.534875621094415, -38.19118766463675 ], [ 146.534929266322138, -38.191169206010471 ], [ 146.534985024617242, -38.191155180115395 ], [ 146.535042309701254, -38.191145734428616 ], [ 146.53970928913111, -38.190571358405052 ], [ 146.539765321641482, -38.190566682903963 ], [ 146.539821665232978, -38.190566390832608 ], [ 146.539877770725866, -38.190570485037817 ], [ 146.539933091261048, -38.190578925613416 ], [ 146.539987087629925, -38.190591630289248 ], [ 146.5443789317751, -38.191814203389598 ], [ 146.544434634061304, -38.191832371508262 ], [ 146.544487598039609, -38.191855074411563 ], [ 146.544537233020861, -38.191882058902806 ], [ 146.544582985441281, -38.191913024034093 ], [ 146.54462434503597, -38.191947624462607 ], [ 146.548084569340944, -38.19516703065834 ], [ 146.548121078142202, -38.195204879385237 ], [ 146.548152325606281, -38.195245555542364 ], [ 146.548177963231524, -38.195288605481501 ], [ 146.548197705079417, -38.195333549079571 ], [ 146.548211330964023, -38.195379885093317 ], [ 146.549023190731077, -38.198999042836476 ], [ 146.549029951905396, -38.199040094772691 ], [ 146.549031908405198, -38.199081463180946 ], [ 146.549029043695725, -38.199122798618106 ], [ 146.549021381967606, -38.199163751918967 ], [ 146.549008987932723, -38.19920397714575 ], [ 146.548991966277697, -38.19924313451024 ], [ 146.546867782323289, -38.203483619769393 ], [ 146.546842736963328, -38.203526803836077 ], [ 146.546812068532091, -38.203567666961064 ], [ 146.546776117974019, -38.203605754852603 ], [ 146.546735284958885, -38.203640644071818 ], [ 146.546690023438686, -38.203671946740194 ], [ 146.546640836600943, -38.203699314852038 ], [ 146.541009380943308, -38.206493847306064 ], [ 146.540965455844884, -38.206513557940845 ], [ 146.540919493704735, -38.206530126201727 ], [ 146.5408718546974, -38.206543422254015 ], [ 146.540822912138452, -38.206553341905114 ], [ 146.540773049559135, -38.206559807421101 ], [ 146.50653751241515, -38.209773740304463 ], [ 146.472557593438552, -38.22468608945416 ], [ 146.460269084798767, -38.232148477397025 ], [ 146.460225507192973, -38.232172473849609 ], [ 146.460179289908126, -38.232193170667429 ], [ 146.460130833298052, -38.232210388565079 ], [ 146.421849666001123, -38.244147304331591 ], [ 146.42180269316583, -38.244160107960909 ], [ 146.421754486722847, -38.244169642451048 ], [ 146.417771866064442, -38.244813447480503 ], [ 146.417713475267107, -38.244820427356174 ], [ 146.417654482667785, -38.244822614465896 ], [ 146.396084662469008, -38.244739873996124 ], [ 146.396023124277917, -38.244737008655079 ], [ 146.395962336167742, -38.244728929254883 ], [ 146.395903006361891, -38.244715729926064 ], [ 146.391287222787696, -38.243473040143137 ], [ 146.39122703845689, -38.243453756646581 ], [ 146.391170020222546, -38.243429207707656 ], [ 146.391116905803273, -38.243399710949006 ], [ 146.374762704721519, -38.233170002139232 ], [ 146.347943726364093, -38.22530537018222 ], [ 146.332412428910402, -38.222378813784118 ], [ 146.332357670319766, -38.22236617968143 ], [ 146.332304783460273, -38.222349297432125 ], [ 146.332254296418995, -38.222328335609596 ], [ 146.29689434250966, -38.205808097176849 ], [ 146.296855472441479, -38.205788202805238 ], [ 146.296818775120755, -38.205765886594797 ], [ 146.286671875461224, -38.199059267725708 ], [ 146.254203216579953, -38.183144988352808 ], [ 146.254159904270864, -38.18312150034 ], [ 146.254119513012455, -38.183094967071305 ], [ 146.254082385324267, -38.183065613551989 ], [ 146.254048836049321, -38.183033688703048 ], [ 146.254019149684154, -38.182999463250383 ], [ 146.250715832039646, -38.17878701550336 ], [ 146.250690465472047, -38.178751098898999 ], [ 146.250669354265824, -38.178713505860252 ], [ 146.25065267436878, -38.178674549711545 ], [ 146.250640564794736, -38.178634555137947 ], [ 146.250633126464976, -38.178593855478809 ], [ 146.250630421367447, -38.178552789949691 ], [ 146.250632472040252, -38.178511700814887 ], [ 146.251123078914731, -38.173968353593452 ], [ 146.251130810790869, -38.173923513377531 ], [ 146.251144203258463, -38.173879511919068 ], [ 146.251163121124904, -38.17383679336654 ], [ 146.251187373425296, -38.173795788918092 ], [ 146.251216715350552, -38.173756912469223 ], [ 146.253288988098461, -38.171300781507796 ], [ 146.253322275993781, -38.171265238540684 ], [ 146.253359816585174, -38.171232442488225 ], [ 146.253401248335223, -38.171202709190659 ], [ 146.253446172234419, -38.171176324992295 ], [ 146.256551188021319, -38.16953311885424 ], [ 146.256599169440449, -38.169510336590562 ], [ 146.256649748369, -38.16949137684356 ], [ 146.256702437710373, -38.169476422203189 ], [ 146.256756730044827, -38.169465616688434 ], [ 146.260421842826162, -38.168885439123827 ], [ 146.260477214550292, -38.168878885110985 ], [ 146.260533133359473, -38.168876647371206 ], [ 146.260589060734588, -38.168878747454706 ], [ 146.260644458074097, -38.168885165136942 ], [ 146.264311844198829, -38.169456318126812 ], [ 146.264365666303263, -38.169466868094673 ], [ 146.264417936812691, -38.169481493318266 ], [ 146.264468161910003, -38.169500055628419 ], [ 146.264515867100812, -38.169522379660819 ], [ 146.267588996557521, -38.171124661282157 ], [ 146.26763559573925, -38.171151731344509 ], [ 146.267678482791979, -38.171182387717714 ], [ 146.284431311695499, -38.184434767624658 ] ] ] } },
{ "type": "Feature", "properties": { "MODE": "REGIONAL TRAIN", "transit_time_minutes_nearest_tier": 15.0, "centre": "traralgon", "centre_name": "Traralgon" }, "geometry": { "type": "Polygon", "coordinates": [ [ [ 146.405016172135817, -38.232084054853509 ], [ 146.417786152502572, -38.237947201206055 ], [ 146.420937010650107, -38.238222877525409 ], [ 146.453584130750045, -38.228033718091041 ], [ 146.467331821498959, -38.220512491378848 ], [ 146.483800700745149, -38.209669525072975 ], [ 146.483843603361748, -38.20964387916991 ], [ 146.483889376518619, -38.209621535456591 ], [ 146.483937613285178, -38.209602692571103 ], [ 146.483987884830128, -38.209587518028691 ], [ 146.514094226667396, -38.201757700167754 ], [ 146.533819653610067, -38.191544183197919 ], [ 146.533872830232582, -38.191519770913608 ], [ 146.533929027284927, -38.191500017675843 ], [ 146.533987591815333, -38.191485152996272 ], [ 146.538488644614347, -38.190550567727222 ], [ 146.538549754887129, -38.190540660393751 ], [ 146.538611870211156, -38.190536076549044 ], [ 146.538674248354909, -38.190536870966589 ], [ 146.538736143946608, -38.190543034153656 ], [ 146.542630549578092, -38.191102857769643 ], [ 146.542691813878804, -38.191114453056485 ], [ 146.542751085535031, -38.191131307051336 ], [ 146.542807642269423, -38.191153214373628 ], [ 146.54286079488665, -38.191179908063617 ], [ 146.546469146309306, -38.193221172877003 ], [ 146.546518249924418, -38.193252326145597 ], [ 146.546562703434688, -38.193287560981496 ], [ 146.546601965126911, -38.193326448016059 ], [ 146.546635556552729, -38.19336851337458 ], [ 146.548558172690605, -38.196099450627727 ], [ 146.548583601471961, -38.196140303914348 ], [ 146.548603675915501, -38.196182973897137 ], [ 146.548618191022058, -38.196227024852092 ], [ 146.548626998560707, -38.196272006952789 ], [ 146.549010599517828, -38.199207463845063 ], [ 146.549013594589837, -38.199250286827372 ], [ 146.549011414860928, -38.199293140476037 ], [ 146.54900408008487, -38.199335636257231 ], [ 146.548991656754055, -38.199377388881139 ], [ 146.548024843862834, -38.202048064880053 ], [ 146.548005160443466, -38.202093220200368 ], [ 146.547979529485559, -38.202136477380463 ], [ 146.54794823906289, -38.20217735022365 ], [ 146.547911640861486, -38.202215379331648 ], [ 146.547870146227041, -38.20225013726823 ], [ 146.543168250640775, -38.205791870229383 ], [ 146.543128139933856, -38.205819382738511 ], [ 146.543084960239469, -38.205843832399943 ], [ 146.543039085868486, -38.205865007265849 ], [ 146.542990914492435, -38.205882723776703 ], [ 146.54294086369589, -38.205896828352408 ], [ 146.539031007579723, -38.206839108636395 ], [ 146.538980829613195, -38.206849261443224 ], [ 146.53892969179762, -38.206855783167953 ], [ 146.5388780152621, -38.206858620103034 ], [ 146.516297507552167, -38.207285503578852 ], [ 146.493713324976824, -38.212815210578597 ], [ 146.478891007113248, -38.220371063537492 ], [ 146.460385667954853, -38.232098168457668 ], [ 146.460339480246432, -38.232124549329953 ], [ 146.460290186977517, -38.232147164915887 ], [ 146.460238279754719, -38.232165789666901 ], [ 146.421760690860197, -38.244173157609907 ], [ 146.421712666764961, -38.244186217994383 ], [ 146.42166336107303, -38.244195861245259 ], [ 146.417769854794329, -38.244813769604988 ], [ 146.417712224764585, -38.244820523918072 ], [ 146.417654022036203, -38.244822612593609 ], [ 146.395860929093345, -38.244725132982794 ], [ 146.395799546428719, -38.244722242117255 ], [ 146.395738913671011, -38.244714163415395 ], [ 146.395679733724108, -38.244700990532003 ], [ 146.391475312815402, -38.243569050302341 ], [ 146.391417314099129, -38.243550579874558 ], [ 146.391362224425194, -38.243527218131135 ], [ 146.391310704595071, -38.243499245297585 ], [ 146.39126337258773, -38.24346699690949 ], [ 146.388449056464452, -38.24132629708857 ], [ 146.388409641099116, -38.241293127280713 ], [ 146.38837466596874, -38.241256992914657 ], [ 146.388344487354175, -38.241218262086761 ], [ 146.388319412673269, -38.241177329342612 ], [ 146.386827694897221, -38.238391261784926 ], [ 146.386808285125852, -38.238349320230299 ], [ 146.386794235618709, -38.2383060690928 ], [ 146.386785684421682, -38.238261933372364 ], [ 146.386782715551732, -38.238217346760351 ], [ 146.386771921274857, -38.235266396848559 ], [ 146.386774509537901, -38.235222242822033 ], [ 146.386782572357532, -38.235178501507136 ], [ 146.38679603207504, -38.235135594155594 ], [ 146.386814759057501, -38.235093933986995 ], [ 146.38823647898451, -38.232364340378282 ], [ 146.388260291250106, -38.232324328260169 ], [ 146.388288960937018, -38.232286349811154 ], [ 146.3883222119359, -38.232250770781256 ], [ 146.388359724018557, -38.232217933812478 ], [ 146.390997393312915, -38.230125207214407 ], [ 146.391038803016471, -38.230095427602024 ], [ 146.391083713742489, -38.230068992993637 ], [ 146.391131692978917, -38.230046157965525 ], [ 146.39118227866399, -38.230027142428234 ], [ 146.394634335101244, -38.228889817228499 ], [ 146.394687038584834, -38.22887480279239 ], [ 146.394741353951304, -38.22886393551105 ], [ 146.39479675812251, -38.228857320040596 ], [ 146.394852717535258, -38.228855020090514 ], [ 146.398593736267799, -38.228846198028258 ], [ 146.398649712106788, -38.228848234012887 ], [ 146.398705165424957, -38.228854588059498 ], [ 146.398759562185802, -38.228865198976202 ], [ 146.39881237852731, -38.228879964575768 ], [ 146.402272993292229, -38.230000988345743 ], [ 146.402323116551116, -38.230019511847701 ], [ 146.402370730643582, -38.230041776392724 ], [ 146.402415388159909, -38.230067572771254 ], [ 146.402456669470752, -38.230096658586461 ], [ 146.405016172135817, -38.232084054853509 ] ] ] } }
]
}
