{
"type": "FeatureCollection",
"name": "commute_mst_regional_train__ballarat",
"crs": { "type": "name", "properties": { "name": "urn:ogc:def:crs:OGC:1.3:CRS84" } },
"features": [
{ "type": "Feature", "properties": { "from_stop": "Ballan Railway Station", "to_stop": "Bacchus Marsh Railway Station", "minutes": 41.8, "tier": 45, "centre": "ballarat", "MODE": "REGIONAL TRAIN" }, "geometry": { "type": "LineString", "coordinates": [ [ 144.436773780216186, -37.687628105592538 ], [ 144.435911440000012, -37.68743143 ], [ 144.43537393, -37.68732088 ], [ 144.43498627, -37.6872545 ], [ 144.434246, -37.68714774 ], [ 144.43381519, -37.68710619 ], [ 144.4332793, -37.68708686 ], [ 144.43287763, -37.6870946 ], [ 144.432472600000011, -37.68711434 ], [ 144.43212291, -37.68714727 ], [ 144.431761279999989, -37.68720067 ], [ 144.43134945, -37.68728288 ], [ 144.43092499, -37.68740889 ], [ 144.43052778, -37.68755351 ], [ 144.43012377, -37.68771438 ], [ 144.42965583, -37.68796 ], [ 144.429176649999988, -37.68825529 ], [ 144.42876399, -37.68857123 ], [ 144.428323010000014, -37.68895854 ], [ 144.427985549999988, -37.68929333 ], [ 144.42758977, -37.68972091 ], [ 144.42712585000001, -37.69017089 ], [ 144.42682177, -37.69045522 ], [ 144.426305789999986, -37.69091523 ], [ 144.425864780000012, -37.69125 ], [ 144.423832549999986, -37.69263763 ], [ 144.42370398, -37.69271862 ], [ 144.42311149, -37.69318668 ], [ 144.42250894, -37.69367289 ], [ 144.421968, -37.69413838 ], [ 144.421488829999987, -37.69460467 ], [ 144.42104394, -37.69502097 ], [ 144.42069708, -37.6953667 ], [ 144.420324959999988, -37.69576063 ], [ 144.420013649999987, -37.69613399 ], [ 144.41927856, -37.69704333 ], [ 144.417746670000014, -37.69900103 ], [ 144.41732656, -37.69956438 ], [ 144.416969669999986, -37.70005406 ], [ 144.41645667, -37.7008949 ], [ 144.41515073, -37.70324219 ], [ 144.4131453, -37.70693199 ], [ 144.41291124, -37.7072927 ], [ 144.412687580000011, -37.70766769 ], [ 144.411086540000014, -37.71054461 ], [ 144.407342089999986, -37.71730334 ], [ 144.406327080000011, -37.71912717 ], [ 144.4057262, -37.72021616 ], [ 144.405139100000014, -37.72129996 ], [ 144.40483419, -37.72185184 ], [ 144.40455075, -37.7223895 ], [ 144.404252320000012, -37.72293737 ], [ 144.403925930000014, -37.72348021 ], [ 144.40355588, -37.72402911 ], [ 144.40307966, -37.72456747 ], [ 144.40254282, -37.72510657 ], [ 144.40202695, -37.72549366 ], [ 144.40147958, -37.72585987 ], [ 144.40090984, -37.72617142 ], [ 144.40032374, -37.72643152 ], [ 144.39961241, -37.72668156 ], [ 144.3989033, -37.72686766 ], [ 144.39818064, -37.72699687 ], [ 144.397338710000014, -37.72708514 ], [ 144.3966575, -37.72710298 ], [ 144.39611276, -37.72708544 ], [ 144.39563526, -37.72704299 ], [ 144.395120639999988, -37.7269688 ], [ 144.394650969999987, -37.72687813 ], [ 144.394322069999987, -37.72680724 ], [ 144.394028389999988, -37.72672514 ], [ 144.3937707, -37.72664888 ], [ 144.393540660000014, -37.72657324 ], [ 144.393282989999989, -37.72647067 ], [ 144.39283986, -37.72627992 ], [ 144.39243725, -37.72608854 ], [ 144.392054409999986, -37.72586083 ], [ 144.39152316, -37.7255336 ], [ 144.39118822, -37.72529559 ], [ 144.39080718, -37.72498132 ], [ 144.390359749999988, -37.72453879 ], [ 144.38958734, -37.72354588 ], [ 144.38915812, -37.72278207 ], [ 144.388868370000012, -37.72166189 ], [ 144.388761100000011, -37.72057559 ], [ 144.38892211000001, -37.71942152 ], [ 144.389437070000014, -37.71818239 ], [ 144.38978315, -37.71765625 ], [ 144.39019875, -37.71712371 ], [ 144.39142192, -37.71570418 ], [ 144.392419749999988, -37.71432083 ], [ 144.39319939, -37.71301581 ], [ 144.39393159, -37.71137768 ], [ 144.39444131, -37.70983718 ], [ 144.394709119999987, -37.70861274 ], [ 144.39485391, -37.70752624 ], [ 144.39489992, -37.70684729 ], [ 144.394921360000012, -37.70602822 ], [ 144.39491285, -37.70515378 ], [ 144.3949589, -37.70466163 ], [ 144.39507164, -37.70380637 ], [ 144.39520533000001, -37.70319513 ], [ 144.39534525, -37.70260314 ], [ 144.39543862, -37.70208734 ], [ 144.39547656, -37.70170332 ], [ 144.395492280000013, -37.70130628 ], [ 144.395433340000011, -37.70044047 ], [ 144.39526956, -37.6996765 ], [ 144.395060449999988, -37.69908652 ], [ 144.39478419, -37.6984583 ], [ 144.394183340000012, -37.69752661 ], [ 144.39355303, -37.69681144 ], [ 144.39305148, -37.69635087 ], [ 144.39265178, -37.6960325 ], [ 144.39201345, -37.69559531 ], [ 144.391265080000011, -37.69518569 ], [ 144.39024318, -37.69470179 ], [ 144.38946001, -37.69429219 ], [ 144.38833881, -37.6935854 ], [ 144.38756629, -37.6930569 ], [ 144.38683948, -37.69258357 ], [ 144.38599985, -37.69211674 ], [ 144.38503426, -37.69168802 ], [ 144.38409558, -37.69136532 ], [ 144.38322116, -37.69112757 ], [ 144.38200336, -37.69089408 ], [ 144.378149150000013, -37.69026161 ], [ 144.37775592, -37.69018374 ], [ 144.3769017, -37.68999803 ], [ 144.37590119, -37.68973904 ], [ 144.37483236, -37.68941111 ], [ 144.37021087, -37.6878255 ], [ 144.36341113, -37.68554076 ], [ 144.35879641, -37.68383898 ], [ 144.35706517, -37.68307578 ], [ 144.35611304, -37.68241987 ], [ 144.35550135, -37.68193163 ], [ 144.35466999, -37.6811483 ], [ 144.35449445, -37.68097072 ], [ 144.35423013, -37.68073861 ], [ 144.35344147, -37.6799766 ], [ 144.35179193, -37.67832289 ], [ 144.35043475, -37.6769685 ], [ 144.34940215, -37.67581577 ], [ 144.347680129999986, -37.67391356 ], [ 144.34633625, -37.67245094 ], [ 144.34507835, -37.67107088 ], [ 144.344692110000011, -37.6706675 ], [ 144.34422815, -37.67021533 ], [ 144.34374005, -37.66976937 ], [ 144.34318737000001, -37.66931304 ], [ 144.342793089999986, -37.66901787 ], [ 144.342254020000013, -37.6686569 ], [ 144.34195628, -37.66846799 ], [ 144.341643479999988, -37.66826296 ], [ 144.341319520000013, -37.66808129 ], [ 144.3406018, -37.66773341 ], [ 144.33981481, -37.66740189 ], [ 144.33886266, -37.66706429 ], [ 144.338127570000012, -37.6668445 ], [ 144.33776035, -37.6667543 ], [ 144.33670077, -37.66652076 ], [ 144.33556625, -37.66636374 ], [ 144.33461125, -37.66629358 ], [ 144.333728939999986, -37.66621929 ], [ 144.33296975, -37.66612588 ], [ 144.332100770000011, -37.66595177 ], [ 144.33149455, -37.66579036 ], [ 144.33065255, -37.66552466 ], [ 144.330164169999989, -37.66534879 ], [ 144.32963854, -37.66512162 ], [ 144.328914309999988, -37.66475847 ], [ 144.328176680000013, -37.66433599 ], [ 144.32704480000001, -37.66352277 ], [ 144.319426990000011, -37.65615313 ], [ 144.31803575, -37.65485266 ], [ 144.317037989999989, -37.65388444 ], [ 144.31566471, -37.65300948 ], [ 144.307693160000014, -37.64916152 ], [ 144.30565474, -37.6484649 ], [ 144.29869172, -37.64637506 ], [ 144.292662080000014, -37.6445062 ], [ 144.29152556, -37.64405776 ], [ 144.2895234, -37.64319166 ], [ 144.289095800000013, -37.64299026 ], [ 144.287182159999986, -37.64204768 ], [ 144.28695344, -37.64193041 ], [ 144.28450824, -37.64064079 ], [ 144.27500239, -37.63561111 ], [ 144.27297467, -37.63446409 ], [ 144.2708611, -37.63297723 ], [ 144.26264591, -37.62547134 ], [ 144.256754699999988, -37.62025114 ], [ 144.248502050000013, -37.61478257 ], [ 144.24176975, -37.61004563 ], [ 144.24084801, -37.60948414 ], [ 144.24019845, -37.60901497 ], [ 144.23762388, -37.60732959 ], [ 144.23689707, -37.60687059 ], [ 144.236060189999989, -37.60640521 ], [ 144.235328040000013, -37.60606952 ], [ 144.23460383, -37.60573382 ], [ 144.233825849999988, -37.60543408 ], [ 144.23331135, -37.60524963 ], [ 144.23212274, -37.60493051 ], [ 144.23140393, -37.60477334 ], [ 144.23081647, -37.6046479 ], [ 144.23035525, -37.60456931 ], [ 144.22978648, -37.60448639 ], [ 144.22919109, -37.60440986 ], [ 144.228691590000011, -37.60435884 ], [ 144.22817934, -37.60432481 ], [ 144.22756512, -37.60428866 ], [ 144.22709899, -37.60428752 ], [ 144.225448009334343, -37.604292165387385 ] ] } },
{ "type": "Feature", "properties": { "from_stop": "Bacchus Marsh Railway Station", "to_stop": "Bacchus Marsh Station", "minutes": 46.0, "tier": 60, "centre": "ballarat", "MODE": "REGIONAL TRAIN" }, "geometry": { "type": "Point", "coordinates": [ 144.437516460000012, -37.68779749 ] } },
{ "type": "Feature", "properties": { "from_stop": "Ballarat Station", "to_stop": "Ballan Railway Station", "minutes": 30.0, "tier": 30, "centre": "ballarat", "MODE": "REGIONAL TRAIN" }, "geometry": { "type": "LineString", "coordinates": [ [ 143.859546920000014, -37.55864132 ], [ 143.86012908, -37.55890622 ], [ 143.86039724, -37.55901599 ], [ 143.86077218, -37.559154 ], [ 143.86100312, -37.55923349 ], [ 143.86126366, -37.55931187 ], [ 143.86142583, -37.5593552 ], [ 143.86183062, -37.55944832 ], [ 143.86203182, -37.55948701 ], [ 143.862969, -37.55962069 ], [ 143.86326839, -37.55966046 ], [ 143.863505479999986, -37.55968533 ], [ 143.86360635, -37.55969296 ], [ 143.86443985, -37.55973269 ], [ 143.86523036, -37.55976641 ], [ 143.865608759999986, -37.55977106 ], [ 143.86597312, -37.55975939 ], [ 143.86617542, -37.55974765 ], [ 143.8666475, -37.55970441 ], [ 143.86696874, -37.55967114 ], [ 143.86715621, -37.55964873 ], [ 143.867297549999989, -37.55963582 ], [ 143.86938536, -37.55941518 ], [ 143.87030078, -37.55931477 ], [ 143.87634608, -37.55866826 ], [ 143.879590689999986, -37.55832472 ], [ 143.88401015, -37.55781913 ], [ 143.88518771, -37.55769031 ], [ 143.88650659000001, -37.55756781 ], [ 143.88724653, -37.5575112 ], [ 143.88796739, -37.55747256 ], [ 143.88862986, -37.55746093 ], [ 143.8899988, -37.55747343 ], [ 143.89068699, -37.55748544 ], [ 143.89137718, -37.55752012 ], [ 143.892146450000013, -37.55758022 ], [ 143.89343405, -37.55770352 ], [ 143.894119499999988, -37.55779248 ], [ 143.89480325, -37.55789527 ], [ 143.89549521, -37.55801557 ], [ 143.89628682, -37.55816741 ], [ 143.89733286, -37.55839576 ], [ 143.89807471, -37.55859052 ], [ 143.898898229999986, -37.55882184 ], [ 143.89966424, -37.5590621 ], [ 143.90018924, -37.55923772 ], [ 143.900715889999987, -37.55942311 ], [ 143.90103299, -37.55952497 ], [ 143.90150085, -37.55971143 ], [ 143.90226375, -37.5600406 ], [ 143.90321545, -37.56044627 ], [ 143.90437515, -37.56102516 ], [ 143.90531873, -37.5615344 ], [ 143.906260949999989, -37.56209892 ], [ 143.90771844, -37.56302104 ], [ 143.908037439999987, -37.56321177 ], [ 143.91074629, -37.56490566 ], [ 143.91166901, -37.56550314 ], [ 143.91242041000001, -37.56601468 ], [ 143.912935, -37.56640874 ], [ 143.9139194, -37.56726758 ], [ 143.91465433, -37.5680033 ], [ 143.9152954, -37.56872611 ], [ 143.91584255, -37.56945114 ], [ 143.91649697, -37.57048207 ], [ 143.917535719999989, -37.57218503 ], [ 143.91818412, -37.57315444 ], [ 143.918653479999989, -37.57374967 ], [ 143.919260759999986, -37.57444571 ], [ 143.9199678, -37.57516328 ], [ 143.921217500000012, -37.57626443 ], [ 143.9217295, -37.5766473 ], [ 143.92220984, -37.57696889 ], [ 143.92408584, -37.57818933 ], [ 143.924932180000013, -37.57871517 ], [ 143.92579071, -37.57919824 ], [ 143.926610790000012, -37.57963643 ], [ 143.9334398, -37.58319699 ], [ 143.9344352, -37.5837051 ], [ 143.93565929, -37.58433789 ], [ 143.93813271, -37.58557518 ], [ 143.942485839999989, -37.58783571 ], [ 143.944037619999989, -37.5883805 ], [ 143.94549090000001, -37.58872631 ], [ 143.94688664, -37.58893437 ], [ 143.94822774, -37.58902224 ], [ 143.949743, -37.58900738 ], [ 143.95393999, -37.58878339 ], [ 143.95513781, -37.58872269 ], [ 143.96283123, -37.58829857 ], [ 143.96877594, -37.58798795 ], [ 143.973076209999988, -37.58775844 ], [ 143.98099209, -37.58730568 ], [ 143.981563849999986, -37.58728419 ], [ 143.98316183, -37.58720803 ], [ 143.98456701, -37.58719577 ], [ 143.98619776000001, -37.58730638 ], [ 143.98753886, -37.58749337 ], [ 143.98907043, -37.58783992 ], [ 143.98989749, -37.58807476 ], [ 143.99084341, -37.58841156 ], [ 143.998651779999989, -37.59134356 ], [ 144.0019699, -37.59253507 ], [ 144.0039382, -37.59324492 ], [ 144.004628059999987, -37.59346166 ], [ 144.005222010000011, -37.59361623 ], [ 144.0058321, -37.59376651 ], [ 144.00705245, -37.5940096 ], [ 144.007778519999988, -37.59415966 ], [ 144.00848452, -37.59428759 ], [ 144.009389340000013, -37.59443912 ], [ 144.01277151, -37.59485562 ], [ 144.02153162, -37.5959267 ], [ 144.024605439999988, -37.59629858 ], [ 144.02623619, -37.59649839 ], [ 144.0274191, -37.59661526 ], [ 144.02853488, -37.59668329 ], [ 144.02956748, -37.59669597 ], [ 144.02997518, -37.59669822 ], [ 144.03103198, -37.59666627 ], [ 144.03199754, -37.59659624 ], [ 144.033043740000011, -37.59650047 ], [ 144.03401464, -37.59635604 ], [ 144.03818285, -37.59559346 ], [ 144.052571300000011, -37.59291466 ], [ 144.05692607, -37.59211832 ], [ 144.05967001, -37.59160613 ], [ 144.06223684, -37.59113641 ], [ 144.06343045, -37.59100675 ], [ 144.06412505, -37.59095998 ], [ 144.06485468, -37.5909238 ], [ 144.06559234, -37.59091963 ], [ 144.06630038, -37.59093446 ], [ 144.067088969999986, -37.59098552 ], [ 144.0706563, -37.59128296 ], [ 144.071450160000012, -37.5913616 ], [ 144.072779489999988, -37.5914466 ], [ 144.07538664, -37.59148065 ], [ 144.082542679999989, -37.59150607 ], [ 144.08937054, -37.59158197 ], [ 144.090239520000011, -37.59165433 ], [ 144.09119446, -37.59178178 ], [ 144.092176130000013, -37.5919816 ], [ 144.093726370000013, -37.59244908 ], [ 144.09561788, -37.59310434 ], [ 144.09756775, -37.59374181 ], [ 144.10151466, -37.59509351 ], [ 144.10419782, -37.59591335 ], [ 144.10741636, -37.59661893 ], [ 144.1090064, -37.59687093 ], [ 144.11040108, -37.59707073 ], [ 144.11179859, -37.59723003 ], [ 144.11384243, -37.59738522 ], [ 144.115373940000012, -37.59741494 ], [ 144.117197839999989, -37.59738944 ], [ 144.11845315, -37.59734272 ], [ 144.12002286, -37.59723086 ], [ 144.12117562, -37.59711529 ], [ 144.12241746, -37.59695376 ], [ 144.12355738, -37.59677739 ], [ 144.12503851, -37.59651256 ], [ 144.12687324, -37.59609611 ], [ 144.13177033, -37.59471379 ], [ 144.13356264, -37.59421736 ], [ 144.13465828, -37.59393609 ], [ 144.13491115, -37.59388276 ], [ 144.1360302, -37.5936818 ], [ 144.13685045, -37.59356827 ], [ 144.137859529999986, -37.59346499 ], [ 144.13870297, -37.59342572 ], [ 144.13960429, -37.59340983 ], [ 144.1406557, -37.59344587 ], [ 144.14175814, -37.59354792 ], [ 144.14297176, -37.59370411 ], [ 144.147092609999987, -37.59426647 ], [ 144.14783943, -37.5943823 ], [ 144.148888129999989, -37.59457571 ], [ 144.15006286, -37.59484982 ], [ 144.151984879999986, -37.59533759 ], [ 144.15391462, -37.59581678 ], [ 144.15482121, -37.59599319 ], [ 144.155325370000014, -37.5960824 ], [ 144.15603886, -37.59616736 ], [ 144.156693460000014, -37.5962227 ], [ 144.15798085, -37.5962695 ], [ 144.159391699999986, -37.59623547 ], [ 144.160668429999987, -37.59611006 ], [ 144.16183905, -37.59592207 ], [ 144.16314938, -37.59567228 ], [ 144.16455987, -37.59537894 ], [ 144.165973760000014, -37.59509421 ], [ 144.16725864, -37.59485188 ], [ 144.16820002, -37.59471167 ], [ 144.16929979, -37.59458417 ], [ 144.1705148, -37.59449069 ], [ 144.17297167000001, -37.59431208 ], [ 144.17535055, -37.59414742 ], [ 144.17707284, -37.59401881 ], [ 144.178786730000013, -37.59394448 ], [ 144.17987568, -37.59395296 ], [ 144.18118185, -37.59401464 ], [ 144.18248005, -37.59413793 ], [ 144.184258410000012, -37.59440783 ], [ 144.18586507, -37.59475417 ], [ 144.18721421, -37.59512182 ], [ 144.18846152, -37.59552353 ], [ 144.18958802, -37.59596127 ], [ 144.19637341, -37.59889934 ], [ 144.19753309, -37.59948431 ], [ 144.199791510000011, -37.60048733 ], [ 144.20236115, -37.60160086 ], [ 144.20481798, -37.6026166 ], [ 144.20591767, -37.6030076 ], [ 144.20725876, -37.60339439 ], [ 144.208245909999988, -37.60361537 ], [ 144.209136410000013, -37.60381936 ], [ 144.210363050000012, -37.60401464 ], [ 144.21089587, -37.6041041 ], [ 144.21151282, -37.60418492 ], [ 144.21238724, -37.6042529 ], [ 144.21322404, -37.60429106 ], [ 144.214286140000013, -37.6043039 ], [ 144.21560585, -37.60431236 ], [ 144.217414029999986, -37.60431809 ], [ 144.220090520000014, -37.60430391 ], [ 144.22277275, -37.60429961 ], [ 144.225446369999986, -37.60429217 ], [ 144.225448009334343, -37.604292165387385 ] ] } },
{ "type": "Feature", "properties": { "from_stop": "Ballarat Station", "to_stop": "Ballan Station", "minutes": 30.0, "tier": 30, "centre": "ballarat", "MODE": "REGIONAL TRAIN" }, "geometry": { "type": "LineString", "coordinates": [ [ 144.225448009334343, -37.604292165387385 ], [ 144.225446369999986, -37.60429217 ], [ 144.22277275, -37.60429961 ], [ 144.220090520000014, -37.60430391 ], [ 144.217414029999986, -37.60431809 ], [ 144.21560585, -37.60431236 ], [ 144.214286140000013, -37.6043039 ], [ 144.21322404, -37.60429106 ], [ 144.21238724, -37.6042529 ], [ 144.21151282, -37.60418492 ], [ 144.21089587, -37.6041041 ], [ 144.210363050000012, -37.60401464 ], [ 144.209136410000013, -37.60381936 ], [ 144.208245909999988, -37.60361537 ], [ 144.20725876, -37.60339439 ], [ 144.20591767, -37.6030076 ], [ 144.20481798, -37.6026166 ], [ 144.20236115, -37.60160086 ], [ 144.199791510000011, -37.60048733 ], [ 144.19753309, -37.59948431 ], [ 144.19637341, -37.59889934 ], [ 144.18958802, -37.59596127 ], [ 144.18846152, -37.59552353 ], [ 144.18721421, -37.59512182 ], [ 144.18586507, -37.59475417 ], [ 144.184258410000012, -37.59440783 ], [ 144.18248005, -37.59413793 ], [ 144.18118185, -37.59401464 ], [ 144.17987568, -37.59395296 ], [ 144.178786730000013, -37.59394448 ], [ 144.17707284, -37.59401881 ], [ 144.17535055, -37.59414742 ], [ 144.17297167000001, -37.59431208 ], [ 144.1705148, -37.59449069 ], [ 144.16929979, -37.59458417 ], [ 144.16820002, -37.59471167 ], [ 144.16725864, -37.59485188 ], [ 144.165973760000014, -37.59509421 ], [ 144.16455987, -37.59537894 ], [ 144.16314938, -37.59567228 ], [ 144.16183905, -37.59592207 ], [ 144.160668429999987, -37.59611006 ], [ 144.159391699999986, -37.59623547 ], [ 144.15798085, -37.5962695 ], [ 144.156693460000014, -37.5962227 ], [ 144.15603886, -37.59616736 ], [ 144.155325370000014, -37.5960824 ], [ 144.15482121, -37.59599319 ], [ 144.15391462, -37.59581678 ], [ 144.151984879999986, -37.59533759 ], [ 144.15006286, -37.59484982 ], [ 144.148888129999989, -37.59457571 ], [ 144.14783943, -37.5943823 ], [ 144.147092609999987, -37.59426647 ], [ 144.14297176, -37.59370411 ], [ 144.14175814, -37.59354792 ], [ 144.1406557, -37.59344587 ], [ 144.13960429, -37.59340983 ], [ 144.13870297, -37.59342572 ], [ 144.137859529999986, -37.59346499 ], [ 144.13685045, -37.59356827 ], [ 144.1360302, -37.5936818 ], [ 144.13491115, -37.59388276 ], [ 144.13465828, -37.59393609 ], [ 144.13356264, -37.59421736 ], [ 144.13177033, -37.59471379 ], [ 144.12687324, -37.59609611 ], [ 144.12503851, -37.59651256 ], [ 144.12355738, -37.59677739 ], [ 144.12241746, -37.59695376 ], [ 144.12117562, -37.59711529 ], [ 144.12002286, -37.59723086 ], [ 144.11845315, -37.59734272 ], [ 144.117197839999989, -37.59738944 ], [ 144.115373940000012, -37.59741494 ], [ 144.11384243, -37.59738522 ], [ 144.11179859, -37.59723003 ], [ 144.11040108, -37.59707073 ], [ 144.1090064, -37.59687093 ], [ 144.10741636, -37.59661893 ], [ 144.10419782, -37.59591335 ], [ 144.10151466, -37.59509351 ], [ 144.09756775, -37.59374181 ], [ 144.09561788, -37.59310434 ], [ 144.093726370000013, -37.59244908 ], [ 144.092176130000013, -37.5919816 ], [ 144.09119446, -37.59178178 ], [ 144.090239520000011, -37.59165433 ], [ 144.08937054, -37.59158197 ], [ 144.082542679999989, -37.59150607 ], [ 144.07538664, -37.59148065 ], [ 144.072779489999988, -37.5914466 ], [ 144.071450160000012, -37.5913616 ], [ 144.0706563, -37.59128296 ], [ 144.067088969999986, -37.59098552 ], [ 144.06630038, -37.59093446 ], [ 144.06559234, -37.59091963 ], [ 144.06485468, -37.5909238 ], [ 144.06412505, -37.59095998 ], [ 144.06343045, -37.59100675 ], [ 144.06223684, -37.59113641 ], [ 144.05967001, -37.59160613 ], [ 144.05692607, -37.59211832 ], [ 144.052571300000011, -37.59291466 ], [ 144.03818285, -37.59559346 ], [ 144.03401464, -37.59635604 ], [ 144.033043740000011, -37.59650047 ], [ 144.03199754, -37.59659624 ], [ 144.03103198, -37.59666627 ], [ 144.02997518, -37.59669822 ], [ 144.02956748, -37.59669597 ], [ 144.02853488, -37.59668329 ], [ 144.0274191, -37.59661526 ], [ 144.02623619, -37.59649839 ], [ 144.024605439999988, -37.59629858 ], [ 144.02153162, -37.5959267 ], [ 144.01277151, -37.59485562 ], [ 144.009389340000013, -37.59443912 ], [ 144.00848452, -37.59428759 ], [ 144.007778519999988, -37.59415966 ], [ 144.00705245, -37.5940096 ], [ 144.0058321, -37.59376651 ], [ 144.005222010000011, -37.59361623 ], [ 144.004628059999987, -37.59346166 ], [ 144.0039382, -37.59324492 ], [ 144.0019699, -37.59253507 ], [ 143.998651779999989, -37.59134356 ], [ 143.99084341, -37.58841156 ], [ 143.98989749, -37.58807476 ], [ 143.98907043, -37.58783992 ], [ 143.98753886, -37.58749337 ], [ 143.98619776000001, -37.58730638 ], [ 143.98456701, -37.58719577 ], [ 143.98316183, -37.58720803 ], [ 143.981563849999986, -37.58728419 ], [ 143.98099209, -37.58730568 ], [ 143.973076209999988, -37.58775844 ], [ 143.96877594, -37.58798795 ], [ 143.96283123, -37.58829857 ], [ 143.95513781, -37.58872269 ], [ 143.95393999, -37.58878339 ], [ 143.949743, -37.58900738 ], [ 143.94822774, -37.58902224 ], [ 143.94688664, -37.58893437 ], [ 143.94549090000001, -37.58872631 ], [ 143.944037619999989, -37.5883805 ], [ 143.942485839999989, -37.58783571 ], [ 143.93813271, -37.58557518 ], [ 143.93565929, -37.58433789 ], [ 143.9344352, -37.5837051 ], [ 143.9334398, -37.58319699 ], [ 143.926610790000012, -37.57963643 ], [ 143.92579071, -37.57919824 ], [ 143.924932180000013, -37.57871517 ], [ 143.92408584, -37.57818933 ], [ 143.92220984, -37.57696889 ], [ 143.9217295, -37.5766473 ], [ 143.921217500000012, -37.57626443 ], [ 143.9199678, -37.57516328 ], [ 143.919260759999986, -37.57444571 ], [ 143.918653479999989, -37.57374967 ], [ 143.91818412, -37.57315444 ], [ 143.917535719999989, -37.57218503 ], [ 143.91649697, -37.57048207 ], [ 143.91584255, -37.56945114 ], [ 143.9152954, -37.56872611 ], [ 143.91465433, -37.5680033 ], [ 143.9139194, -37.56726758 ], [ 143.912935, -37.56640874 ], [ 143.91242041000001, -37.56601468 ], [ 143.91166901, -37.56550314 ], [ 143.91074629, -37.56490566 ], [ 143.908037439999987, -37.56321177 ], [ 143.90771844, -37.56302104 ], [ 143.906260949999989, -37.56209892 ], [ 143.90531873, -37.5615344 ], [ 143.90437515, -37.56102516 ], [ 143.90321545, -37.56044627 ], [ 143.90226375, -37.5600406 ], [ 143.90150085, -37.55971143 ], [ 143.90103299, -37.55952497 ], [ 143.900715889999987, -37.55942311 ], [ 143.90018924, -37.55923772 ], [ 143.89966424, -37.5590621 ], [ 143.898898229999986, -37.55882184 ], [ 143.89807471, -37.55859052 ], [ 143.89733286, -37.55839576 ], [ 143.89628682, -37.55816741 ], [ 143.89549521, -37.55801557 ], [ 143.89480325, -37.55789527 ], [ 143.894119499999988, -37.55779248 ], [ 143.89343405, -37.55770352 ], [ 143.892146450000013, -37.55758022 ], [ 143.89137718, -37.55752012 ], [ 143.89068699, -37.55748544 ], [ 143.8899988, -37.55747343 ], [ 143.88862986, -37.55746093 ], [ 143.88796739, -37.55747256 ], [ 143.88724653, -37.5575112 ], [ 143.88650659000001, -37.55756781 ], [ 143.88518771, -37.55769031 ], [ 143.88401015, -37.55781913 ], [ 143.879590689999986, -37.55832472 ], [ 143.87634608, -37.55866826 ], [ 143.87030078, -37.55931477 ], [ 143.86938536, -37.55941518 ], [ 143.867297549999989, -37.55963582 ], [ 143.86715621, -37.55964873 ], [ 143.86696874, -37.55967114 ], [ 143.8666475, -37.55970441 ], [ 143.86617542, -37.55974765 ], [ 143.86597312, -37.55975939 ], [ 143.865608759999986, -37.55977106 ], [ 143.86523036, -37.55976641 ], [ 143.86443985, -37.55973269 ], [ 143.86360635, -37.55969296 ], [ 143.863505479999986, -37.55968533 ], [ 143.86326839, -37.55966046 ], [ 143.862969, -37.55962069 ], [ 143.86203182, -37.55948701 ], [ 143.86183062, -37.55944832 ], [ 143.86142583, -37.5593552 ], [ 143.86126366, -37.55931187 ], [ 143.86100312, -37.55923349 ], [ 143.86077218, -37.559154 ], [ 143.86039724, -37.55901599 ], [ 143.86012908, -37.55890622 ], [ 143.859546920000014, -37.55864132 ], [ 143.859540114747972, -37.558638207597276 ] ] } },
{ "type": "Feature", "properties": { "from_stop": "Ballarat Station", "to_stop": "Ballarat Railway Station", "minutes": 0.0, "tier": 15, "centre": "ballarat", "MODE": "REGIONAL TRAIN" }, "geometry": { "type": "Point", "coordinates": [ 143.859546920000014, -37.55864132 ] } },
{ "type": "Feature", "properties": { "from_stop": "Cobblebank Station", "to_stop": "Cobblebank Railway Station", "minutes": 55.1, "tier": 60, "centre": "ballarat", "MODE": "REGIONAL TRAIN" }, "geometry": { "type": "LineString", "coordinates": [ [ 144.604096757095704, -37.712578934998959 ], [ 144.603855384013798, -37.712498974304559 ] ] } },
{ "type": "Feature", "properties": { "from_stop": "Melton Railway Station", "to_stop": "Cobblebank Station", "minutes": 55.0, "tier": 60, "centre": "ballarat", "MODE": "REGIONAL TRAIN" }, "geometry": { "type": "LineString", "coordinates": [ [ 144.603855387511373, -37.71249896239371 ], [ 144.6031769, -37.71227421 ], [ 144.600878849999987, -37.71152284 ], [ 144.599143950000013, -37.71096026 ], [ 144.59685344, -37.71025547 ], [ 144.58717126, -37.70707883 ], [ 144.58390445, -37.7060029 ], [ 144.58278525, -37.70564211 ], [ 144.57929887, -37.70449667 ], [ 144.578493439999988, -37.70423673 ], [ 144.57775055, -37.70403808 ], [ 144.57731102, -37.70394172 ], [ 144.577045840000011, -37.70389302 ], [ 144.57676339, -37.70384549 ], [ 144.576461310000013, -37.70380512 ], [ 144.575977349999988, -37.70374957 ], [ 144.57495086, -37.70361221 ], [ 144.57222991, -37.70328729 ] ] } },
{ "type": "Feature", "properties": { "from_stop": "Ballarat Railway Station", "to_stop": "Creswick Railway Station", "minutes": 35.0, "tier": 45, "centre": "ballarat", "MODE": "REGIONAL TRAIN" }, "geometry": { "type": "LineString", "coordinates": [ [ 143.859529706674977, -37.558633447433444 ], [ 143.859107849999987, -37.55844051 ], [ 143.858695180000012, -37.55823887 ], [ 143.85849572, -37.55813481 ], [ 143.85832878, -37.55804053 ], [ 143.858127090000011, -37.55790352 ], [ 143.85799207, -37.55779577 ], [ 143.85755266000001, -37.55741744 ], [ 143.85741657, -37.55729732 ], [ 143.85727462, -37.55715811 ], [ 143.85712505, -37.55699258 ], [ 143.85701008, -37.5568522 ], [ 143.856897729999986, -37.55669531 ], [ 143.85679171000001, -37.55653842 ], [ 143.85658372, -37.55619878 ], [ 143.856425589999986, -37.55590318 ], [ 143.85623155, -37.5554712 ], [ 143.85603176, -37.55498771 ], [ 143.855895620000013, -37.55465116 ], [ 143.8542395, -37.55049679 ], [ 143.85418223, -37.55035984 ], [ 143.85404315, -37.55006124 ], [ 143.85395501, -37.5498858 ], [ 143.8539031, -37.54975323 ], [ 143.85386949, -37.54965908 ], [ 143.85370805, -37.54918202 ], [ 143.85367491, -37.54907391 ], [ 143.85356102, -37.54867164 ], [ 143.85349703, -37.54845513 ], [ 143.85343161, -37.54824823 ], [ 143.853361150000012, -37.5480402 ], [ 143.85324155, -37.54773057 ], [ 143.85118104, -37.54260635 ], [ 143.85105489, -37.5422888 ], [ 143.850479650000011, -37.54080453 ], [ 143.85028064, -37.54005967 ], [ 143.85009879, -37.53921372 ], [ 143.850023670000013, -37.53874581 ], [ 143.8499486, -37.53792479 ], [ 143.84985759, -37.53522276 ], [ 143.84985355, -37.53515192 ], [ 143.849829809999989, -37.53369517 ], [ 143.84983061, -37.53333488 ], [ 143.849894940000013, -37.53209699 ], [ 143.850071719999988, -37.52940013 ], [ 143.85021923, -37.52789533 ], [ 143.85028086, -37.52721869 ], [ 143.85043535, -37.52561226 ], [ 143.85058612, -37.52374453 ], [ 143.85069101, -37.52259602 ], [ 143.85071521, -37.52240259 ], [ 143.85091981, -37.52025806 ], [ 143.8510636, -37.51903139 ], [ 143.851594080000012, -37.51327377 ], [ 143.85173283, -37.5119028 ], [ 143.85228657, -37.50626364 ], [ 143.853001619999986, -37.4987016 ], [ 143.85324972, -37.49659399 ], [ 143.8540284, -37.48802179 ], [ 143.854061019999989, -37.48659554 ], [ 143.85390179, -37.4856992 ], [ 143.85375744000001, -37.48515132 ], [ 143.85339256, -37.48370547 ], [ 143.852991589999988, -37.4823948 ], [ 143.85222174, -37.479635 ], [ 143.85047923, -37.47335981 ], [ 143.8495848, -37.47011176 ], [ 143.84900875, -37.46819001 ], [ 143.8488266, -37.4675211 ], [ 143.84871198, -37.46688328 ], [ 143.848653649999989, -37.46565112 ], [ 143.84874578, -37.46466633 ], [ 143.8490962, -37.462998 ], [ 143.8494144, -37.46128078 ], [ 143.84970345, -37.45986173 ], [ 143.84984132, -37.45894719 ], [ 143.850241430000011, -37.45493311 ], [ 143.85031654, -37.45375776 ], [ 143.85038089, -37.45259086 ], [ 143.85040233, -37.45234392 ], [ 143.850714219999986, -37.44803592 ], [ 143.85162946, -37.43361899 ], [ 143.85208798, -37.42833322 ], [ 143.852484409999988, -37.42730383 ], [ 143.85320361, -37.42624502 ], [ 143.854125540000013, -37.42534063 ], [ 143.85565603, -37.42448028 ], [ 143.85756464, -37.42392136 ], [ 143.85839603, -37.42380517 ], [ 143.85959294, -37.42372294 ], [ 143.860647160000013, -37.4237543 ], [ 143.86196236, -37.42392882 ], [ 143.86272312, -37.42417546 ], [ 143.864428479999987, -37.4247738 ], [ 143.8673468, -37.42617152 ], [ 143.86953187, -37.42689937 ], [ 143.87160638, -37.42712004 ], [ 143.87398514, -37.42713474 ], [ 143.87578303, -37.42734063 ], [ 143.877405689999989, -37.42779648 ], [ 143.881191879999989, -37.42907967 ], [ 143.882373410000014, -37.429432 ], [ 143.883034189999989, -37.4295099 ], [ 143.88358058, -37.42952098 ], [ 143.884113, -37.42947647 ], [ 143.884855249999987, -37.42935522 ], [ 143.885390339999987, -37.42918913 ], [ 143.88589696, -37.4289684 ], [ 143.88647606, -37.4286402 ], [ 143.88699915, -37.42825636 ], [ 143.88750486, -37.42774106 ], [ 143.88788867, -37.42720092 ], [ 143.888110829999988, -37.42668742 ], [ 143.888238980000011, -37.42598034 ], [ 143.888223040000014, -37.42530153 ], [ 143.88821212, -37.42520781 ], [ 143.88819791, -37.42511454 ], [ 143.888082269848468, -37.424614968625271 ] ] } },
{ "type": "Feature", "properties": { "from_stop": "Ballarat Railway Station", "to_stop": "Creswick Station", "minutes": 35.0, "tier": 45, "centre": "ballarat", "MODE": "REGIONAL TRAIN" }, "geometry": { "type": "LineString", "coordinates": [ [ 143.888082269848468, -37.424614968625271 ], [ 143.88819791, -37.42511454 ], [ 143.88821212, -37.42520781 ], [ 143.888223040000014, -37.42530153 ], [ 143.888238980000011, -37.42598034 ], [ 143.888110829999988, -37.42668742 ], [ 143.88788867, -37.42720092 ], [ 143.88750486, -37.42774106 ], [ 143.88699915, -37.42825636 ], [ 143.88647606, -37.4286402 ], [ 143.88589696, -37.4289684 ], [ 143.885390339999987, -37.42918913 ], [ 143.884855249999987, -37.42935522 ], [ 143.884113, -37.42947647 ], [ 143.88358058, -37.42952098 ], [ 143.883034189999989, -37.4295099 ], [ 143.882373410000014, -37.429432 ], [ 143.881191879999989, -37.42907967 ], [ 143.877405689999989, -37.42779648 ], [ 143.87578303, -37.42734063 ], [ 143.87398514, -37.42713474 ], [ 143.87160638, -37.42712004 ], [ 143.86953187, -37.42689937 ], [ 143.8673468, -37.42617152 ], [ 143.864428479999987, -37.4247738 ], [ 143.86272312, -37.42417546 ], [ 143.86196236, -37.42392882 ], [ 143.860647160000013, -37.4237543 ], [ 143.85959294, -37.42372294 ], [ 143.85839603, -37.42380517 ], [ 143.85756464, -37.42392136 ], [ 143.85565603, -37.42448028 ], [ 143.854125540000013, -37.42534063 ], [ 143.85320361, -37.42624502 ], [ 143.852484409999988, -37.42730383 ], [ 143.85208798, -37.42833322 ], [ 143.85162946, -37.43361899 ], [ 143.850714219999986, -37.44803592 ], [ 143.85040233, -37.45234392 ], [ 143.85038089, -37.45259086 ], [ 143.85031654, -37.45375776 ], [ 143.850241430000011, -37.45493311 ], [ 143.84984132, -37.45894719 ], [ 143.84970345, -37.45986173 ], [ 143.8494144, -37.46128078 ], [ 143.8490962, -37.462998 ], [ 143.84874578, -37.46466633 ], [ 143.848653649999989, -37.46565112 ], [ 143.84871198, -37.46688328 ], [ 143.8488266, -37.4675211 ], [ 143.84900875, -37.46819001 ], [ 143.8495848, -37.47011176 ], [ 143.85047923, -37.47335981 ], [ 143.85222174, -37.479635 ], [ 143.852991589999988, -37.4823948 ], [ 143.85339256, -37.48370547 ], [ 143.85375744000001, -37.48515132 ], [ 143.85390179, -37.4856992 ], [ 143.854061019999989, -37.48659554 ], [ 143.8540284, -37.48802179 ], [ 143.85324972, -37.49659399 ], [ 143.853001619999986, -37.4987016 ], [ 143.85228657, -37.50626364 ], [ 143.85173283, -37.5119028 ], [ 143.851594080000012, -37.51327377 ], [ 143.8510636, -37.51903139 ], [ 143.85091981, -37.52025806 ], [ 143.85071521, -37.52240259 ], [ 143.85069101, -37.52259602 ], [ 143.85058612, -37.52374453 ], [ 143.85043535, -37.52561226 ], [ 143.85028086, -37.52721869 ], [ 143.85021923, -37.52789533 ], [ 143.850071719999988, -37.52940013 ], [ 143.849894940000013, -37.53209699 ], [ 143.84983061, -37.53333488 ], [ 143.849829809999989, -37.53369517 ], [ 143.84985355, -37.53515192 ], [ 143.84985759, -37.53522276 ], [ 143.8499486, -37.53792479 ], [ 143.850023670000013, -37.53874581 ], [ 143.85009879, -37.53921372 ], [ 143.85028064, -37.54005967 ], [ 143.850479650000011, -37.54080453 ], [ 143.85105489, -37.5422888 ], [ 143.85118104, -37.54260635 ], [ 143.85324155, -37.54773057 ], [ 143.853361150000012, -37.5480402 ], [ 143.85343161, -37.54824823 ], [ 143.85349703, -37.54845513 ], [ 143.85356102, -37.54867164 ], [ 143.85367491, -37.54907391 ], [ 143.85370805, -37.54918202 ], [ 143.85386949, -37.54965908 ], [ 143.8539031, -37.54975323 ], [ 143.85395501, -37.5498858 ], [ 143.85404315, -37.55006124 ], [ 143.85418223, -37.55035984 ], [ 143.8542395, -37.55049679 ], [ 143.855895620000013, -37.55465116 ], [ 143.85603176, -37.55498771 ], [ 143.85623155, -37.5554712 ], [ 143.856425589999986, -37.55590318 ], [ 143.85658372, -37.55619878 ], [ 143.85679171000001, -37.55653842 ], [ 143.856897729999986, -37.55669531 ], [ 143.85701008, -37.5568522 ], [ 143.85712505, -37.55699258 ], [ 143.85727462, -37.55715811 ], [ 143.85741657, -37.55729732 ], [ 143.85755266000001, -37.55741744 ], [ 143.85799207, -37.55779577 ], [ 143.858127090000011, -37.55790352 ], [ 143.85832878, -37.55804053 ], [ 143.85849572, -37.55813481 ], [ 143.858695180000012, -37.55823887 ], [ 143.859107849999987, -37.55844051 ], [ 143.859529706674977, -37.558633447433444 ] ] } },
{ "type": "Feature", "properties": { "from_stop": "Bacchus Marsh Railway Station", "to_stop": "Melton Railway Station", "minutes": 52.0, "tier": 60, "centre": "ballarat", "MODE": "REGIONAL TRAIN" }, "geometry": { "type": "LineString", "coordinates": [ [ 144.437516460000012, -37.68779749 ], [ 144.43978758, -37.68831777 ], [ 144.441614249999986, -37.68872897 ], [ 144.44237533, -37.6889039 ], [ 144.444103320000011, -37.68928363 ], [ 144.44491334, -37.68947034 ], [ 144.44560802, -37.68966769 ], [ 144.44627585, -37.68991393 ], [ 144.446951750000011, -37.69022594 ], [ 144.44753386, -37.69055493 ], [ 144.44811323, -37.69095396 ], [ 144.44865234, -37.6913997 ], [ 144.44917535, -37.69192817 ], [ 144.44960991, -37.6924503 ], [ 144.44999879, -37.69306156 ], [ 144.45026435, -37.69360491 ], [ 144.450457449999988, -37.69411849 ], [ 144.45059956, -37.69468728 ], [ 144.45069353, -37.69524764 ], [ 144.450787420000012, -37.69585044 ], [ 144.45089465, -37.69642127 ], [ 144.451079709999988, -37.69699432 ], [ 144.45132375, -37.6975673 ], [ 144.45157995, -37.69810639 ], [ 144.451932699999986, -37.69861152 ], [ 144.45233504, -37.69908258 ], [ 144.452852729999989, -37.69956009 ], [ 144.45342928, -37.70003131 ], [ 144.4540194, -37.70044721 ], [ 144.45469004, -37.70090352 ], [ 144.45530634, -37.70130728 ], [ 144.45546047, -37.70141658 ], [ 144.4559184, -37.70172897 ], [ 144.45707454, -37.70241867 ], [ 144.459112870000013, -37.70320389 ], [ 144.45988272, -37.70340342 ], [ 144.46833974, -37.7056295 ], [ 144.47205725, -37.70666079 ], [ 144.47474746, -37.70757967 ], [ 144.475377900000012, -37.70776214 ], [ 144.475753379999986, -37.70788102 ], [ 144.489604250000014, -37.71264681 ], [ 144.49074417, -37.71304154 ], [ 144.4918922, -37.71339804 ], [ 144.49278806, -37.7136441 ], [ 144.49324945, -37.7137735 ], [ 144.493788489999986, -37.71394122 ], [ 144.49519398000001, -37.7142828 ], [ 144.49612162, -37.7144886 ], [ 144.497084449999988, -37.71466684 ], [ 144.49794825, -37.71480476 ], [ 144.498841270000014, -37.7149342 ], [ 144.49958425, -37.71502539 ], [ 144.50037562, -37.71510823 ], [ 144.50114276, -37.71517614 ], [ 144.501984889999989, -37.71523338 ], [ 144.51659002, -37.7161054 ], [ 144.531725239999986, -37.71699231 ], [ 144.534005079999986, -37.71711961 ], [ 144.53496529, -37.71717899 ], [ 144.53575121, -37.71720237 ], [ 144.53658805, -37.71719176 ], [ 144.53745977, -37.7171451 ], [ 144.53832352, -37.71706871 ], [ 144.539362110000013, -37.71694658 ], [ 144.543790050000013, -37.71636556 ], [ 144.54583036, -37.7160862 ], [ 144.54670753, -37.71591856 ], [ 144.54763022, -37.71569158 ], [ 144.54837852, -37.71547944 ], [ 144.54904645, -37.71524814 ], [ 144.549757230000012, -37.71496591 ], [ 144.550417040000013, -37.71467099 ], [ 144.55108217, -37.71433149 ], [ 144.55165086, -37.71401322 ], [ 144.55227313, -37.71363128 ], [ 144.55279343, -37.71326632 ], [ 144.553563239999988, -37.71269558 ], [ 144.555346859999986, -37.71135243 ], [ 144.56029559000001, -37.70764107 ], [ 144.560791779999988, -37.70722727 ], [ 144.56130414, -37.70677316 ], [ 144.56276589, -37.70536196 ], [ 144.56321381, -37.70497374 ], [ 144.56371536, -37.70459599 ], [ 144.56439936000001, -37.70416732 ], [ 144.56451474, -37.70410743 ], [ 144.56473104, -37.70401359 ], [ 144.565126170000013, -37.70382351 ], [ 144.56550536, -37.70365968 ], [ 144.56597402, -37.70349256 ], [ 144.56647046, -37.70333979 ], [ 144.56698868, -37.70321424 ], [ 144.56740371, -37.70313333 ], [ 144.56784209, -37.70306686 ], [ 144.56840514000001, -37.70301324 ], [ 144.568830709999986, -37.70299508 ], [ 144.569135609999989, -37.70299037 ], [ 144.569726229999986, -37.70301292 ], [ 144.57047463, -37.70307647 ], [ 144.572122561957315, -37.70327439683517 ] ] } },
{ "type": "Feature", "properties": { "from_stop": "Melton Railway Station", "to_stop": "Melton Station", "minutes": 52.0, "tier": 60, "centre": "ballarat", "MODE": "REGIONAL TRAIN" }, "geometry": { "type": "Point", "coordinates": [ 144.57222991, -37.70328729 ] } },
{ "type": "Feature", "properties": { "from_stop": "Cobblebank Railway Station", "to_stop": "Rockbank Railway Station", "minutes": 59.2, "tier": 60, "centre": "ballarat", "MODE": "REGIONAL TRAIN" }, "geometry": { "type": "LineString", "coordinates": [ [ 144.650675631671589, -37.729161091350655 ], [ 144.65000735000001, -37.72886656 ], [ 144.64252944, -37.72560806 ], [ 144.64022272, -37.72460037 ], [ 144.639562930000011, -37.72432033 ], [ 144.63880918000001, -37.72402326 ], [ 144.63810378, -37.72377942 ], [ 144.63562773000001, -37.72296974 ], [ 144.626122149999986, -37.71985253 ], [ 144.61849229, -37.71734787 ], [ 144.61047582, -37.7147334 ], [ 144.609447139999986, -37.71438543 ], [ 144.607683830000013, -37.71376724 ], [ 144.604096757095704, -37.712578934998959 ] ] } },
{ "type": "Feature", "properties": { "from_stop": "Rockbank Railway Station", "to_stop": "Rockbank Station", "minutes": 59.2, "tier": 60, "centre": "ballarat", "MODE": "REGIONAL TRAIN" }, "geometry": { "type": "LineString", "coordinates": [ [ 144.650717998456656, -37.729179763636552 ], [ 144.650675631671589, -37.729161091350655 ] ] } },
{ "type": "Feature", "properties": { "from_stop": "Ballarat Railway Station", "to_stop": "Wendouree Railway Station", "minutes": 2.7, "tier": 15, "centre": "ballarat", "MODE": "REGIONAL TRAIN" }, "geometry": { "type": "LineString", "coordinates": [ [ 143.859529706674977, -37.558633447433444 ], [ 143.859107849999987, -37.55844051 ], [ 143.8586133, -37.55819713 ], [ 143.85844892, -37.55810923 ], [ 143.85832878, -37.55804053 ], [ 143.858127090000011, -37.55790352 ], [ 143.85799207, -37.55779577 ], [ 143.85755266000001, -37.55741744 ], [ 143.85741657, -37.55729732 ], [ 143.85727462, -37.55715811 ], [ 143.85712505, -37.55699258 ], [ 143.85701008, -37.5568522 ], [ 143.856897729999986, -37.55669531 ], [ 143.85679171000001, -37.55653842 ], [ 143.85658372, -37.55619878 ], [ 143.856425589999986, -37.55590318 ], [ 143.85623155, -37.5554712 ], [ 143.85603176, -37.55498771 ], [ 143.85584307, -37.55452029 ], [ 143.85429353, -37.55063014 ], [ 143.85418223, -37.55035984 ], [ 143.85404315, -37.55006124 ], [ 143.85395501, -37.5498858 ], [ 143.85382475, -37.54963581 ], [ 143.85370985, -37.54943236 ], [ 143.85360945, -37.54927697 ], [ 143.853388599999988, -37.54895851 ], [ 143.853240840000012, -37.5487532 ], [ 143.85308788, -37.54854792 ], [ 143.85286871, -37.54826763 ], [ 143.85263889, -37.54798507 ], [ 143.85245694, -37.54777217 ], [ 143.85226974, -37.54756067 ], [ 143.85206543000001, -37.5473387 ], [ 143.85187192, -37.54713703 ], [ 143.85166616, -37.54693097 ], [ 143.851457290000013, -37.5467288 ], [ 143.85106632, -37.546374 ], [ 143.85076505, -37.54611421 ], [ 143.85064287, -37.5460113 ], [ 143.85057993, -37.54596349 ], [ 143.85052307, -37.54591629 ], [ 143.850382489999987, -37.54580712 ], [ 143.84991457000001, -37.54546314 ], [ 143.8496728, -37.5452955 ], [ 143.84943633, -37.54513619 ], [ 143.849083, -37.54491177 ], [ 143.84876122, -37.54471748 ], [ 143.84843077, -37.54452746 ], [ 143.84823947000001, -37.54442144 ], [ 143.84794844000001, -37.54426833 ], [ 143.84767273, -37.54412734 ], [ 143.847238620000013, -37.54392166 ], [ 143.846884319999987, -37.54376326 ], [ 143.846541980000012, -37.5436195 ], [ 143.84618175, -37.54347571 ], [ 143.84585273, -37.54335419 ], [ 143.845522570000014, -37.54323805 ], [ 143.8452806, -37.5431586 ], [ 143.844702860000012, -37.54298079 ], [ 143.84423025000001, -37.5428484 ], [ 143.8435254, -37.54267971 ], [ 143.842895340000013, -37.5425568 ], [ 143.84251364, -37.54249054 ], [ 143.84211668, -37.54242919 ], [ 143.84192589, -37.54240273 ], [ 143.8415358, -37.54235291 ], [ 143.84079121, -37.54226251 ], [ 143.83559573, -37.54163699 ], [ 143.83128682, -37.54112272 ], [ 143.82211602000001, -37.54001891 ], [ 143.82190886, -37.53999179 ], [ 143.82183268, -37.53998469 ], [ 143.821218104851113, -37.53991099851762 ] ] } },
{ "type": "Feature", "properties": { "from_stop": "Wendouree Railway Station", "to_stop": "Wendouree Station", "minutes": 18.0, "tier": 30, "centre": "ballarat", "MODE": "REGIONAL TRAIN" }, "geometry": { "type": "LineString", "coordinates": [ [ 143.821218104851113, -37.53991099851762 ], [ 143.819995104249756, -37.539764352940715 ] ] } }
]
}
