{
"type": "FeatureCollection",
"name": "commute_hulls_regional_train__southern-cross",
"crs": { "type": "name", "properties": { "name": "urn:ogc:def:crs:OGC:1.3:CRS84" } },
"features": [
{ "type": "Feature", "properties": { "MODE": "REGIONAL TRAIN", "transit_time_minutes_nearest_tier": 90.0, "centre": "southern-cross", "centre_name": "Southern Cross" }, "geometry": { "type": "Polygon", "coordinates": [ [ [ 144.218228998205177, -37.598719892357686 ], [ 144.218265478429799, -37.598680873180953 ], [ 144.218307031783581, -37.598645209756711 ], [ 144.218353174127628, -37.598613317594491 ], [ 144.218403367859452, -37.598585568264902 ], [ 144.218457028176488, -37.598562285070649 ], [ 144.2242386395464, -37.596366778831232 ], [ 144.224289901643346, -37.596349714681644 ], [ 144.224343018953022, -37.596336730626192 ], [ 144.224397479934538, -37.596327951706378 ], [ 144.224452760107681, -37.596323462466593 ], [ 144.22450832710345, -37.596323306139872 ], [ 144.224563645790795, -37.596327484231736 ], [ 144.224618183429897, -37.596335956505555 ], [ 144.230837984968076, -37.597556842064762 ], [ 144.230895827519618, -37.597570839375742 ], [ 144.2309514647485, -37.59758966387173 ], [ 144.231004262387074, -37.597613100952927 ], [ 144.231053618537572, -37.597640883435737 ], [ 144.231098970533623, -37.597672694598423 ], [ 144.244285290104955, -37.607965940764558 ], [ 144.259651469710008, -37.618424897930687 ], [ 144.308944673673238, -37.646397555959034 ], [ 144.31844595590519, -37.650852079351061 ], [ 144.443430637734053, -37.681154245760133 ], [ 144.569433946070234, -37.695577826414961 ], [ 144.573110319751777, -37.694588112639671 ], [ 144.712080428044004, -37.596438295970927 ], [ 144.713145573057375, -37.594437621832107 ], [ 144.712359798302117, -37.592332686278226 ], [ 144.597596764635142, -37.467727762506236 ], [ 144.57555694736962, -37.454183898049564 ], [ 144.575512812474415, -37.454153759714139 ], [ 144.575472792982282, -37.454120167651418 ], [ 144.575437312002862, -37.454083477021221 ], [ 144.552820991563834, -37.428016828306014 ], [ 144.55279202854507, -37.427979702653474 ], [ 144.552767714276257, -37.427940512956781 ], [ 144.516257678613442, -37.361053374336748 ], [ 144.516239234993805, -37.361014815825563 ], [ 144.516225289062675, -37.360975071941681 ], [ 144.516215957832713, -37.360934476174577 ], [ 144.516211319594333, -37.360893369161289 ], [ 144.516018161738685, -37.357391794949791 ], [ 144.516018753781111, -37.357343372145948 ], [ 144.516025852492533, -37.357295279719516 ], [ 144.516039375865603, -37.357248073172308 ], [ 144.516059167684233, -37.35720229777251 ], [ 144.517451751213343, -37.354467570432263 ], [ 144.517475871588687, -37.354426310677894 ], [ 144.517505085061401, -37.354387204841132 ], [ 144.517539093311797, -37.354350652249565 ], [ 144.517577549060036, -37.35431702615783 ], [ 144.520359712962573, -37.352118369328167 ], [ 144.520406343102763, -37.352085380460224 ], [ 144.520457243853969, -37.35205669561573 ], [ 144.520511794941029, -37.352032664344932 ], [ 144.5205693316083, -37.352013579489885 ], [ 144.524710515196546, -37.350849351444538 ], [ 144.52477033463407, -37.350835443488947 ], [ 144.524831709811281, -37.350826883917286 ], [ 144.524893892819222, -37.350823777035231 ], [ 144.524956125905362, -37.350826160702809 ], [ 144.528850048446657, -37.351147936261263 ], [ 144.52890065591501, -37.351153979055745 ], [ 144.528950369848587, -37.351163656073396 ], [ 144.528998781620118, -37.351176887773292 ], [ 144.529045493304949, -37.351193565396564 ], [ 144.529090120951736, -37.351213551860226 ], [ 144.533000619401122, -37.353155859871407 ], [ 144.533043479616083, -37.353179401159416 ], [ 144.533083442495212, -37.353205992846114 ], [ 144.533120168508447, -37.353235409006921 ], [ 144.533153345625323, -37.353267399720188 ], [ 144.549581253345593, -37.370678266409605 ], [ 144.705786518794582, -37.460129207559426 ], [ 144.712949990235245, -37.462217632059996 ], [ 144.713003355455214, -37.462235712435849 ], [ 144.751575934552449, -37.477201159718575 ], [ 144.75162945494364, -37.477224849708314 ], [ 144.751679447320754, -37.477253012990246 ], [ 144.751725325438116, -37.477285319304301 ], [ 144.751766551294565, -37.477321389806157 ], [ 144.754246330583783, -37.479742249142767 ], [ 144.754281040044162, -37.479779972269483 ], [ 144.754310654640449, -37.479820360061808 ], [ 144.754334855148358, -37.479862977179458 ], [ 144.76344186276404, -37.498402879254549 ], [ 144.765038682654762, -37.499780680878096 ], [ 144.958754878918086, -37.536700828224333 ], [ 144.962066525375803, -37.536174751625509 ], [ 144.978308485913431, -37.511352861617134 ], [ 144.987306356128784, -37.488938446489897 ], [ 144.992223444396529, -37.470786574440503 ], [ 144.996309812833374, -37.447375913860732 ], [ 144.995588880609631, -37.413676992664378 ], [ 144.975217120387924, -37.298679253525876 ], [ 144.97357059144187, -37.294617764257431 ], [ 144.973555924684973, -37.29457427867171 ], [ 144.973546764831298, -37.294529840565417 ], [ 144.973543203382576, -37.294484893897177 ], [ 144.973545275909487, -37.294439887705643 ], [ 144.973865485083138, -37.291498909447419 ], [ 144.973874727202258, -37.29144795989292 ], [ 144.973891183218711, -37.291398185195789 ], [ 144.973914638293877, -37.291350235138779 ], [ 144.995410005746265, -37.253855410937916 ], [ 144.995442111558503, -37.253807300484119 ], [ 145.03428666880481, -37.203188376422503 ], [ 145.078718769447335, -37.12045721235927 ], [ 145.112862529499978, -37.047955100004977 ], [ 145.112881023274497, -37.047920290890296 ], [ 145.128841533435804, -37.021055844098804 ], [ 145.128874323093584, -37.021008259293524 ], [ 145.128914020833435, -37.020964187153261 ], [ 145.131382600205541, -37.018545484105488 ], [ 145.131419749461458, -37.018512540088331 ], [ 145.131460762810917, -37.018482688717526 ], [ 145.131505241794088, -37.018456220007181 ], [ 145.131552754282779, -37.018433391107706 ], [ 145.135390124101548, -37.016789926739634 ], [ 145.135438242796056, -37.016771612188037 ], [ 145.135488307735244, -37.016757033217374 ], [ 145.135539869114439, -37.016746320811109 ], [ 145.135592463684816, -37.016739571213776 ], [ 145.139251301220611, -37.016411662112425 ], [ 145.139306339672174, -37.016408911938477 ], [ 145.139361449258701, -37.016410500968078 ], [ 145.139416099254049, -37.016416413898227 ], [ 145.139469763357965, -37.016426593785205 ], [ 145.143006628147361, -37.01724632205876 ], [ 145.143054513653226, -37.017259317585605 ], [ 145.143100748912815, -37.017275711474454 ], [ 145.143144959731785, -37.017295371045599 ], [ 145.143186788299374, -37.017318137189221 ], [ 145.143225896083976, -37.017343825653064 ], [ 145.14326196657322, -37.017372228533638 ], [ 145.147593448921782, -37.021104103218732 ], [ 145.147626193537121, -37.021134989429164 ], [ 145.147655343887919, -37.021168110333107 ], [ 145.147680664047186, -37.021203197873483 ], [ 145.147701949085814, -37.021239968076195 ], [ 145.147719026731352, -37.021278123348466 ], [ 145.147731758762546, -37.02131735488728 ], [ 145.148497804262661, -37.024205007111426 ], [ 145.14850600950021, -37.02424447385917 ], [ 145.148509816075091, -37.024284368625686 ], [ 145.148509193967755, -37.024324376864655 ], [ 145.148504148076256, -37.024364183134587 ], [ 145.148070434109997, -37.026733951849998 ], [ 145.148061708383437, -37.026770848600009 ], [ 145.148049181056678, -37.02680703464975 ], [ 145.148032939136669, -37.026842258658448 ], [ 145.112200180726262, -37.095530667113849 ], [ 145.071485053962903, -37.197613399350516 ], [ 145.036720667192782, -37.354072789029104 ], [ 145.038292180168128, -37.371777133219801 ], [ 145.038293408674178, -37.371820467797214 ], [ 145.038289414045863, -37.371863696062455 ], [ 145.03586040820349, -37.387705997398825 ], [ 145.035851299068554, -37.387748448547349 ], [ 145.035837151901688, -37.387790011780147 ], [ 144.997480466476617, -37.482229351943474 ], [ 144.979878460821993, -37.54424038665838 ], [ 144.979859244889042, -37.544292950891496 ], [ 144.953248792971038, -37.603379424695049 ], [ 144.937534800191202, -37.646204355058543 ], [ 144.930006702386947, -37.684367606140128 ], [ 144.997461543499099, -37.818447945875086 ], [ 145.088340032796197, -37.896390254051575 ], [ 145.1271501689898, -37.91840435074478 ], [ 145.127206172669929, -37.918440576490084 ], [ 145.215572863468822, -37.98335101823109 ], [ 145.349839096985448, -38.03252705289605 ], [ 145.488090517687453, -38.072673332855501 ], [ 145.510584638547869, -38.076873148226582 ], [ 145.51063443472745, -38.076884350588635 ], [ 145.510682739153367, -38.076899079283166 ], [ 145.510729153095184, -38.076917212731907 ], [ 145.51077329342661, -38.076938601251896 ], [ 145.513864475310896, -38.078593632100002 ], [ 145.51391326525075, -38.078622895245182 ], [ 145.513957800417899, -38.078656128248113 ], [ 145.513997566399155, -38.07869294724798 ], [ 145.514032103866185, -38.078732926962999 ], [ 145.516331655743897, -38.081728602395913 ], [ 145.516360568214139, -38.081771280419531 ], [ 145.516383519123593, -38.081816164512574 ], [ 145.516400243363279, -38.081862736234051 ], [ 145.51641054774521, -38.081910457648867 ], [ 145.516840040426899, -38.08484206792577 ], [ 145.516843740067713, -38.084886175787233 ], [ 145.516841951989363, -38.084930357871954 ], [ 145.516834693402359, -38.084974188682132 ], [ 145.516822034201596, -38.085017246102119 ], [ 145.515799400335766, -38.087855603834534 ], [ 145.515783042835352, -38.08789426697335 ], [ 145.51576232946104, -38.087931602902572 ], [ 145.515737429872303, -38.087967305798962 ], [ 145.515708548019319, -38.088001083215339 ], [ 145.515675920472461, -38.088032658475939 ], [ 145.51563981448453, -38.088061772942936 ], [ 145.510873252333312, -38.091572178652044 ], [ 145.510827411603941, -38.091602545755784 ], [ 145.510777796372878, -38.091628948835321 ], [ 145.51072495308631, -38.091651097093873 ], [ 145.510669463745018, -38.091668746595921 ], [ 145.510611939494396, -38.091681702953991 ], [ 145.510553013892775, -38.091689823469736 ], [ 145.504498365177596, -38.092267329893666 ], [ 145.504447797190295, -38.092270355935817 ], [ 145.504397089020244, -38.092269817681178 ], [ 145.504346642111898, -38.092265719390952 ], [ 145.504296855841233, -38.092258093510338 ], [ 145.483610355341881, -38.088325545654357 ], [ 145.483576159496891, -38.088318145195657 ], [ 145.380275567862952, -38.063154930738364 ], [ 145.380228679669216, -38.063141684839948 ], [ 145.380183433312141, -38.063125252879082 ], [ 145.340535723743017, -38.047022131468857 ], [ 145.255578660381218, -38.018443620823724 ], [ 145.255533493035045, -38.018426511765888 ], [ 145.204914560344832, -37.997022182788811 ], [ 145.204873200016436, -37.997002861405328 ], [ 145.204834045175176, -37.996980849667892 ], [ 145.204797374565629, -37.996956304279905 ], [ 145.115053664936596, -37.931460528127047 ], [ 145.036214701167609, -37.883722257611467 ], [ 145.036198209183823, -37.883711870082941 ], [ 144.947764778339291, -37.825782925406962 ], [ 144.900418742924529, -37.80966437930833 ], [ 144.898079146274, -37.809438482226881 ], [ 144.7183204693996, -37.832448733679563 ], [ 144.71520106656547, -37.83401983628287 ], [ 144.600003448263465, -37.92232797828725 ], [ 144.593083128160231, -37.928701020187567 ], [ 144.593044673210898, -37.928733099263006 ], [ 144.59300243144429, -37.928762036192168 ], [ 144.592956810194465, -37.928787551935834 ], [ 144.592908249385346, -37.928809400444997 ], [ 144.560720706119241, -37.941672037204633 ], [ 144.502958189570961, -37.970218691833075 ], [ 144.422790451536173, -38.027304384882775 ], [ 144.363603587256421, -38.202835804237594 ], [ 144.363586854109542, -38.202877182220355 ], [ 144.363565148123456, -38.202917096036131 ], [ 144.363538671128623, -38.202955174536925 ], [ 144.363507669321081, -38.202991063640255 ], [ 144.363472430973161, -38.203024429621919 ], [ 144.361419862404915, -38.204787564345622 ], [ 144.361374890498581, -38.204822162857155 ], [ 144.3613253734502, -38.204852653116035 ], [ 144.34614097254908, -38.213182160791973 ], [ 144.346098802014239, -38.213203193765729 ], [ 144.346054465009985, -38.213221241511604 ], [ 144.346008300152931, -38.213236166192395 ], [ 144.309238710262349, -38.223660555297883 ], [ 144.309190450669632, -38.223672354125796 ], [ 144.309141057799394, -38.223680741191885 ], [ 144.309090918425255, -38.223685650820784 ], [ 144.305361865296192, -38.223919170990996 ], [ 144.305307526280586, -38.223920524676345 ], [ 144.305253270392171, -38.223917795181478 ], [ 144.305199589551961, -38.223911007253875 ], [ 144.305146970466808, -38.223900222437464 ], [ 144.301785317240586, -38.223074538404681 ], [ 144.30172877356344, -38.223058018651138 ], [ 144.301674753638252, -38.223036886879015 ], [ 144.301623859944698, -38.223011378769904 ], [ 144.301576660094156, -38.222981778814301 ], [ 144.301533680498892, -38.222948417138497 ], [ 144.297175098063349, -38.219187442416967 ], [ 144.297142182159746, -38.219156336246179 ], [ 144.297112943040901, -38.219123022149205 ], [ 144.297087617347245, -38.219087769752122 ], [ 144.297066410045318, -38.219050864368086 ], [ 144.297049492768707, -38.219012604688288 ], [ 144.29703700242942, -38.218973300364318 ], [ 144.296291526709894, -38.216081508480805 ], [ 144.296283639247378, -38.216042001297581 ], [ 144.296280224914568, -38.216002097852311 ], [ 144.296281310624323, -38.215962112760522 ], [ 144.296286887809316, -38.215922361280974 ], [ 144.296754311401543, -38.213556807025704 ], [ 144.296767071352463, -38.213509255125679 ], [ 144.296786251463317, -38.213463064918933 ], [ 144.342977565273259, -38.11953502549396 ], [ 144.342986492662874, -38.119517899882624 ], [ 144.370784976511061, -38.069120028786649 ], [ 144.370806889645365, -38.069084594206394 ], [ 144.405925026405157, -38.01804471221665 ], [ 144.40595686189738, -38.018003773641439 ], [ 144.40599402991262, -38.017965751630392 ], [ 144.406036107274048, -38.017931079075808 ], [ 144.406082614912378, -38.01790015073486 ], [ 144.446417949051323, -37.993846390132781 ], [ 144.465484393601628, -37.979896852357093 ], [ 144.491264194604071, -37.957312688152953 ], [ 144.491296946832534, -37.957286253993992 ], [ 144.491332330499489, -37.957262039057191 ], [ 144.491370106505201, -37.957240206969644 ], [ 144.496128886730645, -37.954720410434902 ], [ 144.597928043474241, -37.870727531885223 ], [ 144.598988116425033, -37.869200197752569 ], [ 144.604047385061335, -37.852226511619079 ], [ 144.496854969549133, -37.718631762360772 ], [ 144.493524068949711, -37.717868821039076 ], [ 144.397883508410075, -37.729936196058127 ], [ 144.397819254554463, -37.729941320362052 ], [ 144.397754683765385, -37.729940610970949 ], [ 144.397690632949974, -37.729934077079264 ], [ 144.391703355355389, -37.729045514700104 ], [ 144.391648232983357, -37.729035044702648 ], [ 144.391594701314972, -37.729020257865422 ], [ 144.391543294809679, -37.729001301820219 ], [ 144.3914945267083, -37.728978365824133 ], [ 144.391448883908595, -37.728951678869848 ], [ 144.39140682210396, -37.728921507399377 ], [ 144.284889128339927, -37.64432444906258 ], [ 144.218439300107235, -37.610045579604744 ], [ 144.218393135807986, -37.610019023951672 ], [ 144.218350558710483, -37.609988913048916 ], [ 144.218311999642793, -37.609955551585024 ], [ 144.218277848773482, -37.60991927714015 ], [ 144.216205800819438, -37.607470634334852 ], [ 144.21617706507692, -37.607432789583761 ], [ 144.216153130395298, -37.607392886286057 ], [ 144.216134227272704, -37.607351308735161 ], [ 144.216120537749191, -37.607308457347997 ], [ 144.215384173633822, -37.604415373989177 ], [ 144.215375830282341, -37.604371661353674 ], [ 144.215372912505359, -37.604327508575601 ], [ 144.215375448393189, -37.604283340870744 ], [ 144.215383413514388, -37.604239583597902 ], [ 144.216094684009136, -37.601342530584517 ], [ 144.216108000733669, -37.601299605026071 ], [ 144.216126541521248, -37.601257924668978 ], [ 144.216150127806685, -37.601217890915549 ], [ 144.216178532434981, -37.601179889309869 ], [ 144.218228998205177, -37.598719892357686 ] ] ] } },
{ "type": "Feature", "properties": { "MODE": "REGIONAL TRAIN", "transit_time_minutes_nearest_tier": 75.0, "centre": "southern-cross", "centre_name": "Southern Cross" }, "geometry": { "type": "Polygon", "coordinates": [ [ [ 144.218228998205177, -37.598719892357686 ], [ 144.218265478429799, -37.598680873180953 ], [ 144.218307031783581, -37.598645209756711 ], [ 144.218353174127628, -37.598613317594491 ], [ 144.218403367859452, -37.598585568264902 ], [ 144.218457028176488, -37.598562285070649 ], [ 144.2242386395464, -37.596366778831232 ], [ 144.224289901643346, -37.596349714681644 ], [ 144.224343018953022, -37.596336730626192 ], [ 144.224397479934538, -37.596327951706378 ], [ 144.224452760107681, -37.596323462466593 ], [ 144.22450832710345, -37.596323306139872 ], [ 144.224563645790795, -37.596327484231736 ], [ 144.224618183429897, -37.596335956505555 ], [ 144.230837984968076, -37.597556842064762 ], [ 144.230892061799182, -37.597569762185806 ], [ 144.230944252660407, -37.597586903132544 ], [ 144.230994038630541, -37.597608094476996 ], [ 144.231040924698306, -37.597633125519067 ], [ 144.2310844446842, -37.59766174738121 ], [ 144.259206374762982, -37.618108851073707 ], [ 144.309453780793689, -37.646626475980199 ], [ 144.318022790442569, -37.650646255479899 ], [ 144.442400145054137, -37.680741581903646 ], [ 144.574084638076783, -37.695482888194384 ], [ 144.574142508527729, -37.695491791930905 ], [ 144.574198902880795, -37.695505421819774 ], [ 144.603402096186869, -37.703899863597222 ], [ 144.606258603638423, -37.703873909911799 ], [ 144.713083080919574, -37.620039190578773 ], [ 144.714209546935194, -37.618406637362384 ], [ 144.714716558503483, -37.595046013321934 ], [ 144.714721965752915, -37.594991193921224 ], [ 144.717706531461488, -37.578060342668685 ], [ 144.672866854843676, -37.471339733873812 ], [ 144.669987708497928, -37.466686887876364 ], [ 144.669964396680939, -37.466643657077327 ], [ 144.669946868589875, -37.46659872410951 ], [ 144.669935315394838, -37.466552579060988 ], [ 144.669929863096428, -37.466505725239131 ], [ 144.669930571151809, -37.466458673681188 ], [ 144.670226646585007, -37.462789687286048 ], [ 144.670232547107702, -37.462747587851744 ], [ 144.670243381637079, -37.462706116212047 ], [ 144.670259054392062, -37.46266563896036 ], [ 144.670279426824152, -37.462626513899579 ], [ 144.670304318842312, -37.462589086879113 ], [ 144.672697696607941, -37.459366169701831 ], [ 144.672728074651133, -37.459329472022986 ], [ 144.672762795024937, -37.45929530934535 ], [ 144.672801527098272, -37.459264006983808 ], [ 144.672843902039915, -37.459235863015429 ], [ 144.67288951633077, -37.459211145441209 ], [ 144.676825666908485, -37.457295003904584 ], [ 144.676870564498472, -37.457275315914842 ], [ 144.676917514346769, -37.457258950424773 ], [ 144.6769661305444, -37.457246041951777 ], [ 144.677016013486451, -37.45723669659796 ], [ 144.677066753156566, -37.457230991178101 ], [ 144.680969350346317, -37.456935164948845 ], [ 144.681022606883971, -37.456933140889426 ], [ 144.681075865708806, -37.456935126336198 ], [ 144.68112865287975, -37.456941103620998 ], [ 144.71039907551642, -37.461383282989921 ], [ 144.710446387101911, -37.461392152485793 ], [ 144.71049256791602, -37.4614042290859 ], [ 144.710537276508433, -37.461419423498732 ], [ 144.750818992504776, -37.476762896991552 ], [ 144.750867677495194, -37.476783819086108 ], [ 144.750913564114938, -37.476808432646358 ], [ 144.750956213125448, -37.476836502066519 ], [ 144.750995216278028, -37.476867758660305 ], [ 144.754228259777307, -37.47972546664402 ], [ 144.754259922213151, -37.479756057747274 ], [ 144.754288086850721, -37.479788749039919 ], [ 144.754312535515339, -37.479823287287253 ], [ 144.754333078816245, -37.479859404947319 ], [ 144.762604060097033, -37.496283713280228 ], [ 144.762620555322144, -37.496321152377476 ], [ 144.762632852414754, -37.49635960260192 ], [ 144.762640855995528, -37.496398765744303 ], [ 144.763901157026908, -37.50491427213565 ], [ 144.763904819134154, -37.504954204191861 ], [ 144.763904016908754, -37.504994237581393 ], [ 144.763898756678856, -37.505034056160362 ], [ 144.757103570777531, -37.541004763101292 ], [ 144.756066557750444, -37.558620534532793 ], [ 144.756061007398188, -37.558665790966963 ], [ 144.756049755130903, -37.558710371530488 ], [ 144.756032915554584, -37.558753822124658 ], [ 144.752318336723846, -37.566860327209696 ], [ 144.746717440948089, -37.659780530463507 ], [ 144.758691915985224, -37.675864703109617 ], [ 144.778550776497696, -37.693080271973031 ], [ 144.780522550648271, -37.694025897047084 ], [ 144.782824798670617, -37.693976366646204 ], [ 144.921982850592741, -37.658132550709482 ], [ 144.924116296203778, -37.655935979374625 ], [ 144.932977012695659, -37.632472325749944 ], [ 144.933431311220431, -37.600152065483293 ], [ 144.933434483922326, -37.600109211494242 ], [ 144.933442768372601, -37.600066792282384 ], [ 144.933456089351239, -37.600025192956203 ], [ 144.933474325914034, -37.599984791180056 ], [ 144.933497312490772, -37.59994595374566 ], [ 144.953124011543906, -37.570498053369498 ], [ 144.955550028418912, -37.564747742484172 ], [ 144.960507510027412, -37.539673112123204 ], [ 144.960519458310188, -37.539627897316031 ], [ 144.960537159202346, -37.539583894705544 ], [ 144.96056042653359, -37.539541567067509 ], [ 144.978428219593383, -37.511090870003791 ], [ 144.987418593984813, -37.488602951184433 ], [ 144.992223438296378, -37.47078666880136 ], [ 144.996274024587109, -37.447664956008452 ], [ 144.995588841534413, -37.413676772426776 ], [ 144.975217120387924, -37.298679253525876 ], [ 144.97357059144187, -37.294617764257431 ], [ 144.973557064752924, -37.294578392584668 ], [ 144.97354805443868, -37.294538204325384 ], [ 144.9735436344709, -37.294497529444556 ], [ 144.973543841132255, -37.29445670190205 ], [ 144.97369176302746, -37.292064610485582 ], [ 144.973696899781544, -37.292022257758177 ], [ 144.973707014126688, -37.291980481018058 ], [ 144.973722015853923, -37.291939652835367 ], [ 144.973741771168392, -37.291900137320276 ], [ 144.995409425864864, -37.25385642631295 ], [ 144.99544226069807, -37.253807106402817 ], [ 145.034599994670259, -37.202837585293956 ], [ 145.034629318361027, -37.202803077541432 ], [ 145.034662506785395, -37.202770887457106 ], [ 145.03667241927721, -37.200995660841564 ], [ 145.036707607231989, -37.200967226736871 ], [ 145.036745809604611, -37.200941401604759 ], [ 145.036786725192968, -37.200918389058494 ], [ 145.036830031404151, -37.20089837053586 ], [ 145.040104170255319, -37.199536186703966 ], [ 145.040154403750932, -37.199517731963333 ], [ 145.04020665660579, -37.199503304768598 ], [ 145.040260425603691, -37.199493044059231 ], [ 145.040315192928205, -37.199487048649821 ], [ 145.043991709594565, -37.199230724601648 ], [ 145.044045302584209, -37.199229037681633 ], [ 145.044098853193162, -37.199231435896401 ], [ 145.044151875912206, -37.199237897502897 ], [ 145.044203890017883, -37.199248363917782 ], [ 145.047528292200894, -37.200053661153973 ], [ 145.047584236308865, -37.200069837353617 ], [ 145.04763773589039, -37.20009064280692 ], [ 145.047688194283552, -37.200115845478877 ], [ 145.047735048742112, -37.200145164293701 ], [ 145.047777776711371, -37.200178272269547 ], [ 145.05211497573859, -37.203913490679049 ], [ 145.052147760219896, -37.203944402062149 ], [ 145.052176939008319, -37.20397754516447 ], [ 145.052202275946684, -37.204012651749224 ], [ 145.052223565970024, -37.204049437688219 ], [ 145.052240636765561, -37.2040876052613 ], [ 145.052253350167348, -37.204126845565874 ], [ 145.053017613719049, -37.20701500516293 ], [ 145.053025789165503, -37.207054477020769 ], [ 145.053029554854817, -37.207094373344006 ], [ 145.053028881089887, -37.207134379574029 ], [ 145.053023773175937, -37.207174180285215 ], [ 145.052586046734319, -37.209543510705899 ], [ 145.05257478681213, -37.209588486221868 ], [ 145.052557868526947, -37.209632313113651 ], [ 145.052535467184782, -37.209674537225339 ], [ 145.052507814910996, -37.209714721009178 ], [ 145.033675367497693, -37.234050454344221 ], [ 145.035328916274693, -37.350267807805722 ], [ 145.03660604003457, -37.354458819986434 ], [ 145.036614976416473, -37.354494288744021 ], [ 145.036620319236192, -37.354530215507026 ], [ 145.038291785621453, -37.371597100215261 ], [ 145.038293394609326, -37.371641051623804 ], [ 145.038289628174795, -37.371684918915989 ], [ 145.036016143545254, -37.387088484274337 ], [ 145.036007047319146, -37.387131802092746 ], [ 145.035992708613037, -37.387174207409942 ], [ 144.997480511182999, -37.482229194311273 ], [ 144.979878460821993, -37.54424038665838 ], [ 144.979859244889042, -37.544292950891496 ], [ 144.953248816740029, -37.603379371962163 ], [ 144.937448514547043, -37.646479180123727 ], [ 144.929681012742748, -37.683827150944175 ], [ 144.931763463235171, -37.729580223107554 ], [ 144.996577161160388, -37.817783092957463 ], [ 145.088339892686832, -37.896390174531717 ], [ 145.1271501689898, -37.91840435074478 ], [ 145.127206428645195, -37.918440764893674 ], [ 145.215179012309363, -37.983141754913255 ], [ 145.349773556650206, -38.03252675197897 ], [ 145.349819919278445, -38.032545815202106 ], [ 145.349863877785566, -38.032568159187697 ], [ 145.349905062124691, -38.032593595843132 ], [ 145.353092857245741, -38.034755693785662 ], [ 145.353129865100954, -38.034783147664072 ], [ 145.353163636826793, -38.034813097689849 ], [ 145.353193904380419, -38.034845306156086 ], [ 145.353220427529919, -38.034879517430817 ], [ 145.355023203849129, -38.037455663943639 ], [ 145.355047795374247, -38.037495265218055 ], [ 145.355067370674817, -38.037536579215399 ], [ 145.355081741956383, -38.03757920960976 ], [ 145.355090771345829, -38.037622747446356 ], [ 145.355513729290351, -38.040554992939306 ], [ 145.355517332237014, -38.040599106658931 ], [ 145.355515450541134, -38.040643287253026 ], [ 145.355508102314985, -38.040687109238128 ], [ 145.355495358316659, -38.040730150583549 ], [ 145.354467245302146, -38.04356719674513 ], [ 145.3544511661363, -38.043605119430701 ], [ 145.354430896609387, -38.04364176462397 ], [ 145.354406596529742, -38.043676843397172 ], [ 145.354378457485382, -38.043710079172591 ], [ 145.352583927057537, -38.045638511655113 ], [ 145.352552169350076, -38.045669641882945 ], [ 145.352517044881779, -38.045698421567842 ], [ 145.352478830588126, -38.045724623796225 ], [ 145.352437827767375, -38.045748041976303 ], [ 145.349318322907379, -38.047367996624075 ], [ 145.34927161918668, -38.047389805724976 ], [ 145.349222504135042, -38.047408003233919 ], [ 145.349171423060824, -38.04742242416021 ], [ 145.34911883909848, -38.047432937754103 ], [ 145.345676250804416, -38.047984784014332 ], [ 145.345622640024658, -38.047991293417695 ], [ 145.345568489365377, -38.047993741118411 ], [ 145.345514289793442, -38.047992104923971 ], [ 145.345460532719244, -38.047986399669234 ], [ 145.341789503475894, -38.047454966263594 ], [ 145.341728374430488, -38.047443326134101 ], [ 145.341669240114157, -38.047426429115085 ], [ 145.255578506937525, -38.018443569112037 ], [ 145.255533184351947, -38.018426381244751 ], [ 145.204257137754979, -37.996711891696854 ], [ 145.204215684992249, -37.9966924945454 ], [ 145.20417645241389, -37.996670394120208 ], [ 145.204139720813629, -37.996645748598553 ], [ 145.115053372247047, -37.931460351108754 ], [ 145.036214701167609, -37.883722257611467 ], [ 145.036198291287548, -37.883711923783196 ], [ 144.947416081590831, -37.825576389073277 ], [ 144.899177442748623, -37.809256737284841 ], [ 144.867303829119294, -37.803060600784953 ], [ 144.719184092764777, -37.831959722990185 ], [ 144.715203529420819, -37.834017944878966 ], [ 144.600003448263465, -37.92232797828725 ], [ 144.593083128160231, -37.928701020187567 ], [ 144.593044673210898, -37.928733099263006 ], [ 144.59300243144429, -37.928762036192168 ], [ 144.592956810194465, -37.928787551935834 ], [ 144.592908249385346, -37.928809400444997 ], [ 144.560720706119241, -37.941672037204633 ], [ 144.502958027600272, -37.970218771810408 ], [ 144.422402206175434, -38.027503733118991 ], [ 144.38911062049462, -38.07611683998617 ], [ 144.368415586394207, -38.161602730166706 ], [ 144.368401813131698, -38.161647186223874 ], [ 144.36838239725796, -38.161690309279336 ], [ 144.368357539214827, -38.161731654126577 ], [ 144.36832749563078, -38.161770793916865 ], [ 144.366107275093867, -38.164356866446049 ], [ 144.36607255740816, -38.164393204467693 ], [ 144.366033371896492, -38.164426590619826 ], [ 144.365990118702825, -38.164456683974244 ], [ 144.365943239510528, -38.164483177227233 ], [ 144.362797714441825, -38.166077385936404 ], [ 144.362749170703097, -38.16609941025137 ], [ 144.362698126345066, -38.166117571966154 ], [ 144.362645072959225, -38.166131696170758 ], [ 144.362590521486339, -38.166141646839144 ], [ 144.358911623228352, -38.166664031490129 ], [ 144.358850778206943, -38.166670027052142 ], [ 144.358789469581666, -38.166670832708604 ], [ 144.358728405524914, -38.166666439153431 ], [ 144.358668291383822, -38.166656897136271 ], [ 144.354370626519085, -38.165782582039149 ], [ 144.354317160521987, -38.165769464048566 ], [ 144.35426558060783, -38.165752271752623 ], [ 144.354216383526136, -38.165731170725145 ], [ 144.354170043076977, -38.16570636418362 ], [ 144.351746648768881, -38.164267109027897 ], [ 144.351707558313308, -38.164241670317786 ], [ 144.351671480164214, -38.164213594160515 ], [ 144.351638698776696, -38.164183101922674 ], [ 144.3516094726115, -38.1641504340203 ], [ 144.349590745494424, -38.161666786301367 ], [ 144.349559074601615, -38.16162250440911 ], [ 144.349533927645496, -38.161575686046035 ], [ 144.349515625162297, -38.161526928006246 ], [ 144.344971508990795, -38.146313515787519 ], [ 144.344958961289421, -38.146253747300136 ], [ 144.342170688165083, -38.123616346296984 ], [ 144.342168012041924, -38.123571438002827 ], [ 144.342171016228605, -38.123526542657054 ], [ 144.342569111828482, -38.120476167673601 ], [ 144.342578068582498, -38.120430575593524 ], [ 144.342592881933143, -38.120385946495837 ], [ 144.342613396453771, -38.120342748613169 ], [ 144.37078473417489, -38.069120469104028 ], [ 144.370806889645365, -38.069084594206394 ], [ 144.405925026405157, -38.01804471221665 ], [ 144.40595686189738, -38.018003773641439 ], [ 144.40599402991262, -38.017965751630392 ], [ 144.406036107274048, -38.017931079075808 ], [ 144.406082614912378, -38.01790015073486 ], [ 144.446417949051323, -37.993846390132767 ], [ 144.465484393601628, -37.979896852357093 ], [ 144.491264194604071, -37.957312688152953 ], [ 144.491296946832534, -37.957286253993992 ], [ 144.491332330499489, -37.957262039057191 ], [ 144.491370106505201, -37.957240206969644 ], [ 144.496128528725848, -37.954720600013673 ], [ 144.598688259977877, -37.869845138242866 ], [ 144.605663957579765, -37.848494666754398 ], [ 144.605680270404946, -37.848453109089014 ], [ 144.605701564581921, -37.848412993652836 ], [ 144.605727641338007, -37.848374694893003 ], [ 144.60965932379122, -37.843212953106885 ], [ 144.609688189256048, -37.843178697686312 ], [ 144.609720880350466, -37.843146676761343 ], [ 144.609757123650098, -37.843117158146612 ], [ 144.615431954804706, -37.838899154036383 ], [ 144.616304896209442, -37.836829667408971 ], [ 144.599988196449544, -37.722416101400377 ], [ 144.598623834504849, -37.720612636481249 ], [ 144.596121649426919, -37.719857246699704 ], [ 144.548275506009645, -37.718709238517441 ], [ 144.535683262021109, -37.720078929714802 ], [ 144.53562229223536, -37.720082912995721 ], [ 144.535561137027315, -37.720081656738607 ], [ 144.496102255592064, -37.717568098459147 ], [ 144.398619421430681, -37.729859042590775 ], [ 144.398569233960359, -37.729863540853266 ], [ 144.398518741646228, -37.729864475592564 ], [ 144.398468344800165, -37.729861839397905 ], [ 144.39251785014261, -37.729338273477836 ], [ 144.39246450187531, -37.729331522527502 ], [ 144.39241220414101, -37.7293207713996 ], [ 144.392361431293722, -37.729306117609674 ], [ 144.392312643855689, -37.729287694071409 ], [ 144.392266284340138, -37.72926566789107 ], [ 144.388698343085736, -37.727381553871496 ], [ 144.388652420710685, -37.727354558066494 ], [ 144.388610150426331, -37.727324029976025 ], [ 144.284888226826638, -37.644323984470631 ], [ 144.218439300107235, -37.610045579604744 ], [ 144.218393135807986, -37.610019023951672 ], [ 144.218350558710483, -37.609988913048916 ], [ 144.218311999642793, -37.609955551585024 ], [ 144.218277848773482, -37.60991927714015 ], [ 144.216205800819438, -37.607470634334852 ], [ 144.21617706507692, -37.607432789583761 ], [ 144.216153130395298, -37.607392886286057 ], [ 144.216134227272704, -37.607351308735161 ], [ 144.216120537749191, -37.607308457347997 ], [ 144.215384173633822, -37.604415373989177 ], [ 144.215375830282341, -37.604371661353674 ], [ 144.215372912505359, -37.604327508575601 ], [ 144.215375448393189, -37.604283340870744 ], [ 144.215383413514388, -37.604239583597902 ], [ 144.216094684009136, -37.601342530584517 ], [ 144.216108000733669, -37.601299605026071 ], [ 144.216126541521248, -37.601257924668978 ], [ 144.216150127806685, -37.601217890915549 ], [ 144.216178532434981, -37.601179889309869 ], [ 144.218228998205177, -37.598719892357686 ] ] ] } },
{ "type": "Feature", "properties": { "MODE": "REGIONAL TRAIN", "transit_time_minutes_nearest_tier": 60.0, "centre": "southern-cross", "centre_name": "Southern Cross" }, "geometry": { "type": "Polygon", "coordinates": [ [ [ 144.429542615019955, -37.6820115251628 ], [ 144.429572014397479, -37.681979312642923 ], [ 144.429604875642269, -37.681949287587372 ], [ 144.429640942372117, -37.681921684246987 ], [ 144.429679933197036, -37.681896717978546 ], [ 144.429721543914724, -37.681874583564529 ], [ 144.433675422494218, -37.679966608286179 ], [ 144.433720515327508, -37.679947013268688 ], [ 144.433767655775426, -37.679930744664993 ], [ 144.433816456362393, -37.67991793619607 ], [ 144.43386651596802, -37.679908693142096 ], [ 144.433917423123745, -37.679903091476945 ], [ 144.437832442972592, -37.679615233893607 ], [ 144.437892472789855, -37.679613360077873 ], [ 144.437952414996545, -37.679616546091182 ], [ 144.438011596330028, -37.679624756148634 ], [ 144.438069352073171, -37.679637898035935 ], [ 144.438125033520066, -37.679655824145016 ], [ 144.446597488273312, -37.682808110478554 ], [ 144.564429812591527, -37.696820863074315 ], [ 144.570354728376628, -37.69548320178027 ], [ 144.570408658780025, -37.695473257312912 ], [ 144.570463552648334, -37.695467539784417 ], [ 144.57051888657827, -37.695466103710416 ], [ 144.574233056363028, -37.695513841777831 ], [ 144.574295150268824, -37.69551735477534 ], [ 144.574356385239128, -37.695526255747396 ], [ 144.574416023098422, -37.69554043739452 ], [ 144.607877261287683, -37.705110899375264 ], [ 144.60793313723579, -37.705129608280785 ], [ 144.607986179356317, -37.705152950510616 ], [ 144.611810116974226, -37.707054711067059 ], [ 144.649991129251021, -37.72057005050543 ], [ 144.653455277628808, -37.720508518881438 ], [ 144.722644662167511, -37.643505161448097 ], [ 144.722733026217298, -37.641003788230357 ], [ 144.717677358325659, -37.633039051409938 ], [ 144.717654980593295, -37.632999077558601 ], [ 144.71763758432752, -37.632957565832299 ], [ 144.71762533361246, -37.632914907795346 ], [ 144.714436265768285, -37.61864776896698 ], [ 144.714429476476795, -37.618606300575102 ], [ 144.714427550145956, -37.618564510087545 ], [ 144.714716501187013, -37.595049386821074 ], [ 144.714718701509497, -37.595013867300509 ], [ 144.714724415782882, -37.594978596518821 ], [ 144.718744214695647, -37.576077817251878 ], [ 144.718757470059188, -37.576030873172108 ], [ 144.718776939749802, -37.575985321837464 ], [ 144.718802401710008, -37.575941682748578 ], [ 144.71883356554352, -37.575900453596674 ], [ 144.718870075827482, -37.575862104587557 ], [ 144.722432868192215, -37.572507988989031 ], [ 144.722470770028934, -37.572475665296103 ], [ 144.722512469881792, -37.572446454169736 ], [ 144.722557566159622, -37.572420636925379 ], [ 144.72260562456367, -37.572398462193739 ], [ 144.722656182269901, -37.572380143526381 ], [ 144.722708752386239, -37.572365857339321 ], [ 144.728012110293463, -37.571152231103163 ], [ 144.728070742953292, -37.571141460942215 ], [ 144.728130480708586, -37.571135705764242 ], [ 144.728190648478176, -37.571135030607039 ], [ 144.728250566321748, -37.5711394431004 ], [ 144.728309557123225, -37.571148893379871 ], [ 144.728366954242148, -37.571163274650182 ], [ 144.734364835836089, -37.572949946116246 ], [ 144.734415844527234, -37.572967455540613 ], [ 144.734464451382649, -37.572988860078759 ], [ 144.734510188296866, -37.573013953596472 ], [ 144.734552614801657, -37.573042494432812 ], [ 144.734591322308319, -37.573074207727657 ], [ 144.734625938042029, -37.573108788068268 ], [ 144.734656128632224, -37.573145902430653 ], [ 144.737868940781823, -37.577555456211037 ], [ 144.737895069352902, -37.577595887837354 ], [ 144.737915944913624, -37.577638209450122 ], [ 144.737931354867584, -37.577681990064882 ], [ 144.737941142276895, -37.577726783838621 ], [ 144.737945207460598, -37.577772134609958 ], [ 144.737943509010165, -37.57781758054454 ], [ 144.7374205279514, -37.582995082203595 ], [ 144.746813861477989, -37.66062912381328 ], [ 144.758688159466544, -37.675861522322116 ], [ 144.782502281042241, -37.696555489979993 ], [ 144.782536910770972, -37.696588620471601 ], [ 144.782567401095605, -37.696624227010787 ], [ 144.782593473384821, -37.696661984219482 ], [ 144.782614889379005, -37.69670154706597 ], [ 144.793284156030268, -37.719327721486614 ], [ 144.79699760521035, -37.720079930690275 ], [ 144.909887055329733, -37.697760321568836 ], [ 144.911551183442725, -37.695036179516748 ], [ 144.909547702482314, -37.68366803543195 ], [ 144.909542337691448, -37.683614565699109 ], [ 144.909545007014344, -37.683560968214231 ], [ 144.909890938025598, -37.680796434570581 ], [ 144.909900727003077, -37.68074666284511 ], [ 144.909917446202797, -37.680698070828988 ], [ 144.909940886574702, -37.680651266058916 ], [ 144.922919715962223, -37.65843091698283 ], [ 144.932571736080433, -37.63448316564326 ], [ 144.933431388059915, -37.600148132559568 ], [ 144.933434915386357, -37.60010610235436 ], [ 144.933443360896376, -37.60006451796243 ], [ 144.933456650755005, -37.600023742895935 ], [ 144.93347466878069, -37.599984133591747 ], [ 144.933497257461227, -37.599946036295648 ], [ 144.952990720603054, -37.570683469261262 ], [ 144.960510875288605, -37.539657808174226 ], [ 144.960521882181069, -37.539620836096461 ], [ 144.960536762109825, -37.539584734003689 ], [ 144.96055540923939, -37.539549758663426 ], [ 144.980140172947415, -37.506720013697326 ], [ 144.984827396052623, -37.49510145857947 ], [ 144.992148426225725, -37.471086016904579 ], [ 144.994907569246152, -37.455466383146835 ], [ 144.995469401332173, -37.415142161653883 ], [ 144.995471954697621, -37.415104083822584 ], [ 144.995478535505299, -37.415066314568406 ], [ 144.995489096614023, -37.415029124414957 ], [ 145.016769157919924, -37.352449307434746 ], [ 145.01678927554434, -37.352401057493303 ], [ 145.01681607555966, -37.35235492451006 ], [ 145.018660821974606, -37.349598466870127 ], [ 145.018693169302651, -37.349555956811791 ], [ 145.01873118865808, -37.349516552133835 ], [ 145.018774416731418, -37.349480733018922 ], [ 145.018822326742225, -37.349448935955714 ], [ 145.022348077548941, -37.347360414560775 ], [ 145.022400082965731, -37.347333025471634 ], [ 145.022455552844264, -37.347310379551537 ], [ 145.022513811233154, -37.347292752760836 ], [ 145.022574148202267, -37.347280359897127 ], [ 145.026413256492418, -37.346669873717403 ], [ 145.026462528474354, -37.346663829944454 ], [ 145.026512276254152, -37.346661280922923 ], [ 145.026562111709808, -37.346662246539729 ], [ 145.026611646035292, -37.346666719261371 ], [ 145.026660492773772, -37.346674664192527 ], [ 145.030919463483656, -37.34752527634646 ], [ 145.030972469269585, -37.347538098202762 ], [ 145.031023645653562, -37.347555006137256 ], [ 145.031072499785694, -37.347575837319887 ], [ 145.031118561179255, -37.347600391138073 ], [ 145.031161386241507, -37.34762843112852 ], [ 145.034733799143368, -37.350211541077165 ], [ 145.034774333993795, -37.35024399360077 ], [ 145.034810529833891, -37.35027956543783 ], [ 145.034842012193025, -37.350317888579539 ], [ 145.034868455362442, -37.350358566552941 ], [ 145.034889585765001, -37.350401178522468 ], [ 145.03659229248106, -37.354420991737996 ], [ 145.036605435730479, -37.354456856211051 ], [ 145.036614811038277, -37.354493466737303 ], [ 145.03662035391622, -37.354530571511773 ], [ 145.038291909401437, -37.371774217722027 ], [ 145.038293449472121, -37.371819110880338 ], [ 145.038289382202407, -37.371863903395187 ], [ 145.035841897383335, -37.38776555119977 ], [ 145.035832789234092, -37.387807906408135 ], [ 145.035818665459431, -37.38784937658685 ], [ 144.99748046380455, -37.482229361365036 ], [ 144.979878460821993, -37.54424038665838 ], [ 144.979859244889042, -37.544292950891496 ], [ 144.953248950590847, -37.603379075006238 ], [ 144.937175058468995, -37.647454025772035 ], [ 144.929680926498094, -37.683827151550332 ], [ 144.931676930755145, -37.729617954929736 ], [ 144.932496748110196, -37.73434069981225 ], [ 144.995717300200141, -37.817210902662396 ], [ 145.049359641886213, -37.871233580956279 ], [ 145.087778802115821, -37.896072478666504 ], [ 145.127680728820621, -37.918784158512032 ], [ 145.127735979577835, -37.918819956539558 ], [ 145.216933735297005, -37.984339694111611 ], [ 145.216978698471081, -37.984376660239342 ], [ 145.217018058485394, -37.984417433673137 ], [ 145.217051304629905, -37.984461485373004 ], [ 145.219620822594834, -37.988353658311262 ], [ 145.219645546749092, -37.98839640395186 ], [ 145.21966450736565, -37.988440956129303 ], [ 145.219677497928757, -37.988486829613237 ], [ 145.219684376943263, -37.988533524781658 ], [ 145.219685069476213, -37.988580533062475 ], [ 145.219679567973486, -37.988627342472462 ], [ 145.218779761494545, -37.993505380476506 ], [ 145.2187700922739, -37.993545176854155 ], [ 145.218755942734617, -37.993584124483164 ], [ 145.218737427387936, -37.993621908144362 ], [ 145.218714696079985, -37.993658222038604 ], [ 145.218687932779233, -37.993692772261724 ], [ 145.218657354087696, -37.993725279183408 ], [ 145.21615962864368, -37.996145031828206 ], [ 145.216117249349111, -37.996181747825318 ], [ 145.216070014291148, -37.996214543585118 ], [ 145.216018499080775, -37.996243019451299 ], [ 145.215963331490201, -37.996266828410384 ], [ 145.211964653543504, -37.997772151266432 ], [ 145.211918338495082, -37.997787639729971 ], [ 145.211870476968272, -37.997799833617762 ], [ 145.211821442381279, -37.997808637792374 ], [ 145.211771617304947, -37.997813983563063 ], [ 145.211721390478033, -37.997815829221757 ], [ 145.207773064303012, -37.997822713075841 ], [ 145.207722827681721, -37.99782104257384 ], [ 145.207672973317102, -37.997815870592959 ], [ 145.207623890176421, -37.997807237485318 ], [ 145.207575961209386, -37.997795210607016 ], [ 145.207529560360342, -37.997779883792475 ], [ 145.203522538423783, -37.996288518783217 ], [ 145.203471206363474, -37.996266810254603 ], [ 145.203422943834596, -37.996241067210931 ], [ 145.203378255390874, -37.996211558780836 ], [ 145.115053158862821, -37.931460222054255 ], [ 145.036214701167609, -37.883722257611467 ], [ 145.036198291287548, -37.883711923783196 ], [ 144.947416081590831, -37.825576389073277 ], [ 144.899174681070548, -37.809255802219049 ], [ 144.868077074214426, -37.802935016172931 ], [ 144.841624380880432, -37.799773927629502 ], [ 144.725634221693412, -37.827447338636624 ], [ 144.717006070155833, -37.833074258131745 ], [ 144.716962580602058, -37.833099958016994 ], [ 144.71691619886542, -37.833122251107376 ], [ 144.716867347796352, -37.83314093416147 ], [ 144.695103271670064, -37.840467940601442 ], [ 144.618563193345011, -37.876356012056092 ], [ 144.617087942494521, -37.877926175992734 ], [ 144.604851061284052, -37.905147142833592 ], [ 144.601470571525709, -37.91939926746668 ], [ 144.601457493249711, -37.919442511847116 ], [ 144.601439096649642, -37.919484524079991 ], [ 144.601415560976903, -37.919524894789774 ], [ 144.598287194335825, -37.924261328931358 ], [ 144.598252338430029, -37.924307228834934 ], [ 144.598210851149418, -37.924349527036931 ], [ 144.594307023398329, -37.927874986300083 ], [ 144.594264439895056, -37.92790951790731 ], [ 144.594217436031755, -37.927940242054703 ], [ 144.594166551528417, -37.927966805950206 ], [ 144.504103658063201, -37.969623543057715 ], [ 144.420717508381358, -38.028694849457366 ], [ 144.420678415100213, -38.028720131862144 ], [ 144.420636644100881, -38.02874257561853 ], [ 144.420592523811848, -38.028762004259285 ], [ 144.420546401134033, -38.02877826502376 ], [ 144.415380265195807, -38.030386302564828 ], [ 144.415328383659812, -38.030400210504197 ], [ 144.41527505274442, -38.030410111255939 ], [ 144.415220765909737, -38.030415913210419 ], [ 144.41516602546119, -38.030417562683219 ], [ 144.41511133790172, -38.030415044412173 ], [ 144.415057209244821, -38.030408381698294 ], [ 144.409828696555394, -38.029559180281169 ], [ 144.409774569641883, -38.029548173490674 ], [ 144.409722067318313, -38.029533023203122 ], [ 144.409671695218208, -38.029513875326444 ], [ 144.409623938458395, -38.02949091426796 ], [ 144.409579256966992, -38.029464361158553 ], [ 144.406541549745839, -38.027467284115474 ], [ 144.406495496060813, -38.027433436724216 ], [ 144.40645443944328, -38.027395780275079 ], [ 144.4064188802096, -38.027354773656995 ], [ 144.406389251681759, -38.02731091658395 ], [ 144.40452032451114, -38.024133972474694 ], [ 144.404501138688687, -38.024097192281467 ], [ 144.404486130610906, -38.024059216320737 ], [ 144.40447541736404, -38.024020340879972 ], [ 144.404469082525765, -38.023980869263873 ], [ 144.404467175513275, -38.02394110942803 ], [ 144.404491882078247, -38.020816761738033 ], [ 144.404494544875575, -38.020775976202842 ], [ 144.404501866175565, -38.020735549072775 ], [ 144.40451378579192, -38.020695812646153 ], [ 144.404530205742162, -38.020657093543477 ], [ 144.4045509910531, -38.020619710022608 ], [ 144.406612545554168, -38.017325564368946 ], [ 144.406638595849302, -38.017288446039949 ], [ 144.406668947576065, -38.017253432791357 ], [ 144.40670333111666, -38.017220835643236 ], [ 144.40674144104014, -38.017190944153327 ], [ 144.40678293881561, -38.017164023844835 ], [ 144.446809526587543, -37.993589275022366 ], [ 144.465765545405048, -37.979671194393767 ], [ 144.491955534306157, -37.95681010535943 ], [ 144.492001041091328, -37.95677459457562 ], [ 144.492051289614437, -37.956743347709335 ], [ 144.492105646154869, -37.956716758834304 ], [ 144.495381752949413, -37.955308950935958 ], [ 144.495430248288102, -37.955290406781408 ], [ 144.49548074082, -37.955275576390989 ], [ 144.532200620219157, -37.946023779672402 ], [ 144.534138397659319, -37.944995067531814 ], [ 144.597986339928639, -37.871930497436601 ], [ 144.604796323453087, -37.850402189967362 ], [ 144.604813126660332, -37.850358553537426 ], [ 144.604835410006757, -37.850316488576624 ], [ 144.608212874354052, -37.844748166605264 ], [ 144.6082411701355, -37.844707116644621 ], [ 144.60827468172883, -37.844668615014776 ], [ 144.608313047740722, -37.844633076913638 ], [ 144.613981302363442, -37.839903124971549 ], [ 144.61402275572172, -37.839871847890741 ], [ 144.614067966204658, -37.839844036513526 ], [ 144.637686035768553, -37.826766508105813 ], [ 144.638303615844563, -37.825221490787996 ], [ 144.643833489565282, -37.737587575088824 ], [ 144.643240334922638, -37.735732092089812 ], [ 144.641438869826601, -37.734464800514253 ], [ 144.599789588172484, -37.719964648157394 ], [ 144.548272687772823, -37.718709187813332 ], [ 144.534945100138998, -37.720057681963006 ], [ 144.534888343138221, -37.720061133993447 ], [ 144.534831436386128, -37.720060049367774 ], [ 144.500775812105218, -37.718044381491573 ], [ 144.50070132954005, -37.718035987949222 ], [ 144.492817218324433, -37.716718527037784 ], [ 144.492772097267391, -37.716709434710879 ], [ 144.492728066892738, -37.71669743346316 ], [ 144.457501461812598, -37.705785937511664 ], [ 144.457433292856763, -37.705760546475361 ], [ 144.431083231895968, -37.69418747346942 ], [ 144.431029594994897, -37.694160693039841 ], [ 144.430980052517896, -37.694129325164063 ], [ 144.430935222922528, -37.694093761422479 ], [ 144.427993098349873, -37.691482979211493 ], [ 144.427953985176885, -37.691444154305152 ], [ 144.427920495554247, -37.691402140084087 ], [ 144.427893037582749, -37.69135744854087 ], [ 144.427871945858527, -37.691310624293465 ], [ 144.426753128014553, -37.688314920470177 ], [ 144.426738660840641, -37.688266533934836 ], [ 144.426730992975138, -37.688217175005363 ], [ 144.426730217846, -37.688167445173882 ], [ 144.426736344885398, -37.688117950451257 ], [ 144.427409652585993, -37.684654449070372 ], [ 144.42742217684912, -37.684607063222124 ], [ 144.42744102768421, -37.684561019228809 ], [ 144.427465987340156, -37.684516848929597 ], [ 144.427496767506256, -37.684475062520306 ], [ 144.429542615019955, -37.6820115251628 ] ] ] } },
{ "type": "Feature", "properties": { "MODE": "REGIONAL TRAIN", "transit_time_minutes_nearest_tier": 45.0, "centre": "southern-cross", "centre_name": "Southern Cross" }, "geometry": { "type": "Polygon", "coordinates": [ [ [ 144.564952063881492, -37.697812741876852 ], [ 144.564983064129734, -37.697776628255632 ], [ 144.565018323211405, -37.697743071895943 ], [ 144.5650575091652, -37.697712388723104 ], [ 144.565100253060479, -37.69768486761172 ], [ 144.565146152470874, -37.69766076766598 ], [ 144.569310576010764, -37.69569779586449 ], [ 144.569360965244442, -37.695676686325612 ], [ 144.569413765820997, -37.695659700968307 ], [ 144.569468444779289, -37.695647011239856 ], [ 144.569524450199168, -37.695638745228123 ], [ 144.569581216772008, -37.695634986368717 ], [ 144.574205228859228, -37.695514027286507 ], [ 144.574258918124457, -37.695514643228975 ], [ 144.574312293300494, -37.695519292130236 ], [ 144.574364875679237, -37.695527932295469 ], [ 144.574416193662785, -37.695540486233291 ], [ 144.608082601234656, -37.705179256181466 ], [ 144.608123433823579, -37.705192384173976 ], [ 144.655563758767414, -37.722163783852707 ], [ 144.655610527366235, -37.722182612948686 ], [ 144.655654907090764, -37.722204792201389 ], [ 144.655696518664399, -37.722230132064269 ], [ 144.680513348909557, -37.738837874748548 ], [ 144.713094490904979, -37.753016169933623 ], [ 144.73339651987871, -37.757376831886901 ], [ 144.735247515478079, -37.756950733308834 ], [ 144.736888307406701, -37.755519831021161 ], [ 144.765196935951707, -37.707558808221926 ], [ 144.76554159893152, -37.705624236038823 ], [ 144.764026268821709, -37.7011612723608 ], [ 144.764014265572825, -37.701117285951071 ], [ 144.764007845966859, -37.70107256744361 ], [ 144.764007074065262, -37.701027563155542 ], [ 144.764011957562076, -37.700982722255517 ], [ 144.764022447707305, -37.700938492280642 ], [ 144.765105275726768, -37.697364320790143 ], [ 144.765120936299155, -37.697321895842357 ], [ 144.765141754792296, -37.697280894878567 ], [ 144.765167530705838, -37.697241712757901 ], [ 144.765198015798205, -37.697204726822534 ], [ 144.765232916477487, -37.697170293263937 ], [ 144.765271896629059, -37.697138743692484 ], [ 144.769984798854694, -37.693680970945188 ], [ 144.770025067658821, -37.693654064568626 ], [ 144.770068301821539, -37.693630240249192 ], [ 144.770114129037637, -37.693609703145455 ], [ 144.770162154673358, -37.693592630108668 ], [ 144.770211965164492, -37.693579168159751 ], [ 144.770263131577906, -37.693569433223509 ], [ 144.770315213304571, -37.69356350913025 ], [ 144.776028431712064, -37.693127285825639 ], [ 144.776080474870724, -37.69312522246215 ], [ 144.776132536621304, -37.693126964671045 ], [ 144.776184177200378, -37.693132497735867 ], [ 144.776234960402036, -37.693141774919091 ], [ 144.776284457262165, -37.693154717856643 ], [ 144.776332249681758, -37.693171217219998 ], [ 144.780486362364201, -37.694789430693646 ], [ 144.780534615845255, -37.694810597223764 ], [ 144.780580054865055, -37.694835386814603 ], [ 144.780622249998316, -37.694863565191575 ], [ 144.780660802474841, -37.694894866054064 ], [ 144.780695347948296, -37.694928993591901 ], [ 144.783401204934762, -37.697885483236654 ], [ 144.783430112682481, -37.697920357433127 ], [ 144.7834548324943, -37.697957208583702 ], [ 144.783475151986892, -37.697995720086332 ], [ 144.806224719343447, -37.747386306940349 ], [ 144.823895811504997, -37.770794096925854 ], [ 144.836911548535767, -37.780566061813474 ], [ 144.838824842365852, -37.781037910132859 ], [ 144.840843657238253, -37.780701571567924 ], [ 144.904308918466683, -37.755657666755482 ], [ 144.906121884381008, -37.754270885055156 ], [ 144.907766199720584, -37.75099109403606 ], [ 144.915789046008655, -37.712427085750981 ], [ 144.912403987389325, -37.700945451452462 ], [ 144.912392573215982, -37.700892878776429 ], [ 144.909674449069655, -37.681613214234751 ], [ 144.909670931212503, -37.6815650722952 ], [ 144.90967390790226, -37.681516907303504 ], [ 144.909683345022756, -37.681469271084381 ], [ 144.909699134441468, -37.681422709403371 ], [ 144.909721095248614, -37.681377755714145 ], [ 144.92390075231333, -37.656394289484872 ], [ 144.932860917913104, -37.633042334775489 ], [ 144.93343132969224, -37.600150888358215 ], [ 144.933435607774129, -37.600101479434478 ], [ 144.933446676044383, -37.600052742634162 ], [ 144.933464400744299, -37.600005266878881 ], [ 144.961162448652772, -37.538384067471057 ], [ 144.961186790970316, -37.538338074307511 ], [ 144.961217372417764, -37.538294507366849 ], [ 144.961253817698037, -37.538253901290162 ], [ 144.963572954742659, -37.535951082804218 ], [ 144.963609774534547, -37.535917988386238 ], [ 144.963650490449481, -37.535887927251721 ], [ 144.963694710371726, -37.535861188902189 ], [ 144.963742008441841, -37.535838030838995 ], [ 144.966991126415451, -37.53441715241037 ], [ 144.96704140116006, -37.53439767526141 ], [ 144.967093844369089, -37.53438224466764 ], [ 144.967147943938471, -37.534371011307478 ], [ 144.967203171590711, -37.534364084873573 ], [ 144.970966892923371, -37.534042767172799 ], [ 144.971021935247961, -37.534040218868796 ], [ 144.971077027680451, -37.534041949201672 ], [ 144.971131647019604, -37.534047941738784 ], [ 144.971185274556944, -37.534058139570263 ], [ 144.974744461931607, -37.534882771937482 ], [ 144.974792645456887, -37.534895833603997 ], [ 144.974839159930184, -37.53491229084414 ], [ 144.974883628897402, -37.534932010465475 ], [ 144.97492569245847, -37.534954832872167 ], [ 144.974965010180057, -37.534980573356577 ], [ 144.975001263850544, -37.535009023594206 ], [ 144.97935403185565, -37.538746540937481 ], [ 144.979387911207652, -37.538778482263567 ], [ 144.979417926406086, -37.538812786870047 ], [ 144.979443818974289, -37.538849159348061 ], [ 144.979465365936079, -37.538887286481128 ], [ 144.979482381735892, -37.538926839942405 ], [ 144.979494719837021, -37.538967479121844 ], [ 144.979502273983599, -37.539008854059333 ], [ 144.980062507286647, -37.543548059392663 ], [ 144.980065195990505, -37.543587946543859 ], [ 144.980063437291847, -37.543627866553116 ], [ 144.98005724500743, -37.543667505641224 ], [ 144.980046667803009, -37.543706552236578 ], [ 144.98003178881109, -37.543744699424259 ], [ 144.953464415037132, -37.602473296046668 ], [ 144.937534182334304, -37.646205849558747 ], [ 144.929680947277632, -37.68382762855132 ], [ 144.93167703388778, -37.729620319465283 ], [ 144.933109798413483, -37.738565452407535 ], [ 144.93311382618765, -37.73860324993084 ], [ 144.933113835803795, -37.738641182554467 ], [ 144.933109827187707, -37.73867898136136 ], [ 144.932354111548761, -37.743411453091099 ], [ 144.947794023188578, -37.799103295942551 ], [ 144.94961731312182, -37.800917269176502 ], [ 144.969981182568631, -37.810633593003395 ], [ 144.993210043502785, -37.816432198410361 ], [ 144.993262725339548, -37.816447653256269 ], [ 144.993313224954676, -37.816467161085811 ], [ 144.996573729801185, -37.817888967577034 ], [ 144.99662119233588, -37.817912138884211 ], [ 144.996665563346539, -37.817938889076366 ], [ 144.996706415518645, -37.817968960538082 ], [ 144.996743355424115, -37.818002063668359 ], [ 144.999069943493765, -37.82030540744249 ], [ 144.999104135543206, -37.820343081416418 ], [ 144.999133258712021, -37.820383346563339 ], [ 145.018263203155982, -37.850291922625196 ], [ 145.04708455118282, -37.870000778126759 ], [ 145.087777405740695, -37.896071657547296 ], [ 145.127150161854132, -37.918404346699681 ], [ 145.127195571867531, -37.91843297324057 ], [ 145.127237062434602, -37.918465117175955 ], [ 145.12727420142653, -37.918500443727162 ], [ 145.127306602034508, -37.918538584968161 ], [ 145.130513232226093, -37.922763667536991 ], [ 145.130539199674786, -37.922801948095746 ], [ 145.13056038990419, -37.922842032579894 ], [ 145.130576605708029, -37.922883547959017 ], [ 145.13058769617183, -37.922926107885971 ], [ 145.130593558077521, -37.922969316292374 ], [ 145.130594136864289, -37.923012771074191 ], [ 145.130589427136783, -37.923056067834089 ], [ 145.129728465344044, -37.928106867670358 ], [ 145.129719197925994, -37.928147254674904 ], [ 145.129705327666187, -37.928186805806412 ], [ 145.129686969726322, -37.928225192660541 ], [ 145.129664276531116, -37.928262096499765 ], [ 145.129637436503089, -37.928297210900034 ], [ 145.129606672498085, -37.928330244295132 ], [ 145.127129719641516, -37.930750672504892 ], [ 145.127092016493464, -37.930783985608265 ], [ 145.127050327376111, -37.930814172230043 ], [ 145.127005063482386, -37.930840934626879 ], [ 145.126956671266271, -37.930864008829701 ], [ 145.123480056915383, -37.932340530752619 ], [ 145.123434777102688, -37.93235776611855 ], [ 145.123387753698466, -37.932371769542058 ], [ 145.123339353581457, -37.932382431767614 ], [ 145.123289954372126, -37.932389669607851 ], [ 145.123239941486389, -37.932393426592697 ], [ 145.118821253487823, -37.932569820615221 ], [ 145.11876012711042, -37.932569654654813 ], [ 145.118699376253971, -37.932564293808767 ], [ 145.118639702647812, -37.932553799999809 ], [ 145.118581795577342, -37.932538294441223 ], [ 145.115121016399428, -37.931444131237413 ], [ 145.115067834652507, -37.931424746645511 ], [ 145.115017450493696, -37.931401134647203 ], [ 145.114970397757276, -37.931373545419525 ], [ 145.114927174978533, -37.931342271279178 ], [ 145.068568461694781, -37.894128541487774 ], [ 145.036346492413912, -37.883781931695928 ], [ 145.036299001511253, -37.883764617885845 ], [ 145.036253718430146, -37.883743919230128 ], [ 145.036211026193456, -37.883720010807309 ], [ 145.036171285908665, -37.883693094845441 ], [ 145.036134833713191, -37.883663399011446 ], [ 144.990852788189528, -37.843177416013795 ], [ 144.950030671906035, -37.826423264279853 ], [ 144.899174895157472, -37.809255845702133 ], [ 144.86807788928445, -37.802935181960812 ], [ 144.844461255689396, -37.800169919153532 ], [ 144.844410021526954, -37.80016199020217 ], [ 144.844359921665358, -37.800150361058087 ], [ 144.828787878238472, -37.795908843979284 ], [ 144.80211720655555, -37.791100405559924 ], [ 144.797463263953574, -37.791297637712162 ], [ 144.731522740083534, -37.818193128104944 ], [ 144.725632339288097, -37.826655661265598 ], [ 144.725596801984864, -37.826700308470834 ], [ 144.725554922814041, -37.826741350921118 ], [ 144.720501136687005, -37.831139452679167 ], [ 144.720467384550631, -37.831166442369287 ], [ 144.720430883667746, -37.831191079024109 ], [ 144.720391893941979, -37.831213187217323 ], [ 144.715582820227553, -37.833703612042598 ], [ 144.715541763181449, -37.833722970088438 ], [ 144.715498800651915, -37.833739523879743 ], [ 144.698492546214254, -37.839602982912403 ], [ 144.698443898122491, -37.839617688151904 ], [ 144.698393756689143, -37.83962879944734 ], [ 144.698342543091485, -37.839636223466087 ], [ 144.698290687513179, -37.839639897847945 ], [ 144.691820660451526, -37.839861886974468 ], [ 144.691766306795529, -37.839861686199981 ], [ 144.691712226157847, -37.839857366566505 ], [ 144.691658913681664, -37.839848967622984 ], [ 144.691606857476813, -37.839836566267209 ], [ 144.69155653415055, -37.839820276041458 ], [ 144.670212018026945, -37.83194336722115 ], [ 144.666834685009292, -37.832196083352031 ], [ 144.619775388169074, -37.870738406022575 ], [ 144.618126515621043, -37.875839737032685 ], [ 144.618106880026062, -37.875888684908226 ], [ 144.618080342837999, -37.875935542943772 ], [ 144.618047249017621, -37.875979702002979 ], [ 144.615844004908666, -37.878570720394706 ], [ 144.615809751424734, -37.878606932925706 ], [ 144.615771086491122, -37.878640238368291 ], [ 144.615728400390424, -37.878670300533798 ], [ 144.615682123996891, -37.878696815971097 ], [ 144.615632724427201, -37.878719517029893 ], [ 144.610705730958699, -37.880728493273772 ], [ 144.610651640888193, -37.880747787955862 ], [ 144.610595308296524, -37.880762509441226 ], [ 144.610537346730609, -37.880772497390517 ], [ 144.610478387480157, -37.880777643019712 ], [ 144.610419072701887, -37.880777890285025 ], [ 144.610360048424894, -37.880773236493361 ], [ 144.604211227308355, -37.880029746011978 ], [ 144.604159777748691, -37.880021581607302 ], [ 144.604109497383519, -37.880009691252312 ], [ 144.604060814750426, -37.879994176288115 ], [ 144.604014144768968, -37.879975168948214 ], [ 144.603969885203952, -37.8799528312314 ], [ 144.603928413275497, -37.879927353520955 ], [ 144.603890082443655, -37.879898952962016 ], [ 144.599463858141007, -37.876301671162885 ], [ 144.599424522495326, -37.876266148604408 ], [ 144.599390098877166, -37.876227554709466 ], [ 144.599360966223713, -37.876186314330504 ], [ 144.599337445226155, -37.876142881452601 ], [ 144.599319794799698, -37.876097734195596 ], [ 144.599308209233584, -37.876051369550879 ], [ 144.598421564133275, -37.871171719398873 ], [ 144.59841636460871, -37.871128274463516 ], [ 144.598416492391692, -37.871084634565577 ], [ 144.598421946273845, -37.871041209230562 ], [ 144.598432675065879, -37.870998405969715 ], [ 144.605261144563713, -37.84930461674066 ], [ 144.605280729508451, -37.849254841504425 ], [ 144.605307436536066, -37.849207194117149 ], [ 144.608198732250145, -37.84476131431088 ], [ 144.608233915312383, -37.844714420617223 ], [ 144.608275989740008, -37.844671244046381 ], [ 144.612352083398406, -37.840974471149025 ], [ 144.612384683017495, -37.840947277130191 ], [ 144.612420023143471, -37.840922328812603 ], [ 144.612457858617688, -37.840899799263937 ], [ 144.638537691593513, -37.826671878017862 ], [ 144.638580198563062, -37.826650808708393 ], [ 144.638624881931776, -37.82663279408402 ], [ 144.645727814349897, -37.824075127604068 ], [ 144.645784812754869, -37.824057472429416 ], [ 144.645843874884122, -37.824044783808432 ], [ 144.645904315155121, -37.824037209028205 ], [ 144.655097133321505, -37.823284542406753 ], [ 144.655150719822529, -37.823282175101653 ], [ 144.655204348765068, -37.823283830688332 ], [ 144.655257541240758, -37.823289494382301 ], [ 144.66921718742006, -37.825311620051302 ], [ 144.693313532614582, -37.823943962256834 ], [ 144.729834781058997, -37.791776373150256 ], [ 144.730792609280002, -37.788885858685866 ], [ 144.709199102133113, -37.75791556895858 ], [ 144.677008186316073, -37.743926961087773 ], [ 144.646892771392629, -37.736704463816828 ], [ 144.646818904667185, -37.7366821715664 ], [ 144.603232040903862, -37.720675579771736 ], [ 144.567480569151115, -37.710595417605205 ], [ 144.567434528557754, -37.710580593309622 ], [ 144.567390297730185, -37.710562624733797 ], [ 144.5673482161084, -37.710541649774157 ], [ 144.567308606637937, -37.710517829398995 ], [ 144.564279548993767, -37.70852445985404 ], [ 144.564241483978208, -37.708497004434982 ], [ 144.56420670534402, -37.70846692288778 ], [ 144.564175498960708, -37.708434462476845 ], [ 144.564148121333631, -37.708399890019955 ], [ 144.564124797495538, -37.708363489695223 ], [ 144.562214733034068, -37.705015057511616 ], [ 144.562194277572985, -37.704973940809708 ], [ 144.562178993129606, -37.704931429116051 ], [ 144.562169026893429, -37.70488793184343 ], [ 144.562164474835839, -37.704843867895661 ], [ 144.56216538078624, -37.704799661633224 ], [ 144.562467615645517, -37.701131248090334 ], [ 144.562473857261409, -37.701087871959402 ], [ 144.562485353690676, -37.701045179521294 ], [ 144.562501996962709, -37.701003571696461 ], [ 144.562523630774137, -37.700963439219223 ], [ 144.562550051956919, -37.700925158968452 ], [ 144.564952063881492, -37.697812741876852 ] ] ] } },
{ "type": "Feature", "properties": { "MODE": "REGIONAL TRAIN", "transit_time_minutes_nearest_tier": 30.0, "centre": "southern-cross", "centre_name": "Southern Cross" }, "geometry": { "type": "Polygon", "coordinates": [ [ [ 144.72688262394729, -37.769926030104116 ], [ 144.726841438654475, -37.769892290300511 ], [ 144.726804903786842, -37.769855329217258 ], [ 144.726773416663605, -37.7698155488157 ], [ 144.726747319706817, -37.769773381717414 ], [ 144.726726896717565, -37.76972928649915 ], [ 144.726712369790135, -37.769683742705581 ], [ 144.725667692701421, -37.765502905607299 ], [ 144.725659998918559, -37.76546266139956 ], [ 144.725656912292663, -37.765422030172125 ], [ 144.725658458014607, -37.765381343625286 ], [ 144.725664623458101, -37.765340933910416 ], [ 144.725675358283354, -37.765301130918346 ], [ 144.725690574847931, -37.765262259586436 ], [ 144.727336349550683, -37.761643531722065 ], [ 144.727355828210904, -37.761606068374135 ], [ 144.727379469025664, -37.761570146407792 ], [ 144.727407080656917, -37.761536056550547 ], [ 144.727438439630305, -37.761504074701733 ], [ 144.727473292144253, -37.761474459699635 ], [ 144.727511356123784, -37.76144745122668 ], [ 144.731632210838626, -37.758778039334203 ], [ 144.731676112445854, -37.758752288928726 ], [ 144.731722927183654, -37.758730006445937 ], [ 144.731772221896279, -37.758711398054636 ], [ 144.731823540482907, -37.75869663592897 ], [ 144.731876408117927, -37.75868585665539 ], [ 144.731930335643767, -37.758679159969034 ], [ 144.737430483903694, -37.758209820455733 ], [ 144.737484976148977, -37.758207265780527 ], [ 144.737539525440212, -37.75820887992419 ], [ 144.737593626981521, -37.758214647949529 ], [ 144.737646780120173, -37.758224516479537 ], [ 144.737698492979462, -37.758238394191324 ], [ 144.775177745490709, -37.769911690809977 ], [ 144.836148994572682, -37.780882762629169 ], [ 144.836198466472496, -37.780893537151044 ], [ 144.836246510663784, -37.780907812785394 ], [ 144.836292734706717, -37.780925472924643 ], [ 144.836336761028178, -37.780946373315409 ], [ 144.866624057380363, -37.796834771712689 ], [ 144.877718332420017, -37.798052080721682 ], [ 144.894961826629043, -37.794810153793456 ], [ 144.896904506503347, -37.792791155840568 ], [ 144.907139050537694, -37.761540900558053 ], [ 144.906167508631086, -37.754655066177619 ], [ 144.90616407549561, -37.754613089922188 ], [ 144.906165588328349, -37.754571042409005 ], [ 144.906172033932108, -37.754529290210733 ], [ 144.906183356105743, -37.754488197324967 ], [ 144.906199456134374, -37.754448122000788 ], [ 144.907783063531582, -37.751061128675929 ], [ 144.916813581095255, -37.715890013514723 ], [ 144.912404009364138, -37.7009455259711 ], [ 144.912392573215982, -37.700892878776429 ], [ 144.909674449069655, -37.681613214234751 ], [ 144.909670956890551, -37.681567796989604 ], [ 144.909673246739175, -37.681522331427274 ], [ 144.909681295247537, -37.681477281318308 ], [ 144.909695020307026, -37.681433106194731 ], [ 144.909714281906133, -37.681390256662418 ], [ 144.911222311894676, -37.678504380866521 ], [ 144.911243538894212, -37.678468339835362 ], [ 144.911268684536225, -37.678433928139391 ], [ 144.911297552632732, -37.678401414254132 ], [ 144.91132991795439, -37.678371051848202 ], [ 144.911365527987982, -37.678343077804378 ], [ 144.914635358471486, -37.675991904360515 ], [ 144.914677325949668, -37.67596451409392 ], [ 144.91472239843489, -37.675940441460128 ], [ 144.914770162256673, -37.675919907393933 ], [ 144.914820179045023, -37.675903100353402 ], [ 144.914871989753578, -37.675890174590648 ], [ 144.919346248604882, -37.674958404583279 ], [ 144.919396499074736, -37.674949852890293 ], [ 144.919447517461151, -37.674944953727348 ], [ 144.919498884415333, -37.674943747363493 ], [ 144.919550177723465, -37.674946243714437 ], [ 144.919600975777087, -37.674952422261327 ], [ 144.923456302976916, -37.675564580931464 ], [ 144.923510250606427, -37.675575358187437 ], [ 144.923562609442087, -37.675590286398496 ], [ 144.923612875247017, -37.675609221800123 ], [ 144.923660563940103, -37.675631982036933 ], [ 144.923705216257616, -37.675658347918656 ], [ 144.927809357481408, -37.678339673622339 ], [ 144.927847518149918, -37.678366997335701 ], [ 144.927882410336025, -37.67839695427471 ], [ 144.927913747561632, -37.678429298484893 ], [ 144.927941272534866, -37.678463764411411 ], [ 144.927964759262608, -37.678500069079156 ], [ 144.927984014905888, -37.678537914416012 ], [ 144.929631646951776, -37.682251934717797 ], [ 144.929646823154116, -37.682291980115309 ], [ 144.929657261570469, -37.682332971415633 ], [ 144.929662872241181, -37.68237455538025 ], [ 144.929663606808703, -37.682416373662861 ], [ 144.929659458934907, -37.682458065897428 ], [ 144.928995920113607, -37.686643258677741 ], [ 144.930098649420813, -37.72527777124612 ], [ 144.933109509344717, -37.738671264211732 ], [ 144.93311609604919, -37.738710404632791 ], [ 144.933118341584361, -37.738749852745322 ], [ 144.933116228691489, -37.7387893054782 ], [ 144.933109773596726, -37.738828459724289 ], [ 144.932062921028489, -37.74355703940838 ], [ 144.931516716300848, -37.781890352852784 ], [ 144.948374224122148, -37.800301307543172 ], [ 144.969981720681858, -37.810633789616467 ], [ 144.993882136360412, -37.816622990788929 ], [ 144.993932434942963, -37.816637693749051 ], [ 144.993980761927133, -37.816656093471536 ], [ 144.994026686716722, -37.81667802601433 ], [ 144.997301671431103, -37.818414133057253 ], [ 144.997347792664243, -37.818441357451185 ], [ 144.997390207951099, -37.8184721413256 ], [ 144.997428482634518, -37.818506169221386 ], [ 144.997462224486782, -37.818543092435768 ], [ 144.997491087729117, -37.818582532595393 ], [ 145.01771505686412, -37.849736875856046 ], [ 145.050193987484334, -37.872014734129522 ], [ 145.050231339639794, -37.872042782796925 ], [ 145.050265338570171, -37.872073394398015 ], [ 145.050295705601172, -37.872106318026781 ], [ 145.050322191826297, -37.872141283826409 ], [ 145.050344580146771, -37.872178005201199 ], [ 145.052527165860624, -37.87621453450511 ], [ 145.052545241153496, -37.876252627983348 ], [ 145.052558905395756, -37.876291859067962 ], [ 145.052568047054763, -37.876331907560036 ], [ 145.052572591510113, -37.876372446588569 ], [ 145.052572501663093, -37.876413145278264 ], [ 145.052567778239478, -37.876453671450292 ], [ 145.051863416463505, -37.880493911974554 ], [ 145.051852829225055, -37.880538178330241 ], [ 145.051836716283162, -37.88058138508508 ], [ 145.051815238800174, -37.880623100058436 ], [ 145.051788611598852, -37.880662905990626 ], [ 145.051757101013891, -37.880700404716897 ], [ 145.049125191962787, -37.883516198944456 ], [ 145.049085115310277, -37.883554462590148 ], [ 145.049039961531236, -37.883588992010814 ], [ 145.048990280872772, -37.883619366423623 ], [ 145.048936678749897, -37.883645215679124 ], [ 145.045460714545499, -37.885119511491858 ], [ 145.045415445264183, -37.885136717823876 ], [ 145.045368436825214, -37.885150691014566 ], [ 145.045320055990516, -37.885161322044247 ], [ 145.045270680230175, -37.885168527968972 ], [ 145.0452206947771, -37.885172252567656 ], [ 145.040804591410222, -37.885345782061762 ], [ 145.040741846418086, -37.885345498224787 ], [ 145.040679523214152, -37.885339734864253 ], [ 145.040618381285952, -37.885328562214013 ], [ 145.040559165724943, -37.885312116426917 ], [ 145.03691623380243, -37.884117555822804 ], [ 145.03687073581105, -37.884100733722462 ], [ 145.036827288255466, -37.884080795186762 ], [ 145.03678623011416, -37.884057895777175 ], [ 145.036747881722306, -37.884032214155873 ], [ 145.03671254227271, -37.884003950691813 ], [ 145.033742114132025, -37.881408299582411 ], [ 145.033699401546613, -37.881366144955336 ], [ 145.033663368188485, -37.881320238238281 ], [ 145.021300277919835, -37.863227666917851 ], [ 144.99317628964522, -37.844304805579597 ], [ 144.946220251200629, -37.824989971146252 ], [ 144.899755081567633, -37.8093625678259 ], [ 144.8444276227101, -37.800165153116033 ], [ 144.84440629279581, -37.800161259925986 ], [ 144.767797781144111, -37.784911505057693 ], [ 144.767725732080663, -37.784893003502944 ], [ 144.73178777164992, -37.773504401663601 ], [ 144.731740130202382, -37.773487233424056 ], [ 144.731694682979651, -37.773466655682597 ], [ 144.731651816211524, -37.773442843318442 ], [ 144.731611894196874, -37.773415998699853 ], [ 144.72688262394729, -37.769926030104116 ] ] ] } },
{ "type": "Feature", "properties": { "MODE": "REGIONAL TRAIN", "transit_time_minutes_nearest_tier": 15.0, "centre": "southern-cross", "centre_name": "Southern Cross" }, "geometry": { "type": "Polygon", "coordinates": [ [ [ 144.920334072462452, -37.802925394417031 ], [ 144.904357671623302, -37.809382357211462 ], [ 144.904308493065741, -37.809399946577059 ], [ 144.904257432578788, -37.809413754020049 ], [ 144.904204951009348, -37.809423654921041 ], [ 144.904151522031015, -37.809429559919202 ], [ 144.904097627868794, -37.809431415718777 ], [ 144.904043754946315, -37.809429205570211 ], [ 144.898323687178987, -37.808977476314546 ], [ 144.898272020002793, -37.808971480481667 ], [ 144.89822126553176, -37.808961744378962 ], [ 144.898171852980141, -37.808948350341574 ], [ 144.898124200213431, -37.808931411638568 ], [ 144.898078710214463, -37.808911071515048 ], [ 144.898035767675339, -37.808887501980692 ], [ 144.897995735744161, -37.808860902355022 ], [ 144.893331542374767, -37.805460066490163 ], [ 144.893290076361524, -37.805426499838752 ], [ 144.893253243892104, -37.805389688052394 ], [ 144.893221445881551, -37.805350031828027 ], [ 144.893195028443159, -37.805307962823619 ], [ 144.893174279121183, -37.805263938959627 ], [ 144.893159423761261, -37.805218439434228 ], [ 144.891988717719556, -37.800666026370756 ], [ 144.89198010055344, -37.800621001653653 ], [ 144.891977256253455, -37.800575516678443 ], [ 144.891980213874973, -37.800530036253114 ], [ 144.89198894318389, -37.800485025138286 ], [ 144.89200335496605, -37.800440943297993 ], [ 144.892023301939446, -37.800398241199332 ], [ 144.894206659739012, -37.796362590333402 ], [ 144.894231123101605, -37.796322869588828 ], [ 144.894260375025596, -37.796285242827082 ], [ 144.894294133794688, -37.796250072411198 ], [ 144.894332074290958, -37.796217697047943 ], [ 144.894373831126018, -37.796188428526094 ], [ 144.89441900215985, -37.796162548713866 ], [ 144.899059649796186, -37.793769403190943 ], [ 144.89911157520811, -37.793745619906829 ], [ 144.899166371741387, -37.793726314706802 ], [ 144.899223428270233, -37.793711702894129 ], [ 144.899282108465343, -37.79370194742846 ], [ 144.899341757890255, -37.793697157108589 ], [ 144.903752823993017, -37.793528822176846 ], [ 144.903812525954748, -37.793529036770913 ], [ 144.903871869387899, -37.79353422555296 ], [ 144.903930197998307, -37.793544331138882 ], [ 144.911746767632252, -37.795244433595329 ], [ 144.91438449563725, -37.794864235392566 ], [ 144.924043508131007, -37.785754188840102 ], [ 144.923991252631481, -37.783218516559458 ], [ 144.918966303238562, -37.777192723170806 ], [ 144.91893259451615, -37.777146574144446 ], [ 144.918905994588584, -37.777097586104716 ], [ 144.916808836754569, -37.772504253424572 ], [ 144.906233588208835, -37.757604131602299 ], [ 144.906209214039308, -37.757565572731131 ], [ 144.906189597199017, -37.757525339615988 ], [ 144.906174917578824, -37.757483801219344 ], [ 144.906165309791476, -37.757441338473377 ], [ 144.906160861937423, -37.757398340786359 ], [ 144.906161614797242, -37.757355202471778 ], [ 144.906447363261236, -37.753686020725681 ], [ 144.906453312918671, -37.753643120081236 ], [ 144.90646440570714, -37.753600868345558 ], [ 144.90648053980928, -37.753559653302425 ], [ 144.906501567139486, -37.753519853220247 ], [ 144.906527294703352, -37.753481833380519 ], [ 144.908800076988314, -37.750477671134256 ], [ 144.90882775532063, -37.75044449717987 ], [ 144.908859012417139, -37.750413391934188 ], [ 144.90889360441048, -37.750384598075698 ], [ 144.908931261415887, -37.750358340249434 ], [ 144.908971689636871, -37.750334823314574 ], [ 144.912245875942091, -37.748601226727814 ], [ 144.912289782516581, -37.748580189920617 ], [ 144.912335901835775, -37.748562386845201 ], [ 144.912383857155532, -37.748547962932648 ], [ 144.912433256734374, -37.748537036010013 ], [ 144.912483697033508, -37.748529695337858 ], [ 144.917053392454847, -37.74803283086198 ], [ 144.917112642707622, -37.748028884325997 ], [ 144.917172087749663, -37.748029883055771 ], [ 144.917231074745274, -37.748035816083132 ], [ 144.917288955888864, -37.748046618250484 ], [ 144.91734509551884, -37.748062170926445 ], [ 144.922376300871122, -37.749695370878939 ], [ 144.922426224482791, -37.74971386974007 ], [ 144.922473653266962, -37.749736125900398 ], [ 144.922518140058287, -37.749761929526713 ], [ 144.922559265427509, -37.749791037339655 ], [ 144.922596641635835, -37.749823174907434 ], [ 144.922629916290845, -37.749858039232862 ], [ 144.925752840105673, -37.75348298822167 ], [ 144.925782622089514, -37.753521582866107 ], [ 144.925807376277959, -37.753562355443954 ], [ 144.925826852796234, -37.753604894400318 ], [ 144.925840855040605, -37.753648770349997 ], [ 144.925849241663627, -37.753693540411419 ], [ 144.926231961246998, -37.75680350757289 ], [ 144.926234613422054, -37.756842156234484 ], [ 144.926233077381823, -37.756880842997752 ], [ 144.926227364458128, -37.756919282297851 ], [ 144.923822546935355, -37.76871654613219 ], [ 144.931041492211506, -37.781524844272099 ], [ 144.931058472534318, -37.781558546388112 ], [ 144.93107197933881, -37.781593224053815 ], [ 144.933890386309201, -37.790017239338574 ], [ 144.944259790337583, -37.798380546787392 ], [ 144.948482223418807, -37.800522184132952 ], [ 144.948534363607024, -37.800552058335896 ], [ 144.948581911432939, -37.800586419690518 ], [ 144.948624256813673, -37.80062482731325 ], [ 144.952831633419635, -37.804907761093027 ], [ 144.965551584683567, -37.810053668273007 ], [ 144.969937507918019, -37.810649103154667 ], [ 144.969997888978355, -37.810660017412999 ], [ 144.970056412877028, -37.8106760833859 ], [ 144.97011238353781, -37.810697109986833 ], [ 144.97491903354404, -37.812764395832424 ], [ 144.995708751288475, -37.817400874343811 ], [ 144.995759446590114, -37.817414245888109 ], [ 144.995808333635068, -37.817431337380086 ], [ 144.995854979775288, -37.817451997561278 ], [ 144.995898972193658, -37.817476043590389 ], [ 144.995939921557209, -37.817503262661418 ], [ 144.995977465462715, -37.817533413886913 ], [ 144.99601127164388, -37.817566230429627 ], [ 144.999713399580855, -37.821526205335616 ], [ 144.999746173800929, -37.821565378163619 ], [ 144.999773622914404, -37.8216070471614 ], [ 144.999795447957041, -37.821650758501193 ], [ 144.999811411216427, -37.821696036110872 ], [ 144.999821338821391, -37.821742386858695 ], [ 144.999825122636139, -37.821789305924241 ], [ 144.999889791250268, -37.826180769416823 ], [ 144.999887610222686, -37.826225822213132 ], [ 144.999879762782882, -37.826270476464387 ], [ 144.999866327520976, -37.826314284912769 ], [ 144.999847438995431, -37.826356808771301 ], [ 144.999823286385748, -37.826397622118861 ], [ 144.999794111597879, -37.826436316166102 ], [ 144.996599607927465, -37.83022825053996 ], [ 144.996568321611818, -37.830261894418733 ], [ 144.996533237925007, -37.83029309314702 ], [ 144.996494658986876, -37.830321578056008 ], [ 144.996452917017905, -37.830347103846755 ], [ 144.996408371478338, -37.830369450702634 ], [ 144.996361405972465, -37.830388426182431 ], [ 144.99631242494533, -37.830403866877532 ], [ 144.990236897625238, -37.832064425458384 ], [ 144.990186326126718, -37.83207619480639 ], [ 144.990134596909257, -37.832084195750667 ], [ 144.990082155350706, -37.832088359404736 ], [ 144.990029452962517, -37.832088649920372 ], [ 144.989976943501773, -37.832085064796267 ], [ 144.989925079064506, -37.832077634899633 ], [ 144.989874306192974, -37.832066424200391 ], [ 144.968047019153829, -37.826366811431576 ], [ 144.950111264812989, -37.826376536106771 ], [ 144.950058135877271, -37.82637458566424 ], [ 144.950005469914004, -37.826368701769233 ], [ 144.949953728770822, -37.826358936019815 ], [ 144.949903366184827, -37.82634537405545 ], [ 144.949854823803378, -37.826328134806026 ], [ 144.949808527311063, -37.82630736944872 ], [ 144.944451477734333, -37.823634336754445 ], [ 144.944407093157281, -37.823609771594157 ], [ 144.944365857913681, -37.823581966768337 ], [ 144.944328146457963, -37.82355117477303 ], [ 144.94429430124373, -37.823517675230612 ], [ 144.933839944388041, -37.812092388492886 ], [ 144.933815723548264, -37.812063655409077 ], [ 144.933794350881101, -37.812033533606815 ], [ 144.931608519121198, -37.808655795593111 ], [ 144.923506372105777, -37.803193345000736 ], [ 144.920334072462452, -37.802925394417031 ] ] ] } }
]
}
