{
"type": "FeatureCollection",
"name": "commute_hulls_metro_tram__southern-cross",
"crs": { "type": "name", "properties": { "name": "urn:ogc:def:crs:OGC:1.3:CRS84" } },
"features": [
{ "type": "Feature", "properties": { "MODE": "METRO TRAM", "transit_time_minutes_nearest_tier": 60.0, "centre": "southern-cross", "centre_name": "Southern Cross" }, "geometry": { "type": "Polygon", "coordinates": [ [ [ 144.888243388639921, -37.711936840147509 ], [ 144.888441099656461, -37.711718699656437 ], [ 144.888659240147518, -37.711520988639911 ], [ 144.888895709300954, -37.71134561116309 ], [ 144.889148229789527, -37.711194256206952 ], [ 144.889414369702905, -37.711068381402463 ], [ 144.889691565968235, -37.7109691989928 ], [ 144.889977149033967, -37.710897664158793 ], [ 144.890268368579029, -37.710854465819985 ], [ 144.89056242, -37.71084002 ], [ 144.890856471420989, -37.710854465819985 ], [ 144.891147690966051, -37.710897664158793 ], [ 144.891433274031783, -37.7109691989928 ], [ 144.963944201420986, -37.724594445819989 ], [ 145.02266325857903, -37.722450205819989 ], [ 145.02295731000001, -37.72243576 ], [ 145.023251361420989, -37.722450205819989 ], [ 145.023542580966051, -37.722493404158797 ], [ 145.023828164031784, -37.722564938992804 ], [ 145.024105360297114, -37.722664121402467 ], [ 145.024371500210492, -37.722789996206956 ], [ 145.024624020699065, -37.722941351163094 ], [ 145.0248604898525, -37.723116728639916 ], [ 145.025078630343558, -37.723314439656441 ], [ 145.025276341360097, -37.723532580147513 ], [ 145.025451718836905, -37.723769049300948 ], [ 145.025603073793064, -37.724021569789528 ], [ 145.086534389852488, -37.792329048639914 ], [ 145.123491730210475, -37.815189386206953 ], [ 145.123744250699048, -37.815340741163091 ], [ 145.123980719852483, -37.815516118639913 ], [ 145.176640420699044, -37.853049581163091 ], [ 145.17687688985248, -37.853224958639913 ], [ 145.177095030343537, -37.853422669656439 ], [ 145.177292741360077, -37.85364081014751 ], [ 145.177468118836885, -37.853877279300946 ], [ 145.177619473793044, -37.854129799789526 ], [ 145.177745348597512, -37.854395939702904 ], [ 145.177844531007196, -37.854673135968241 ], [ 145.177916065841202, -37.854958719033952 ], [ 145.177959264180004, -37.855249938579014 ], [ 145.177973709999975, -37.85554399 ], [ 145.177959264180004, -37.855838041420988 ], [ 145.177916065841202, -37.85612926096605 ], [ 145.177844531007196, -37.856414844031761 ], [ 145.177745348597512, -37.856692040297098 ], [ 145.177619473793044, -37.856958180210476 ], [ 145.177468118836885, -37.857210700699056 ], [ 145.177292741360077, -37.857447169852492 ], [ 145.177095030343537, -37.857665310343563 ], [ 145.17687688985248, -37.857863021360089 ], [ 145.176640420699044, -37.858038398836911 ], [ 145.176387900210472, -37.858189753793049 ], [ 145.176121760297093, -37.858315628597538 ], [ 145.175844564031763, -37.858414811007201 ], [ 145.175558980966031, -37.858486345841207 ], [ 145.175267761420969, -37.858529544180016 ], [ 145.174973709999989, -37.85854399 ], [ 145.174679658579009, -37.858529544180016 ], [ 145.167902028579022, -37.857748374180012 ], [ 145.057926080343549, -37.895986090343563 ], [ 145.057707939852492, -37.896183801360088 ], [ 145.057471470699056, -37.89635917883691 ], [ 145.057218950210483, -37.896510533793048 ], [ 145.056952810297105, -37.896636408597537 ], [ 145.018303920210485, -37.91686742379305 ], [ 145.018037780297107, -37.916993298597539 ], [ 145.017760584031777, -37.917092481007202 ], [ 145.017475000966044, -37.917164015841209 ], [ 145.017183781420982, -37.917207214180017 ], [ 145.01688973, -37.91722166 ], [ 145.016595678579023, -37.917207214180017 ], [ 145.016304459033961, -37.917164015841209 ], [ 145.016018875968228, -37.917092481007202 ], [ 145.015741679702899, -37.916993298597539 ], [ 145.01547553978952, -37.91686742379305 ], [ 145.015223019300947, -37.916716068836912 ], [ 145.014986550147512, -37.91654069136009 ], [ 144.930910140147517, -37.843108491360091 ], [ 144.93069199965646, -37.842910780343566 ], [ 144.93049428863992, -37.842692639852494 ], [ 144.887235288639914, -37.792378979852494 ], [ 144.887059911163107, -37.792142510699058 ], [ 144.886908556206947, -37.791889990210478 ], [ 144.875330966206946, -37.770270190210475 ], [ 144.875205091402478, -37.770004050297096 ], [ 144.875105908992794, -37.769726854031759 ], [ 144.875034374158787, -37.769441270966048 ], [ 144.874991175819986, -37.769150051420986 ], [ 144.874976730000014, -37.768856 ], [ 144.874991175819986, -37.768561948579013 ], [ 144.875034374158787, -37.768270729033951 ], [ 144.887620064158796, -37.71325474903395 ], [ 144.887691598992802, -37.712969165968239 ], [ 144.887790781402487, -37.712691969702902 ], [ 144.887916656206954, -37.712425829789524 ], [ 144.888068011163114, -37.712173309300944 ], [ 144.888243388639921, -37.711936840147509 ] ] ] } },
{ "type": "Feature", "properties": { "MODE": "METRO TRAM", "transit_time_minutes_nearest_tier": 45.0, "centre": "southern-cross", "centre_name": "Southern Cross" }, "geometry": { "type": "Polygon", "coordinates": [ [ [ 144.897032328639909, -37.738128870147513 ], [ 144.897230039656449, -37.737910729656441 ], [ 144.897448180147506, -37.737713018639916 ], [ 144.897684649300942, -37.737537641163094 ], [ 144.897937169789515, -37.737386286206956 ], [ 144.898203309702893, -37.737260411402467 ], [ 144.898480505968223, -37.737161228992804 ], [ 144.898766089033955, -37.737089694158797 ], [ 144.899057308579017, -37.737046495819989 ], [ 144.963971648579019, -37.728633385819982 ], [ 144.9642657, -37.72861894 ], [ 144.964559751420978, -37.728633385819982 ], [ 144.96485097096604, -37.728676584158791 ], [ 144.965136554031773, -37.728748118992797 ], [ 145.008829064031772, -37.7403361989928 ], [ 145.009106260297102, -37.740435381402463 ], [ 145.009372400210481, -37.740561256206952 ], [ 145.009624920699054, -37.74071261116309 ], [ 145.009861389852489, -37.740887988639912 ], [ 145.010079530343546, -37.741085699656438 ], [ 145.010277241360086, -37.741303840147509 ], [ 145.010452618836894, -37.741540309300945 ], [ 145.010603973793053, -37.741792829789524 ], [ 145.010729848597521, -37.742058969702903 ], [ 145.010829031007205, -37.74233616596824 ], [ 145.010900565841212, -37.742621749033951 ], [ 145.010943764180013, -37.742912968579013 ], [ 145.010958209999984, -37.74320702 ], [ 145.061369234031787, -37.807405478992798 ], [ 145.094875568579027, -37.811578625819983 ], [ 145.09516962, -37.81156418 ], [ 145.095463671420987, -37.811578625819983 ], [ 145.099543401420988, -37.811959965819987 ], [ 145.103416711420977, -37.812418945819985 ], [ 145.109747511420977, -37.813178635819988 ], [ 145.115885641420988, -37.813925885819984 ], [ 145.120154561420975, -37.814471755819987 ], [ 145.120445780966037, -37.814514954158795 ], [ 145.122662810966034, -37.814892794158794 ], [ 145.122948394031766, -37.814964328992801 ], [ 145.123225590297096, -37.815063511402464 ], [ 145.123491730210475, -37.815189386206953 ], [ 145.123744250699048, -37.815340741163091 ], [ 145.123980719852483, -37.815516118639913 ], [ 145.12419886034354, -37.815713829656438 ], [ 145.12439657136008, -37.81593197014751 ], [ 145.124571948836888, -37.816168439300945 ], [ 145.124723303793047, -37.816420959789525 ], [ 145.124849178597515, -37.816687099702904 ], [ 145.124948361007199, -37.816964295968241 ], [ 145.125019895841206, -37.817249879033952 ], [ 145.125063094180007, -37.817541098579014 ], [ 145.125077539999978, -37.81783515 ], [ 145.125063094180007, -37.818129201420987 ], [ 145.125019895841206, -37.818420420966049 ], [ 145.124948361007199, -37.81870600403176 ], [ 145.124849178597515, -37.818983200297097 ], [ 145.124723303793047, -37.819249340210476 ], [ 145.124571948836888, -37.819501860699056 ], [ 145.12439657136008, -37.819738329852491 ], [ 145.12419886034354, -37.819956470343563 ], [ 145.123980719852483, -37.820154181360088 ], [ 145.089577151360089, -37.851422449852492 ], [ 145.058450523793056, -37.895278960210476 ], [ 145.058299168836896, -37.895531480699056 ], [ 145.058123791360089, -37.895767949852491 ], [ 145.057926080343549, -37.895986090343563 ], [ 145.057707939852492, -37.896183801360088 ], [ 145.057471470699056, -37.89635917883691 ], [ 145.057218950210483, -37.896510533793048 ], [ 145.056952810297105, -37.896636408597537 ], [ 145.056675614031775, -37.8967355910072 ], [ 145.056390030966043, -37.896807125841207 ], [ 145.056098811420981, -37.896850324180015 ], [ 145.05580476, -37.89686477 ], [ 145.055510708579021, -37.896850324180015 ], [ 145.055219489033959, -37.896807125841207 ], [ 144.996992729033963, -37.886845995841206 ], [ 144.99670714596823, -37.886774461007199 ], [ 144.9964299497029, -37.886675278597536 ], [ 144.996163809789522, -37.886549403793047 ], [ 144.995911289300949, -37.886398048836909 ], [ 144.931146609300953, -37.843283868836913 ], [ 144.930910140147517, -37.843108491360091 ], [ 144.93069199965646, -37.842910780343566 ], [ 144.93049428863992, -37.842692639852494 ], [ 144.887235288639914, -37.792378979852494 ], [ 144.887059911163107, -37.792142510699058 ], [ 144.886908556206947, -37.791889990210478 ], [ 144.879346656206934, -37.776344250210478 ], [ 144.879220781402466, -37.776078110297099 ], [ 144.879121598992782, -37.775800914031763 ], [ 144.879050064158776, -37.775515330966051 ], [ 144.879006865819974, -37.775224111420989 ], [ 144.87899242, -37.77493006 ], [ 144.879006865819974, -37.774636008579016 ], [ 144.879195215819976, -37.772810028579016 ], [ 144.879238414158777, -37.772518809033954 ], [ 144.879870914158801, -37.769051659033948 ], [ 144.879942448992807, -37.768766075968237 ], [ 144.880041631402491, -37.7684888797029 ], [ 144.880167506206959, -37.768222739789522 ], [ 144.896705596206942, -37.738617859789528 ], [ 144.896856951163102, -37.738365339300948 ], [ 144.897032328639909, -37.738128870147513 ] ] ] } },
{ "type": "Feature", "properties": { "MODE": "METRO TRAM", "transit_time_minutes_nearest_tier": 30.0, "centre": "southern-cross", "centre_name": "Southern Cross" }, "geometry": { "type": "Polygon", "coordinates": [ [ [ 144.887235288639914, -37.788572620147512 ], [ 144.887432999656454, -37.788354479656441 ], [ 144.887651140147511, -37.788156768639915 ], [ 144.887887609300947, -37.787981391163093 ], [ 144.88814012978952, -37.787830036206955 ], [ 144.888406269702898, -37.787704161402466 ], [ 144.888683465968228, -37.787604978992803 ], [ 144.88896904903396, -37.787533444158797 ], [ 144.889260268579022, -37.787490245819988 ], [ 144.88955432, -37.7874758 ], [ 144.889848371420982, -37.787490245819988 ], [ 144.890139590966044, -37.787533444158797 ], [ 144.924079495968215, -37.784755428992803 ], [ 144.946949090147513, -37.772613778639915 ], [ 144.947185559300948, -37.772438401163093 ], [ 144.947438079789521, -37.772287046206955 ], [ 144.947704219702899, -37.772161171402466 ], [ 144.947981415968229, -37.772061988992803 ], [ 144.948266999033962, -37.771990454158797 ], [ 144.948558218579024, -37.771947255819988 ], [ 144.979539688579024, -37.767436055819985 ], [ 144.998605518579012, -37.766427735819988 ], [ 144.99889957, -37.76641329 ], [ 144.999193621420972, -37.766427735819988 ], [ 144.999484840966034, -37.766470934158797 ], [ 144.999770424031766, -37.766542468992803 ], [ 145.000047620297096, -37.766641651402466 ], [ 145.000313760210474, -37.766767526206955 ], [ 145.000566280699047, -37.766918881163093 ], [ 145.000802749852483, -37.767094258639915 ], [ 145.00102089034354, -37.767291969656441 ], [ 145.00121860136008, -37.767510110147512 ], [ 145.001393978836887, -37.767746579300947 ], [ 145.001545333793047, -37.767999099789527 ], [ 145.001671208597514, -37.768265239702906 ], [ 145.001770391007199, -37.768542435968243 ], [ 145.038131610210485, -37.812165946206953 ], [ 145.058930494031785, -37.820711888992797 ], [ 145.059207690297114, -37.82081107140246 ], [ 145.059473830210493, -37.820936946206949 ], [ 145.059726350699066, -37.821088301163087 ], [ 145.059962819852501, -37.821263678639909 ], [ 145.071211279852491, -37.830379438639909 ], [ 145.071429420343549, -37.830577149656435 ], [ 145.071627131360088, -37.830795290147506 ], [ 145.071802508836896, -37.831031759300942 ], [ 145.071953863793055, -37.831284279789521 ], [ 145.072079738597523, -37.8315504197029 ], [ 145.072178921007207, -37.831827615968237 ], [ 145.072250455841214, -37.832113199033948 ], [ 145.072293654180015, -37.83240441857901 ], [ 145.072308099999987, -37.83269847 ], [ 145.072293654180015, -37.832992521420984 ], [ 145.072250455841214, -37.833283740966046 ], [ 145.072178921007207, -37.833569324031757 ], [ 145.072079738597523, -37.833846520297094 ], [ 145.071953863793055, -37.834112660210472 ], [ 145.071802508836896, -37.834365180699052 ], [ 145.044433188836905, -37.878071060699057 ], [ 145.044257811360097, -37.878307529852492 ], [ 145.044060100343557, -37.878525670343564 ], [ 145.0438419598525, -37.878723381360089 ], [ 145.043605490699065, -37.878898758836911 ], [ 145.043352970210492, -37.879050113793049 ], [ 145.043086830297113, -37.879175988597538 ], [ 145.042809634031784, -37.879275171007201 ], [ 145.042524050966051, -37.879346705841208 ], [ 145.042232831420989, -37.879389904180016 ], [ 145.04193878000001, -37.87940435 ], [ 145.04164472857903, -37.879389904180016 ], [ 145.041353509033968, -37.879346705841208 ], [ 145.041067925968235, -37.879275171007201 ], [ 144.9942354, -37.87180615 ], [ 144.97994401, -37.87187714 ], [ 144.979649958579017, -37.871862694180017 ], [ 144.979358739033955, -37.871819495841208 ], [ 144.979073155968223, -37.871747961007202 ], [ 144.978795959702893, -37.871648778597539 ], [ 144.978529819789514, -37.87152290379305 ], [ 144.972071369789518, -37.867843233793046 ], [ 144.971818849300945, -37.867691878836908 ], [ 144.931146609300953, -37.843283868836913 ], [ 144.930910140147517, -37.843108491360091 ], [ 144.93069199965646, -37.842910780343566 ], [ 144.93049428863992, -37.842692639852494 ], [ 144.930318911163113, -37.842456170699059 ], [ 144.898798389656463, -37.803488110343565 ], [ 144.887651140147511, -37.792794831360091 ], [ 144.887432999656454, -37.792597120343565 ], [ 144.887235288639914, -37.792378979852494 ], [ 144.887059911163107, -37.792142510699058 ], [ 144.886908556206947, -37.791889990210478 ], [ 144.88678268140248, -37.7916238502971 ], [ 144.886683498992795, -37.791346654031763 ], [ 144.886611964158789, -37.791061070966052 ], [ 144.886568765819987, -37.79076985142099 ], [ 144.886554320000016, -37.7904758 ], [ 144.886568765819987, -37.790181748579016 ], [ 144.886611964158789, -37.789890529033954 ], [ 144.886683498992795, -37.789604945968243 ], [ 144.88678268140248, -37.789327749702906 ], [ 144.886908556206947, -37.789061609789528 ], [ 144.887059911163107, -37.788809089300948 ], [ 144.887235288639914, -37.788572620147512 ] ] ] } },
{ "type": "Feature", "properties": { "MODE": "METRO TRAM", "transit_time_minutes_nearest_tier": 15.0, "centre": "southern-cross", "centre_name": "Southern Cross" }, "geometry": { "type": "Polygon", "coordinates": [ [ [ 144.898739308639904, -37.79817741014751 ], [ 144.898937019656444, -37.797959269656438 ], [ 144.899155160147501, -37.797761558639912 ], [ 144.899391629300936, -37.797586181163091 ], [ 144.899644149789509, -37.797434826206953 ], [ 144.899910289702888, -37.797308951402464 ], [ 144.900187485968218, -37.797209768992801 ], [ 144.90047306903395, -37.797138234158794 ], [ 144.900764288579012, -37.797095035819986 ], [ 144.90105834, -37.79708059 ], [ 144.901352391420971, -37.797095035819986 ], [ 144.901643610966033, -37.797138234158794 ], [ 144.901929194031766, -37.797209768992801 ], [ 144.902206390297096, -37.797308951402464 ], [ 144.902472530210474, -37.797434826206953 ], [ 144.902725050699047, -37.797586181163091 ], [ 144.902961519852482, -37.797761558639912 ], [ 144.90317966034354, -37.797959269656438 ], [ 144.903377371360079, -37.79817741014751 ], [ 144.903552748836887, -37.798413879300945 ], [ 144.903704103793046, -37.798666399789525 ], [ 144.903829978597514, -37.798932539702903 ], [ 144.903929161007198, -37.79920973596824 ], [ 144.904000695841205, -37.799495319033952 ], [ 144.904043894180006, -37.799786538579013 ], [ 144.904058339999978, -37.80008059 ], [ 144.904043894180006, -37.800374641420987 ], [ 144.903905264180025, -37.80166084142099 ], [ 144.903862065841224, -37.801952060966052 ], [ 144.903790531007218, -37.802237644031763 ], [ 144.935982191402474, -37.813197089702903 ], [ 144.936108066206941, -37.812930949789525 ], [ 144.936259421163101, -37.812678429300945 ], [ 144.936434798639908, -37.81244196014751 ], [ 144.936632509656448, -37.812223819656438 ], [ 144.936850650147505, -37.812026108639913 ], [ 144.937087119300941, -37.811850731163091 ], [ 144.937339639789514, -37.811699376206953 ], [ 144.937605779702892, -37.811573501402464 ], [ 144.937882975968222, -37.811474318992801 ], [ 144.940360749702904, -37.810540291402461 ], [ 144.940637945968234, -37.810441108992798 ], [ 144.954319479656448, -37.801501729656437 ], [ 144.954537620147505, -37.801304018639911 ], [ 144.95477408930094, -37.801128641163089 ], [ 144.955026609789513, -37.800977286206951 ], [ 144.955292749702892, -37.800851411402462 ], [ 144.955569945968222, -37.800752228992799 ], [ 144.955855529033954, -37.800680694158793 ], [ 144.956146748579016, -37.800637495819984 ], [ 144.9564408, -37.80062305 ], [ 144.956734851420975, -37.800637495819984 ], [ 144.957026070966037, -37.800680694158793 ], [ 144.95731165403177, -37.800752228992799 ], [ 144.974147110966044, -37.805076924158797 ], [ 144.992962330000012, -37.8066943 ], [ 144.993256381420991, -37.806708745819982 ], [ 144.993547600966053, -37.80675194415879 ], [ 144.993833184031786, -37.806823478992797 ], [ 144.994110380297116, -37.80692266140246 ], [ 144.994376520210494, -37.807048536206949 ], [ 144.994629040699067, -37.807199891163087 ], [ 144.994865509852502, -37.807375268639909 ], [ 144.99508365034356, -37.807572979656435 ], [ 144.995281361360099, -37.807791120147506 ], [ 144.995456738836907, -37.808027589300941 ], [ 144.995608093793066, -37.808280109789521 ], [ 144.995733968597534, -37.8085462497029 ], [ 144.995833151007218, -37.808823445968237 ], [ 144.995904685841225, -37.809109029033948 ], [ 144.995947884180026, -37.80940024857901 ], [ 144.99596233, -37.8096943 ], [ 144.995947884180026, -37.809988351420984 ], [ 144.995904685841225, -37.810279570966046 ], [ 144.995833151007218, -37.810565154031757 ], [ 144.991928051007193, -37.825548224031763 ], [ 144.991828868597509, -37.8258254202971 ], [ 144.991702993793041, -37.826091560210479 ], [ 144.991551638836881, -37.826344080699059 ], [ 144.991376261360074, -37.826580549852494 ], [ 144.991178550343534, -37.826798690343566 ], [ 144.990960409852477, -37.826996401360091 ], [ 144.990723940699041, -37.827171778836913 ], [ 144.968178208836889, -37.851292540699056 ], [ 144.968002831360081, -37.851529009852491 ], [ 144.967805120343542, -37.851747150343563 ], [ 144.967586979852484, -37.851944861360089 ], [ 144.967350510699049, -37.85212023883691 ], [ 144.967097990210476, -37.852271593793049 ], [ 144.966831850297098, -37.852397468597538 ], [ 144.966554654031768, -37.852496651007201 ], [ 144.966269070966035, -37.852568185841207 ], [ 144.965977851420973, -37.852611384180015 ], [ 144.9656838, -37.85262583 ], [ 144.965389748579014, -37.852611384180015 ], [ 144.965098529033952, -37.852568185841207 ], [ 144.96481294596822, -37.852496651007201 ], [ 144.96453574970289, -37.852397468597538 ], [ 144.936042009702902, -37.839825928597534 ], [ 144.935775869789524, -37.839700053793045 ], [ 144.935523349300951, -37.839548698836907 ], [ 144.935286880147515, -37.839373321360085 ], [ 144.935068739656458, -37.83917561034356 ], [ 144.934871028639918, -37.838957469852488 ], [ 144.934695651163111, -37.838721000699053 ], [ 144.934544296206951, -37.838468480210473 ], [ 144.934418421402484, -37.838202340297094 ], [ 144.934319238992799, -37.837925144031757 ], [ 144.934247704158793, -37.837639560966046 ], [ 144.934204505819991, -37.837348341420984 ], [ 144.93419006000002, -37.83705429 ], [ 144.934204505819991, -37.836760238579011 ], [ 144.934247704158793, -37.836469019033949 ], [ 144.934319238992799, -37.836183435968238 ], [ 144.934418421402484, -37.835906239702901 ], [ 144.934544296206951, -37.835640099789522 ], [ 144.935982191402474, -37.815493190297097 ], [ 144.935883008992789, -37.81521599403176 ], [ 144.935811474158783, -37.814930410966049 ], [ 144.935768275819981, -37.814639191420987 ], [ 144.93575383000001, -37.81434514 ], [ 144.935768275819981, -37.814051088579014 ], [ 144.935811474158783, -37.813759869033952 ], [ 144.935883008992789, -37.81347428596824 ], [ 144.903691348597533, -37.8025148402971 ], [ 144.903565473793066, -37.802780980210478 ], [ 144.903414118836906, -37.803033500699058 ], [ 144.903238741360099, -37.803269969852494 ], [ 144.903041030343559, -37.803488110343565 ], [ 144.902822889852501, -37.803685821360091 ], [ 144.902586420699066, -37.803861198836913 ], [ 144.902333900210493, -37.804012553793051 ], [ 144.902067760297115, -37.80413842859754 ], [ 144.901790564031785, -37.804237611007203 ], [ 144.901504980966052, -37.804309145841209 ], [ 144.901213761420991, -37.804352344180018 ], [ 144.900919710000011, -37.80436679 ], [ 144.900625658579031, -37.804352344180018 ], [ 144.900334439033969, -37.804309145841209 ], [ 144.900048855968237, -37.804237611007203 ], [ 144.899771659702907, -37.80413842859754 ], [ 144.899505519789528, -37.804012553793051 ], [ 144.899252999300955, -37.803861198836913 ], [ 144.89901653014752, -37.803685821360091 ], [ 144.898798389656463, -37.803488110343565 ], [ 144.898600678639923, -37.803269969852494 ], [ 144.898425301163115, -37.803033500699058 ], [ 144.898273946206956, -37.802780980210478 ], [ 144.898148071402488, -37.8025148402971 ], [ 144.898048888992804, -37.802237644031763 ], [ 144.897977354158797, -37.801952060966052 ], [ 144.897934155819996, -37.80166084142099 ], [ 144.897919710000025, -37.80136679 ], [ 144.897934155819996, -37.801072738579016 ], [ 144.898072785819977, -37.799786538579013 ], [ 144.898115984158778, -37.799495319033952 ], [ 144.898187518992785, -37.79920973596824 ], [ 144.898286701402469, -37.798932539702903 ], [ 144.898412576206937, -37.798666399789525 ], [ 144.898563931163096, -37.798413879300945 ], [ 144.898739308639904, -37.79817741014751 ] ] ] } }
]
}
