{
"type": "FeatureCollection",
"name": "commute_hulls_metro_tram",
"crs": { "type": "name", "properties": { "name": "urn:ogc:def:crs:OGC:1.3:CRS84" } },
"features": [
{ "type": "Feature", "properties": { "MODE": "METRO TRAM", "transit_time_minutes_nearest_tier": 90.0, "centre": "southern-cross", "centre_name": "Southern Cross" }, "geometry": { "type": "Polygon", "coordinates": [ [ [ 144.868964323822013, -37.765297770512177 ], [ 144.868975593913945, -37.765251162760208 ], [ 144.868992977683462, -37.76520575480474 ], [ 144.86901628220636, -37.765162050552703 ], [ 144.869045248855258, -37.765120535003668 ], [ 144.869079556169851, -37.765081668867687 ], [ 144.869118823424742, -37.765045883452942 ], [ 144.875178932075329, -37.760077213891158 ], [ 144.881707289967153, -37.742608651027432 ], [ 144.879291814940501, -37.735453434835499 ], [ 144.879279699645025, -37.735408486260262 ], [ 144.879273414632792, -37.735362791211756 ], [ 144.879273025322874, -37.735316825395358 ], [ 144.88050986339681, -37.713157380574323 ], [ 144.88051521670701, -37.713112461469784 ], [ 144.880526198908029, -37.713068193021577 ], [ 144.880542699837065, -37.713025019248647 ], [ 144.882179906923227, -37.709404251706978 ], [ 144.882201836408768, -37.709362476601839 ], [ 144.882228931372765, -37.709322660456039 ], [ 144.88226091832405, -37.709285205154309 ], [ 144.882297474395472, -37.70925048875155 ], [ 144.882338230603125, -37.709218861657192 ], [ 144.885806616000735, -37.706785380015397 ], [ 144.885850084024895, -37.70675777471066 ], [ 144.885896748412222, -37.706733687322583 ], [ 144.885946159763051, -37.706713349822543 ], [ 144.885997842224498, -37.706696958068733 ], [ 144.886051298073198, -37.706684669920179 ], [ 144.886106012508094, -37.706676603716538 ], [ 144.892463678999718, -37.705993526519983 ], [ 144.89251912428233, -37.705989756999038 ], [ 144.89257476762603, -37.705990323367836 ], [ 144.892630073164412, -37.705995220172028 ], [ 144.892684508284304, -37.706004400253541 ], [ 144.892737548754411, -37.706017775204643 ], [ 144.892788683773801, -37.706035216219398 ], [ 144.892837420890828, -37.706056555333895 ], [ 144.898297691175031, -37.708732641147783 ], [ 144.898339862172833, -37.7087554495563 ], [ 144.898379282400612, -37.7087811766812 ], [ 144.898415632817148, -37.708809614306091 ], [ 144.898448619225064, -37.708840532277513 ], [ 144.898477974651911, -37.708873680367567 ], [ 144.898503461510757, -37.708908790299098 ], [ 144.900212996340002, -37.711529460328329 ], [ 144.900233610276388, -37.711564702159485 ], [ 144.900250324635124, -37.711601224166436 ], [ 144.900263015049234, -37.711638754611464 ], [ 144.902466686459292, -37.719492899151632 ], [ 144.913884585978366, -37.736005702653308 ], [ 144.916606368718391, -37.736512892132922 ], [ 144.93776866159925, -37.734397256816614 ], [ 144.941768170481964, -37.732625828700627 ], [ 144.957142734682122, -37.721454330904606 ], [ 144.957178983781461, -37.721430114568754 ], [ 144.957217650192177, -37.721408385160466 ], [ 144.957258464253471, -37.721389294220288 ], [ 144.960728620575111, -37.719917451721336 ], [ 144.960774964469465, -37.719899887401823 ], [ 144.960823118274419, -37.719885724578077 ], [ 144.960872687282375, -37.719875079339808 ], [ 144.96092326518621, -37.719868038943872 ], [ 144.96097443740959, -37.719864661098867 ], [ 144.961025784504841, -37.719864973492271 ], [ 144.992495717241297, -37.721185517004834 ], [ 145.018064100681698, -37.7183327150303 ], [ 145.024824086584545, -37.715802461442287 ], [ 145.039131133161959, -37.706798841292908 ], [ 145.051112892444934, -37.691312542017009 ], [ 145.05114108237305, -37.691279478265884 ], [ 145.059390526213519, -37.682470084890063 ], [ 145.059425675050164, -37.682436137676426 ], [ 145.059464819676379, -37.682405074736991 ], [ 145.059507587349003, -37.682377191855814 ], [ 145.059553570827347, -37.682352754535856 ], [ 145.06370426838086, -37.680372612998625 ], [ 145.063758352115144, -37.680349871142326 ], [ 145.063815204869712, -37.680331894701069 ], [ 145.063874164262529, -37.680318893115057 ], [ 145.063934543368816, -37.680311017863097 ], [ 145.063995638723839, -37.680308360698191 ], [ 145.069308567396433, -37.680305404355799 ], [ 145.06936281311431, -37.680307440413486 ], [ 145.069416564763117, -37.680313592673215 ], [ 145.069469329020478, -37.680323804670628 ], [ 145.069520621625543, -37.680337982681984 ], [ 145.069569971823341, -37.680355996584041 ], [ 145.072866887893014, -37.681714963891608 ], [ 145.072910498278446, -37.681734939571335 ], [ 145.072951707192146, -37.681757911039256 ], [ 145.072990189728529, -37.681783697181494 ], [ 145.073025642476694, -37.681812094692113 ], [ 145.075050899155002, -37.683585208604981 ], [ 145.075082042584881, -37.683614945368632 ], [ 145.075109860921145, -37.683646696034771 ], [ 145.075134149007596, -37.683680226451692 ], [ 145.075154727721809, -37.683715289342217 ], [ 145.076495070847045, -37.68628113413213 ], [ 145.076513371082541, -37.686321491879944 ], [ 145.076526758387644, -37.686363049898333 ], [ 145.07653511137849, -37.686405431402235 ], [ 145.076538354314124, -37.686448252139833 ], [ 145.076584730129383, -37.689399735184288 ], [ 145.076582671946028, -37.68944412383027 ], [ 145.076575123267986, -37.689488135669215 ], [ 145.076562157464252, -37.689531342875597 ], [ 145.076543900562399, -37.68957332544484 ], [ 145.076520530024197, -37.689613675275915 ], [ 145.064448751841098, -37.708004593381951 ], [ 145.064421676437945, -37.708041458647756 ], [ 145.064390331352882, -37.70807612283857 ], [ 145.050356181118502, -37.722135772826299 ], [ 145.050320449619107, -37.722168238995927 ], [ 145.050280973960611, -37.722197842810672 ], [ 145.045195471681012, -37.725661092794049 ], [ 145.045151140036694, -37.725688379500568 ], [ 145.045103632339732, -37.725712055308627 ], [ 145.032997209970802, -37.73110098119038 ], [ 145.020247425395439, -37.742733643644193 ], [ 145.014362916281186, -37.750636080329741 ], [ 145.010728142491416, -37.759526755441605 ], [ 145.006404044293788, -37.78630098877246 ], [ 145.023072007273612, -37.798678431861703 ], [ 145.025915384264778, -37.799498766099653 ], [ 145.042009798139759, -37.793887895129387 ], [ 145.060725955903536, -37.785871008153229 ], [ 145.060773693853577, -37.785852783446153 ], [ 145.060823364572911, -37.785838169830335 ], [ 145.060874535493241, -37.785827294571504 ], [ 145.060926760982113, -37.785820252378876 ], [ 145.072187031892156, -37.784727454065568 ], [ 145.072244842322647, -37.784724206347583 ], [ 145.072302768702087, -37.784725653761107 ], [ 145.072360207220498, -37.784731781218717 ], [ 145.087600624009355, -37.78699035776097 ], [ 145.087656303748275, -37.787000936423794 ], [ 145.08771035762436, -37.787015912354569 ], [ 145.087762235792638, -37.787035133215923 ], [ 145.087811410538848, -37.787058403490242 ], [ 145.092238053792585, -37.789400923790289 ], [ 145.092282108178694, -37.789426755846208 ], [ 145.092322820355577, -37.789455837124649 ], [ 145.092359811280716, -37.789487896872991 ], [ 145.092392736555865, -37.789522636608119 ], [ 145.092421289633535, -37.78955973289527 ], [ 145.095167564012087, -37.793548127168009 ], [ 145.11126558230734, -37.807912286406861 ], [ 145.124841177678206, -37.810127104662243 ], [ 145.12490050666284, -37.810139463837871 ], [ 145.124957809150118, -37.810156828150369 ], [ 145.125012416469332, -37.810178994973484 ], [ 145.129017451026641, -37.812027690970737 ], [ 145.129065260154448, -37.812052388455875 ], [ 145.129109704310622, -37.812080767181598 ], [ 145.129150334878432, -37.812112540697157 ], [ 145.12918674173352, -37.812147388284984 ], [ 145.129218557383552, -37.812184958197726 ], [ 145.131717419417555, -37.815482173719111 ], [ 145.131746123553455, -37.815525139504366 ], [ 145.131768823001693, -37.815570309336934 ], [ 145.131785253281862, -37.815617156946672 ], [ 145.13179522295394, -37.815665136514795 ], [ 145.131798615849277, -37.815713689033089 ], [ 145.131805984871079, -37.819936035971253 ], [ 145.131803327307495, -37.819980195755569 ], [ 145.131795226066828, -37.820023936262615 ], [ 145.13178175915931, -37.820066836246333 ], [ 145.131763056270188, -37.820108482554737 ], [ 145.131739297511047, -37.820148474108734 ], [ 145.131710711685685, -37.820186425765009 ], [ 145.128523099546953, -37.823981877599842 ], [ 145.12848902457705, -37.824018325968126 ], [ 145.128450499989071, -37.824051870389525 ], [ 145.128407916635808, -37.824082170532989 ], [ 145.128361706550379, -37.824108918982532 ], [ 145.128312338563376, -37.82413184435633 ], [ 145.128260313545837, -37.824150714060067 ], [ 145.121673632631627, -37.826228122836348 ], [ 145.10399796881174, -37.836840315116625 ], [ 145.103404657672456, -37.838885315798194 ], [ 145.105533381797187, -37.850911139737541 ], [ 145.10553833039495, -37.850953624810046 ], [ 145.105538187990533, -37.850996290550498 ], [ 145.105532955852624, -37.851038754256869 ], [ 145.105522680903931, -37.85108063503872 ], [ 145.105507455300398, -37.851121557233654 ], [ 145.10548741560504, -37.851161153777127 ], [ 145.102813534804568, -37.85579606704588 ], [ 145.1027878801697, -37.855835319032664 ], [ 145.102757496612355, -37.855872388244485 ], [ 145.102722676738949, -37.855906917681246 ], [ 145.10268375588177, -37.855938574801947 ], [ 145.102641108869761, -37.855967054727557 ], [ 145.102595146418537, -37.855992083177249 ], [ 145.102546311175047, -37.856013419109914 ], [ 145.096770602410828, -37.858251045700591 ], [ 145.096722286996112, -37.858267610689452 ], [ 145.096672245392114, -37.858280559532879 ], [ 145.096620907096678, -37.858289781093198 ], [ 145.096568712737508, -37.858295196223345 ], [ 145.096516110290196, -37.858296758446158 ], [ 145.096463551233057, -37.858294454353342 ], [ 145.085057898021176, -37.857372200440452 ], [ 145.082766772656186, -37.857837203236393 ], [ 145.069132420618899, -37.872328249332227 ], [ 145.068394947179371, -37.87377725609057 ], [ 145.068839652866814, -37.877878718459222 ], [ 145.068841530561542, -37.877929536889461 ], [ 145.068836172293146, -37.877980199396113 ], [ 145.065751945106086, -37.895311929132426 ], [ 145.065739431816269, -37.895361735723711 ], [ 145.065719923897603, -37.895410109746656 ], [ 145.065693669253562, -37.89545643643951 ], [ 145.063141783080539, -37.899354791028706 ], [ 145.06311308947889, -37.899393722419404 ], [ 145.063079628690502, -37.899430186178421 ], [ 145.063041735855336, -37.899463817081227 ], [ 145.062999790506694, -37.899494278277039 ], [ 145.062954212769824, -37.899521264662766 ], [ 145.062905459153995, -37.899544505939211 ], [ 145.057831457753537, -37.90169683034722 ], [ 145.057777205553805, -37.901717002810159 ], [ 145.057720574906597, -37.901732538061168 ], [ 145.057662195067053, -37.901743263479013 ], [ 145.057602714727579, -37.901749059887273 ], [ 145.057542794809507, -37.901749862878667 ], [ 145.050020611801926, -37.901536038912312 ], [ 145.029621661059309, -37.909114349287471 ], [ 145.027842652977256, -37.910825053661888 ], [ 145.026554233039889, -37.916578930141192 ], [ 145.026542886082325, -37.916618923396946 ], [ 145.026526997220515, -37.916657933964018 ], [ 145.026506698005846, -37.91669563883854 ], [ 145.02648215650774, -37.916731725827219 ], [ 145.024209053259455, -37.91973790445568 ], [ 145.024178061101651, -37.919774668435338 ], [ 145.024142669312653, -37.919808848918635 ], [ 145.024103218732847, -37.919840116725233 ], [ 145.024060089292874, -37.919868170725401 ], [ 145.024013696354729, -37.919892740740217 ], [ 145.019848774830308, -37.921871310395353 ], [ 145.019794504660325, -37.921894030152394 ], [ 145.019737459319884, -37.921911983903101 ], [ 145.019678303453304, -37.921924962465056 ], [ 145.019617726296246, -37.921932814622565 ], [ 145.019556433645022, -37.921935448888647 ], [ 145.014226481693356, -37.92193619803146 ], [ 145.014172063675716, -37.92193413721062 ], [ 145.01411814433385, -37.921927960778902 ], [ 145.014065218546335, -37.921917725424329 ], [ 145.014013772072275, -37.921903525088254 ], [ 145.013964277092839, -37.921885490103044 ], [ 145.010657923986599, -37.920525036916423 ], [ 145.010608332047468, -37.92050203857945 ], [ 145.010561923344, -37.920475192844684 ], [ 145.01051917178404, -37.920444773852424 ], [ 145.010480513928314, -37.920411092231646 ], [ 145.007978031780567, -37.91799596756146 ], [ 145.007943864693289, -37.917959366506324 ], [ 145.007914534914704, -37.91792022061567 ], [ 145.007890341942129, -37.917878929633154 ], [ 145.00787153281658, -37.917835915206624 ], [ 145.006831510563075, -37.915001817148251 ], [ 145.006817559415225, -37.914954356549828 ], [ 145.006810160850506, -37.914905979782453 ], [ 145.006809401431923, -37.914857252935249 ], [ 145.00718915247063, -37.907657643067061 ], [ 144.993617596944461, -37.891471542213189 ], [ 144.990421194411397, -37.889562449695561 ], [ 144.990382201063341, -37.889536926662075 ], [ 144.99034622454343, -37.889508757954623 ], [ 144.973491405815508, -37.875078399254143 ], [ 144.967010364005404, -37.87135152732278 ], [ 144.966969535422407, -37.871325695526899 ], [ 144.966931871631942, -37.871297000943741 ], [ 144.966897690878142, -37.871265686034 ], [ 144.963568588218408, -37.867915981122572 ], [ 144.945240097870368, -37.854841050360541 ], [ 144.927953418711809, -37.847816895781691 ], [ 144.927910081471424, -37.847797331379155 ], [ 144.927869074838071, -37.847774828764024 ], [ 144.927830714770522, -37.84774956132155 ], [ 144.924558559553986, -37.845394161683856 ], [ 144.924515623078179, -37.845359739146893 ], [ 144.92447759318992, -37.845321861388086 ], [ 144.924444909159632, -37.845280965928126 ], [ 144.924417948506488, -37.845237525144 ], [ 144.922956288865237, -37.842523119643175 ], [ 144.92293855910188, -37.84248567054177 ], [ 144.922925088281744, -37.842447121850775 ], [ 144.922915982608288, -37.842407777505365 ], [ 144.922911313867701, -37.842367947713413 ], [ 144.922765598772457, -37.839976177257789 ], [ 144.922765508608279, -37.839934231915031 ], [ 144.922770338161911, -37.839892461739545 ], [ 144.922780045556436, -37.839851228849284 ], [ 144.922794546627784, -37.839810890703845 ], [ 144.924481817437453, -37.835830189502254 ], [ 144.928872603127246, -37.817264758253685 ], [ 144.928830955445903, -37.812496901693073 ], [ 144.920295930953444, -37.797452334595441 ], [ 144.918749494659323, -37.796077905347801 ], [ 144.916110287850785, -37.795621430018421 ], [ 144.901247541099877, -37.798253174208106 ], [ 144.897387784738072, -37.800000902807426 ], [ 144.897331089510203, -37.800023343714841 ], [ 144.897271596155434, -37.800040632518574 ], [ 144.897210045551475, -37.800052553918789 ], [ 144.893552733178126, -37.800591334062787 ], [ 144.893492226442532, -37.800597600379959 ], [ 144.893431221618215, -37.800598678036124 ], [ 144.893370423368339, -37.800594554583327 ], [ 144.893310533969697, -37.800585277651287 ], [ 144.889027575478337, -37.799729884339001 ], [ 144.888979495944454, -37.799718465946128 ], [ 144.888932875048624, -37.799703723143367 ], [ 144.888888077076984, -37.79968577112826 ], [ 144.888845452070996, -37.799664750174365 ], [ 144.882564034228579, -37.796252358404672 ], [ 144.882522033577061, -37.796227193415305 ], [ 144.882483150064758, -37.796199050313312 ], [ 144.882447717830701, -37.79616817094427 ], [ 144.882416041354361, -37.796134820667341 ], [ 144.880317411701327, -37.793697910762987 ], [ 144.880283126295865, -37.793652603027532 ], [ 144.880255763157521, -37.793604420857669 ], [ 144.873299042972633, -37.77914219663878 ], [ 144.868138191700581, -37.770603383298599 ], [ 144.868116750872019, -37.770562969879869 ], [ 144.868100361297053, -37.770521093230876 ], [ 144.868089178249079, -37.770478150108936 ], [ 144.868083307671924, -37.770434547374762 ], [ 144.868082805176556, -37.770390698137895 ], [ 144.868087675514488, -37.77034701784271 ], [ 144.868964323822013, -37.765297770512177 ] ] ] } },
{ "type": "Feature", "properties": { "MODE": "METRO TRAM", "transit_time_minutes_nearest_tier": 75.0, "centre": "southern-cross", "centre_name": "Southern Cross" }, "geometry": { "type": "Polygon", "coordinates": [ [ [ 144.8869992262278, -37.760747327359304 ], [ 144.890204538444777, -37.758813988693888 ], [ 144.894196774585708, -37.748992554469687 ], [ 144.893626550279464, -37.74688321260885 ], [ 144.8900510587209, -37.743108181464507 ], [ 144.890021277047396, -37.743073479372796 ], [ 144.889995693834749, -37.743036725959975 ], [ 144.889974531368637, -37.742998240575595 ], [ 144.889957973522229, -37.742958357617837 ], [ 144.889946164158431, -37.742917423627844 ], [ 144.88993920588041, -37.742875794278554 ], [ 144.889467834885721, -37.738499863051324 ], [ 144.889465776914221, -37.73845936616874 ], [ 144.88946831023199, -37.738418886283021 ], [ 144.8894754143287, -37.738378751012746 ], [ 144.889487031701151, -37.738339285186782 ], [ 144.889503068319016, -37.738300808215548 ], [ 144.889523394386089, -37.738263631505809 ], [ 144.891556090029184, -37.734960812710945 ], [ 144.891582959595581, -37.734922091956925 ], [ 144.89161447861207, -37.734885649270758 ], [ 144.891650343529875, -37.734851835612005 ], [ 144.89169020894866, -37.734820976621059 ], [ 144.8917336909428, -37.734793369483171 ], [ 144.895486606702946, -37.732641419430742 ], [ 144.895537880779216, -37.732615226051642 ], [ 144.89559239812823, -37.732593554207355 ], [ 144.895649529042117, -37.732576654219798 ], [ 144.895708613626198, -37.732564721293031 ], [ 144.899140086087556, -37.732025673664644 ], [ 144.899193510674053, -37.732019362280752 ], [ 144.89924744888026, -37.732017115075273 ], [ 144.899301411682984, -37.732018952422166 ], [ 144.899354909835978, -37.732024857663426 ], [ 144.903007473674876, -37.732569852915397 ], [ 144.903060140696425, -37.732579797893408 ], [ 144.903111374249818, -37.732593684889999 ], [ 144.903160707724879, -37.73261138742933 ], [ 144.913797665801212, -37.736924241885802 ], [ 144.913834803687394, -37.736940719504396 ], [ 144.913870282333392, -37.736959360950536 ], [ 144.918325585397156, -37.73949585969833 ], [ 144.920805062092342, -37.739742565731362 ], [ 144.935382776661868, -37.737361939673043 ], [ 144.938505715312544, -37.73441298850782 ], [ 144.938534856527184, -37.734387512096426 ], [ 144.938566361658872, -37.734363876894804 ], [ 144.957152083495885, -37.72144768561661 ], [ 144.957203172103164, -37.721416073878792 ], [ 144.957258464253471, -37.721389294220288 ], [ 144.960728620575111, -37.719917451721336 ], [ 144.960780476223135, -37.719898063959988 ], [ 144.960834530334154, -37.719882932325092 ], [ 144.960890230940095, -37.719872211331563 ], [ 144.960947009260906, -37.719866010455483 ], [ 144.964649090702324, -37.719612178808191 ], [ 144.964705855189408, -37.7196105536988 ], [ 144.964762539633, -37.719613446959571 ], [ 144.964818575481019, -37.719620829570758 ], [ 144.964873400686656, -37.719632627483797 ], [ 144.969637112814752, -37.720864076132209 ], [ 144.986308293396064, -37.721988984847812 ], [ 144.99136412342591, -37.721179922889291 ], [ 144.991419110577596, -37.721173331322234 ], [ 144.991474646066337, -37.72117104883305 ], [ 144.991530196011581, -37.721173097364009 ], [ 144.991585226393852, -37.721179457221922 ], [ 144.996853706880472, -37.721999475688719 ], [ 145.012467061943795, -37.721117597190869 ], [ 145.0373995481485, -37.71117844003016 ], [ 145.037447127262681, -37.711161592190749 ], [ 145.037496451602379, -37.711148283837062 ], [ 145.03754710498788, -37.711138627259714 ], [ 145.037598660026077, -37.71113270393699 ], [ 145.037650681716599, -37.711130563847526 ], [ 145.037702731121726, -37.711132225048459 ], [ 145.043210646944232, -37.71150976552422 ], [ 145.043265791614061, -37.711515721554917 ], [ 145.043319935909409, -37.711525942912644 ], [ 145.043372558399653, -37.711540331161729 ], [ 145.043423152308918, -37.711558747737776 ], [ 145.043471230396449, -37.711581015281872 ], [ 145.043516329648725, -37.711606919348583 ], [ 145.047832255322106, -37.714351654917259 ], [ 145.047874734062873, -37.714381557757577 ], [ 145.047913237640785, -37.71441468383675 ], [ 145.0479473804034, -37.714450701368008 ], [ 145.047976820374259, -37.714489249603723 ], [ 145.048001262678014, -37.714529942448401 ], [ 145.048020462494378, -37.714572372325769 ], [ 145.049689895558686, -37.718936090996728 ], [ 145.049702655793283, -37.718975876247448 ], [ 145.049710803523737, -37.719016419050419 ], [ 145.04971427107742, -37.719057382706339 ], [ 145.049713029649411, -37.719098427020263 ], [ 145.04970708954184, -37.719139211126908 ], [ 145.049696500078795, -37.719179396321358 ], [ 145.049681349196703, -37.719218648872136 ], [ 145.047593295977435, -37.723861605407421 ], [ 145.047572021110909, -37.723902460232019 ], [ 145.04754580717352, -37.723941461961033 ], [ 145.047514906614595, -37.723978234983434 ], [ 145.047479617019718, -37.724012425151535 ], [ 145.047440278245091, -37.724043703191704 ], [ 145.045207407889876, -37.725652731205159 ], [ 145.045155562733555, -37.725685900275792 ], [ 145.045099181784593, -37.725714015960293 ], [ 145.032566207087257, -37.731175993912231 ], [ 145.020787430948218, -37.741935152802675 ], [ 145.014222116517999, -37.750930208604082 ], [ 145.010801434305876, -37.759208069649347 ], [ 145.006055168375468, -37.785196471583696 ], [ 145.006046579976271, -37.785232873009114 ], [ 145.006034253311157, -37.785268591592612 ], [ 145.006018271675231, -37.785303385957569 ], [ 145.003542469159839, -37.79007400512657 ], [ 145.008438869613059, -37.801653421938525 ], [ 145.009704526856524, -37.802857534302575 ], [ 145.01193001291, -37.803456222959618 ], [ 145.021525756554411, -37.801496814315612 ], [ 145.042135458005419, -37.793838837773329 ], [ 145.059837942703808, -37.786115035991855 ], [ 145.059883434821643, -37.786097234220804 ], [ 145.059930747574356, -37.786082726265157 ], [ 145.059979503224923, -37.786071627953724 ], [ 145.06626666857693, -37.78487873038663 ], [ 145.066330166519805, -37.784869672417614 ], [ 145.066394549402077, -37.784866391260458 ], [ 145.07320434188108, -37.784826914257572 ], [ 145.07325970006184, -37.784828737819204 ], [ 145.07331457054562, -37.784834835876204 ], [ 145.08760245034108, -37.786990630748718 ], [ 145.087657640705856, -37.787001249187689 ], [ 145.087711218075356, -37.78701619077539 ], [ 145.087762646250184, -37.787035305977511 ], [ 145.087811410538848, -37.787058403490242 ], [ 145.092238053792585, -37.789400923790289 ], [ 145.09228455178237, -37.789428347876488 ], [ 145.092327285662464, -37.789459390025996 ], [ 145.092365810372883, -37.789493726948031 ], [ 145.092399724688789, -37.789531001037702 ], [ 145.092428675399134, -37.789570824100146 ], [ 145.092452360985277, -37.789612781393387 ], [ 145.101332571034874, -37.807770053004916 ], [ 145.10448845575084, -37.81149237693969 ], [ 145.104514694806454, -37.811526500848124 ], [ 145.10453701796456, -37.811562335654671 ], [ 145.104555249477471, -37.811599599244936 ], [ 145.104569245808761, -37.811637998255939 ], [ 145.104578896763655, -37.811677230385413 ], [ 145.105231867004193, -37.815143145230486 ], [ 145.105237390640269, -37.815187137694473 ], [ 145.105237452244324, -37.815231347831656 ], [ 145.105232051213562, -37.815275349874227 ], [ 145.105221239553458, -37.81531872005781 ], [ 145.104491027672708, -37.817642182113374 ], [ 145.104476668763283, -37.817680527963809 ], [ 145.104458078554302, -37.817717712207987 ], [ 145.104435403613508, -37.817753441668167 ], [ 145.104408822715158, -37.817787434636436 ], [ 145.102309030793123, -37.820224052919379 ], [ 145.102272635980142, -37.820261837234533 ], [ 145.102231423219877, -37.82029636792435 ], [ 145.102185851680417, -37.820327260263362 ], [ 145.102136429095339, -37.82035417006248 ], [ 145.102083706106725, -37.82037679750399 ], [ 145.094705074363503, -37.823154424155391 ], [ 145.082844765081319, -37.832605483115501 ], [ 145.080767667711399, -37.847163661224101 ], [ 145.080759464097781, -37.847204371455845 ], [ 145.080746601501829, -37.847244316521071 ], [ 145.080729187638582, -37.847283161885542 ], [ 145.080707368340029, -37.847320582224384 ], [ 145.080681326333917, -37.847356264146669 ], [ 145.080651279713493, -37.847389908820119 ], [ 145.066602122703699, -37.861682849131306 ], [ 145.067669816577109, -37.873001251406293 ], [ 145.068861390432687, -37.877073674841931 ], [ 145.068871588415192, -37.877118890446809 ], [ 145.068875924684875, -37.877164694135885 ], [ 145.06887435415095, -37.877210609731343 ], [ 145.068866893130121, -37.877256159891118 ], [ 145.068853619177276, -37.877300871071434 ], [ 145.067311093127273, -37.88151890710018 ], [ 145.067290021759021, -37.881566413915621 ], [ 145.067262392409191, -37.881611759940327 ], [ 145.067228550309011, -37.881654378553094 ], [ 145.054094688949391, -37.896304617209495 ], [ 145.054057825986206, -37.896341486299193 ], [ 145.054016312401103, -37.896375108342887 ], [ 145.053970600818815, -37.896405116753172 ], [ 145.05392118963735, -37.896431184342326 ], [ 145.053868617594048, -37.896453026889887 ], [ 145.049653286289725, -37.897987596977828 ], [ 145.049600290159333, -37.898004390073972 ], [ 145.049545436115352, -37.898016887575132 ], [ 145.049489277090174, -37.89802496350552 ], [ 145.049432379171293, -37.898028536459115 ], [ 145.042634535736227, -37.89818384760725 ], [ 145.02932372167092, -37.905466016692841 ], [ 145.028319009836622, -37.906911476768364 ], [ 145.026557121537991, -37.916564714219099 ], [ 145.026546342640756, -37.916608398586902 ], [ 145.026530174533377, -37.916651026997286 ], [ 145.026508775056584, -37.916692183267948 ], [ 145.026482353126141, -37.91673146558832 ], [ 145.026451166693363, -37.916768490442806 ], [ 145.022745348524836, -37.920728987281983 ], [ 145.022707087640299, -37.920765656456176 ], [ 145.022664158410407, -37.920798924751246 ], [ 145.022617039615767, -37.92082842112859 ], [ 145.022566256764748, -37.920853816617168 ], [ 145.02251237623247, -37.920874827982466 ], [ 145.019087410169277, -37.922036659061902 ], [ 145.019033508023938, -37.922052440847125 ], [ 145.018977870424067, -37.922063832721179 ], [ 145.018921065524751, -37.922070718353453 ], [ 145.018863673401995, -37.922073027429853 ], [ 145.014919303529865, -37.92207358182435 ], [ 145.014861910375885, -37.92207128888144 ], [ 145.014805102395201, -37.922064419217826 ], [ 145.014749459695111, -37.922053042984608 ], [ 145.014695550482969, -37.922037276352626 ], [ 145.011270064127217, -37.920876408128265 ], [ 145.011219894968747, -37.920857045857517 ], [ 145.011172363161876, -37.920833881361382 ], [ 145.01112792646822, -37.920807137729916 ], [ 145.011087012840022, -37.920777072522419 ], [ 145.008483226001431, -37.918666071849778 ], [ 145.008447063732405, -37.918633794288851 ], [ 145.008414966360903, -37.918598923511063 ], [ 145.008387228472827, -37.918561779562602 ], [ 145.008364104641345, -37.918522703352465 ], [ 145.008345807090564, -37.918482053523469 ], [ 145.006798310333295, -37.914441786089448 ], [ 145.006784956021249, -37.914399728568561 ], [ 145.00677676834033, -37.914356848603795 ], [ 145.006773823164053, -37.91431354360131 ], [ 145.006776147778879, -37.914270214905869 ], [ 145.008044316900367, -37.903213511123425 ], [ 144.998813506325689, -37.89275916685834 ], [ 144.990649826475504, -37.889710426655355 ], [ 144.990599469237139, -37.88968910619279 ], [ 144.990552064688018, -37.8896638899405 ], [ 144.990508091048923, -37.889635032283671 ], [ 144.990467991927915, -37.88960282434212 ], [ 144.975193495677757, -37.876030589511608 ], [ 144.966320543797309, -37.87084435293319 ], [ 144.966281889759642, -37.87081961812541 ], [ 144.966246108370882, -37.870792301879298 ], [ 144.966213473042387, -37.870762612924963 ], [ 144.953447751327246, -37.858066555075432 ], [ 144.927955569365366, -37.847817765331172 ], [ 144.927911445002621, -37.847798009313124 ], [ 144.927869716146517, -37.847775214194087 ], [ 144.927830714770522, -37.84774956132155 ], [ 144.924558559553986, -37.845394161683856 ], [ 144.924522931598915, -37.845366140771972 ], [ 144.924490560773506, -37.845335736088032 ], [ 144.924461699631621, -37.845303184850053 ], [ 144.924436573343627, -37.845268741023112 ], [ 144.924415377939653, -37.845232673337982 ], [ 144.922910417707982, -37.842344903747644 ], [ 144.922889701876329, -37.842297964997435 ], [ 144.922875636315524, -37.842249501502764 ], [ 144.922868392417058, -37.842200103845016 ], [ 144.922868058442276, -37.842150373988169 ], [ 144.923088454357583, -37.838650361755072 ], [ 144.923093310853659, -37.838609934525699 ], [ 144.923102738207177, -37.838570018396936 ], [ 144.923116659802673, -37.838530937733985 ], [ 144.923134962504264, -37.838493010112451 ], [ 144.923157497575033, -37.838456543737735 ], [ 144.92318408188612, -37.838421834940434 ], [ 144.929261425291514, -37.831237374245106 ], [ 144.929725225018188, -37.818416931475596 ], [ 144.928663136690517, -37.814342762058466 ], [ 144.928654888853316, -37.814301602334154 ], [ 144.928651470906203, -37.814260014065034 ], [ 144.928652912093213, -37.814218353178681 ], [ 144.928659200072161, -37.814176976223628 ], [ 144.928670281020487, -37.81413623731779 ], [ 144.930393978228352, -37.808970484202582 ], [ 144.926454450471709, -37.797562349447787 ], [ 144.924360296207368, -37.795797163835395 ], [ 144.919020049956089, -37.795002729356341 ], [ 144.918962412975048, -37.794991652999528 ], [ 144.918906546533805, -37.794975865973235 ], [ 144.918853060228628, -37.794955540540606 ], [ 144.915637883595309, -37.793565412715182 ], [ 144.915583263278904, -37.793538506072963 ], [ 144.91553282673425, -37.793506871440961 ], [ 144.915487220753278, -37.793470914501079 ], [ 144.90502109329168, -37.784225678898501 ], [ 144.889585855385178, -37.781767825352276 ], [ 144.88404430868772, -37.783081606529493 ], [ 144.883990784453431, -37.783092077262715 ], [ 144.883936232882036, -37.78309837794442 ], [ 144.883881168488585, -37.783100449148399 ], [ 144.880380867890949, -37.783097009579848 ], [ 144.880321009857965, -37.783094437662022 ], [ 144.880261827374909, -37.78308686998669 ], [ 144.880203980502387, -37.783074390955946 ], [ 144.880148114404221, -37.783057139747932 ], [ 144.880094852151473, -37.783035308764767 ], [ 144.87455255445127, -37.780460531183472 ], [ 144.874508265495194, -37.780437694408377 ], [ 144.874466842625054, -37.780411689243316 ], [ 144.874428644473085, -37.780382740838448 ], [ 144.874394001751057, -37.780351099826014 ], [ 144.874363214387074, -37.780317040150194 ], [ 144.874336548928909, -37.780280856695313 ], [ 144.868319422403346, -37.77116665010842 ], [ 144.868295767071089, -37.771126024287611 ], [ 144.868277306577028, -37.771083735815722 ], [ 144.868264223103864, -37.771040202049036 ], [ 144.868256645766394, -37.770995852633241 ], [ 144.867940573464125, -37.768054917022674 ], [ 144.867938548669542, -37.768012050293244 ], [ 144.867941669023963, -37.767969225015037 ], [ 144.867949906228034, -37.767926829463995 ], [ 144.867963185590611, -37.767885248019304 ], [ 144.868983673323555, -37.765227908555531 ], [ 144.869002507369544, -37.76518630241921 ], [ 144.869026387792843, -37.765146362129208 ], [ 144.869055084605776, -37.765108472329452 ], [ 144.869088321437914, -37.765072997916199 ], [ 144.871589506695614, -37.762660223270949 ], [ 144.871628136355071, -37.762626577335993 ], [ 144.871670846010375, -37.762596198232885 ], [ 144.871717199530934, -37.762569396175188 ], [ 144.871766723578816, -37.762546444849647 ], [ 144.875068160588683, -37.761189044323281 ], [ 144.875124496470079, -37.761168888288118 ], [ 144.875183258840849, -37.761153714695745 ], [ 144.875243750940371, -37.761143703463162 ], [ 144.875305255499285, -37.761138973295893 ], [ 144.8869992262278, -37.760747327359304 ] ] ] } },
{ "type": "Feature", "properties": { "MODE": "METRO TRAM", "transit_time_minutes_nearest_tier": 60.0, "centre": "southern-cross", "centre_name": "Southern Cross" }, "geometry": { "type": "Polygon", "coordinates": [ [ [ 144.894627779767092, -37.765367070933166 ], [ 144.89465407927969, -37.7653281134791 ], [ 144.894685060978901, -37.765291389363959 ], [ 144.894720426649883, -37.765257252068665 ], [ 144.894759835882013, -37.765226030174745 ], [ 144.900067100363742, -37.7614147613236 ], [ 144.904260780747535, -37.753491987273314 ], [ 144.904956138521413, -37.74779904493478 ], [ 144.904965120194959, -37.747751778096308 ], [ 144.904980358475797, -37.747705532987531 ], [ 144.905001681796563, -37.747660830246879 ], [ 144.905028850084051, -37.747618173147544 ], [ 144.905061557462858, -37.747578041931646 ], [ 144.907779470667975, -37.744602027811993 ], [ 144.907818980170902, -37.744563440007454 ], [ 144.907863605078887, -37.744528545381357 ], [ 144.907912801590385, -37.74449776915651 ], [ 144.907965970196869, -37.744471486368703 ], [ 144.911225102372839, -37.743052231764288 ], [ 144.911276698149891, -37.743032385626002 ], [ 144.911330552748296, -37.743016775818475 ], [ 144.911386116237253, -37.743005561739444 ], [ 144.911442821236648, -37.742998857900034 ], [ 144.91535924066298, -37.742695403616345 ], [ 144.915416507797033, -37.74269327660091 ], [ 144.915473752864955, -37.742695749982474 ], [ 144.915530391316395, -37.742702798504389 ], [ 144.915585844795004, -37.742714350191555 ], [ 144.919128969054185, -37.743606548689328 ], [ 144.919181813592758, -37.743622189653223 ], [ 144.919232441535229, -37.74364191953098 ], [ 144.919280352614237, -37.743665543367385 ], [ 144.925134786680019, -37.746882714423677 ], [ 144.928235103170351, -37.746773745504562 ], [ 144.934440655632471, -37.743048240125233 ], [ 144.936699160310269, -37.736353056214703 ], [ 144.936718474738655, -37.736306214749796 ], [ 144.936744116813259, -37.736261329266107 ], [ 144.936775779600566, -37.736218937020105 ], [ 144.936813084104045, -37.736179545424662 ], [ 144.939206122053378, -37.733921148613042 ], [ 144.939242827937477, -37.733889678436 ], [ 144.939283136162629, -37.733861123529586 ], [ 144.939326681274451, -37.733835742784201 ], [ 144.939373068472861, -37.733813766311691 ], [ 144.942459044185256, -37.732505692222183 ], [ 144.942506465134443, -37.73248777872103 ], [ 144.94255576861201, -37.732473424692479 ], [ 144.942606532112507, -37.732462753142926 ], [ 144.942658320619529, -37.732455855521891 ], [ 144.942710690333371, -37.732452790938275 ], [ 144.949214809975587, -37.732311837708941 ], [ 144.966933383975658, -37.729498551887623 ], [ 144.966988635928828, -37.729492002917205 ], [ 144.967044431003984, -37.729489802324508 ], [ 144.967100228032251, -37.729491971453569 ], [ 144.967155485825714, -37.729498489265524 ], [ 144.970585887094501, -37.730041364508637 ], [ 144.970638720868521, -37.730051841732838 ], [ 144.970690046229834, -37.730066294512241 ], [ 144.970739390147628, -37.730084589645564 ], [ 144.975090945558378, -37.731904810126466 ], [ 144.986247811876041, -37.733527422409757 ], [ 144.992291752254545, -37.733518690705999 ], [ 145.004761142727915, -37.731185498949365 ], [ 145.008591403121386, -37.729426752917085 ], [ 145.008646640156343, -37.729404490937625 ], [ 145.008704604050621, -37.729387145326569 ], [ 145.008764603609222, -37.729374922922609 ], [ 145.012195122832566, -37.728832638524203 ], [ 145.012255465084223, -37.728825751831785 ], [ 145.012316389362041, -37.728824048345231 ], [ 145.012377191958365, -37.72882754774075 ], [ 145.012437170570848, -37.728836209598462 ], [ 145.016940032961571, -37.729687189834351 ], [ 145.016989472025784, -37.729698435347586 ], [ 145.017037425564581, -37.729713190968958 ], [ 145.017083499419556, -37.729731335413589 ], [ 145.017127314881719, -37.729752719541764 ], [ 145.017168511804186, -37.729777167584821 ], [ 145.020210326149083, -37.73175904997634 ], [ 145.020256473544009, -37.731792666177547 ], [ 145.020297674520833, -37.731830117304277 ], [ 145.020333427000168, -37.731870946980038 ], [ 145.020363295295397, -37.731914657656873 ], [ 145.022250840121671, -37.735082377162747 ], [ 145.022271707630779, -37.735122228848155 ], [ 145.022287677632164, -37.73516348351324 ], [ 145.02229860354629, -37.73520576252595 ], [ 145.022304385087295, -37.735248677852169 ], [ 145.022304969183722, -37.73529183561709 ], [ 145.022132937003249, -37.738965511996888 ], [ 145.02212870892086, -37.739006147874008 ], [ 145.022119871734731, -37.7390463137396 ], [ 145.022106497826059, -37.739085680581006 ], [ 145.022088696738393, -37.739123925930251 ], [ 145.022066614280504, -37.739160736505362 ], [ 145.014365949914293, -37.750627830379464 ], [ 145.010912744257269, -37.758892948336886 ], [ 145.006055038199975, -37.785197180148558 ], [ 145.006044527278902, -37.785239706958329 ], [ 145.006028916298249, -37.7852812354677 ], [ 145.006008349710811, -37.785321381379724 ], [ 145.005983017828555, -37.785359773191125 ], [ 145.000202726278445, -37.793179116424568 ], [ 145.000271463944387, -37.794785762659458 ], [ 145.003881870202093, -37.8016009750637 ], [ 145.006049445163939, -37.802899439595201 ], [ 145.011889672423649, -37.803487247481932 ], [ 145.02152096430072, -37.801497923158124 ], [ 145.059789288309702, -37.786726733039366 ], [ 145.059837095835348, -37.786710375601324 ], [ 145.05988659058599, -37.786697562948355 ], [ 145.059937356260292, -37.786688402847787 ], [ 145.059988965867802, -37.786682972345254 ], [ 145.060040985320086, -37.786681317116745 ], [ 145.060092977081695, -37.786683451084379 ], [ 145.064011577988595, -37.786987701867588 ], [ 145.064068313823071, -37.786994417197775 ], [ 145.064123906017301, -37.787005642453849 ], [ 145.064177786898057, -37.78702126301048 ], [ 145.064229406266151, -37.78704111936019 ], [ 145.067489974838111, -37.78846101600697 ], [ 145.067541807781396, -37.788486554596233 ], [ 145.06758988782741, -37.788516360225344 ], [ 145.067633659619275, -37.788550088622031 ], [ 145.067672617561016, -37.788587350203336 ], [ 145.070305766947314, -37.791400635286017 ], [ 145.070339463705295, -37.791440998871792 ], [ 145.070367507302819, -37.7914839991356 ], [ 145.070389573808541, -37.791529139396673 ], [ 145.07040540832881, -37.791575898255061 ], [ 145.071176308110211, -37.794463396599845 ], [ 145.071184954893653, -37.794505549907569 ], [ 145.071188532635517, -37.794548163543745 ], [ 145.071187009173684, -37.794590854535663 ], [ 145.071180398191103, -37.794633239214583 ], [ 145.067385029685539, -37.812115168143023 ], [ 145.067372238354068, -37.812160163926158 ], [ 145.067353714610192, -37.812203886188577 ], [ 145.067329652634243, -37.81224587657632 ], [ 145.067300304666873, -37.812285694890463 ], [ 145.063225193944362, -37.81721626350464 ], [ 145.060257854977209, -37.825453009175035 ], [ 145.061435293857272, -37.830515648377812 ], [ 145.061442526380773, -37.830557831272799 ], [ 145.061444706450857, -37.830600367301976 ], [ 145.061441814591319, -37.830642876626037 ], [ 145.061433876617514, -37.830684979643543 ], [ 145.060667762072427, -37.833750007961129 ], [ 145.060654252307671, -37.833792899703063 ], [ 145.06063550679184, -37.833834534674033 ], [ 145.060611706047126, -37.833874511904185 ], [ 145.060583079281571, -37.833912446388098 ], [ 145.060549902182117, -37.833947972792707 ], [ 145.057175028984432, -37.837213525371993 ], [ 145.057136946862045, -37.837246832454483 ], [ 145.057094868101842, -37.837276963119571 ], [ 145.057049211842383, -37.837303617238177 ], [ 145.057000432859127, -37.83732652931063 ], [ 145.056949017034015, -37.837345471111192 ], [ 145.050520777718134, -37.839410768271811 ], [ 145.043042523946582, -37.844505681296191 ], [ 145.041980565263316, -37.846193272289121 ], [ 145.043567089397868, -37.852318166981959 ], [ 145.050160999173869, -37.862385371540967 ], [ 145.050183052835564, -37.86242322289155 ], [ 145.050200597981217, -37.862462528601007 ], [ 145.050213484312366, -37.862502951977405 ], [ 145.050221601437272, -37.862544146754544 ], [ 145.050224879816767, -37.862585760057662 ], [ 145.050223291360197, -37.862627435426511 ], [ 145.048768800961398, -37.877668172329692 ], [ 145.048761932146448, -37.877711499928573 ], [ 145.048749803090715, -37.877754096821626 ], [ 145.048732527755703, -37.877795562748418 ], [ 145.04871026846061, -37.877835508074917 ], [ 145.048683234357185, -37.87787355745489 ], [ 145.036832248198522, -37.89280689305096 ], [ 145.036798574705841, -37.892844830126272 ], [ 145.036760157292463, -37.892879822209011 ], [ 145.036717403215846, -37.892911498347623 ], [ 145.027071572930737, -37.899352559060482 ], [ 145.027031466045116, -37.899377003567416 ], [ 145.026988775106759, -37.899398525477963 ], [ 145.026943838291743, -37.899416954305416 ], [ 145.022678775794759, -37.900979398498592 ], [ 145.022626757723515, -37.900996037269863 ], [ 145.022572923446461, -37.901008532907724 ], [ 145.022517797103575, -37.901016763752359 ], [ 145.022461915415164, -37.901020649666741 ], [ 145.022405822456165, -37.901020152816884 ], [ 145.017775216479549, -37.900797678907999 ], [ 145.017716634398539, -37.900792436644821 ], [ 145.017659052435704, -37.900782415356197 ], [ 145.017603089804282, -37.900767722807061 ], [ 145.017549348302907, -37.900748516995129 ], [ 145.017498405843952, -37.9007250044518 ], [ 145.002231830098964, -37.892809486524648 ], [ 144.992220393964971, -37.890676668732311 ], [ 144.992165967932863, -37.890662709101036 ], [ 144.992113587957334, -37.890644484961477 ], [ 144.992063784527829, -37.890622180882986 ], [ 144.992017062037974, -37.890596022755304 ], [ 144.991973893676999, -37.890566275500753 ], [ 144.988501445514686, -37.887918642247513 ], [ 144.988464282011506, -37.88788747213583 ], [ 144.98843102671384, -37.887853642636642 ], [ 144.988401980982843, -37.887817460319901 ], [ 144.985505498919309, -37.883798682524734 ], [ 144.97647412587159, -37.876651176147199 ], [ 144.9663253045793, -37.870847105885531 ], [ 144.966277695244173, -37.870816655640738 ], [ 144.966234490708814, -37.870782325130264 ], [ 144.96619619159884, -37.870744512158254 ], [ 144.955660652486586, -37.85910931471269 ], [ 144.927952765145847, -37.847816629720619 ], [ 144.927897754027896, -37.847791005228316 ], [ 144.927846713114803, -37.847760651255953 ], [ 144.924999121419518, -37.845859953944732 ], [ 144.924954591167307, -37.845826828945022 ], [ 144.924914801134037, -37.845790105618029 ], [ 144.924880210922026, -37.845750208150008 ], [ 144.924851220069087, -37.845707597390557 ], [ 144.922964997063701, -37.842538489581635 ], [ 144.922941942516587, -37.842493657297396 ], [ 144.922925088281744, -37.842447121850775 ], [ 144.922914629027332, -37.842399420762973 ], [ 144.922910685553575, -37.842351105018196 ], [ 144.922870223088154, -37.839399748033173 ], [ 144.922872352947877, -37.839355570598556 ], [ 144.922879932640427, -37.839311771449189 ], [ 144.922892889160011, -37.839268772393822 ], [ 144.922911097719719, -37.839226987535227 ], [ 144.924297824317534, -37.836487997824712 ], [ 144.924320834536246, -37.836448246340474 ], [ 144.924348597091722, -37.836410451987476 ], [ 144.92438085025978, -37.836374971052606 ], [ 144.929518363678909, -37.83126533573612 ], [ 144.931896677690531, -37.822377879354562 ], [ 144.929066265676767, -37.816614830875842 ], [ 144.929049058787314, -37.816574167499468 ], [ 144.929036804818253, -37.816532390238685 ], [ 144.929029614848844, -37.816489877822548 ], [ 144.928710985781123, -37.813549157974968 ], [ 144.928708925275856, -37.81350629308109 ], [ 144.928712013051182, -37.813463467030452 ], [ 144.928720221103134, -37.81342106810601 ], [ 144.928733475004833, -37.813379480717543 ], [ 144.929752439143698, -37.810721674273204 ], [ 144.929775116262164, -37.810672849295912 ], [ 144.929804738443977, -37.810626424557391 ], [ 144.934265694740674, -37.804535229487733 ], [ 144.934433790510383, -37.802346271009085 ], [ 144.927335015852094, -37.796321099257774 ], [ 144.918335978008912, -37.794809613686276 ], [ 144.918281788175619, -37.794798265818336 ], [ 144.918229272423076, -37.794782733301162 ], [ 144.918178942553141, -37.794763167510041 ], [ 144.918131289063638, -37.79473975912714 ], [ 144.913654880637665, -37.792290206703818 ], [ 144.913608520256901, -37.79226193348358 ], [ 144.913566070387077, -37.792230026122112 ], [ 144.913527981319504, -37.792194823083761 ], [ 144.906168648827247, -37.784637148085004 ], [ 144.894721357193134, -37.775335687309735 ], [ 144.894679935823547, -37.775298058141168 ], [ 144.894644019447384, -37.77525701929634 ], [ 144.894614049925224, -37.775213075665469 ], [ 144.892730854728285, -37.77204339995599 ], [ 144.892711495518313, -37.772006693971228 ], [ 144.892696292334847, -37.771968775151457 ], [ 144.892685363786455, -37.771929939338264 ], [ 144.892678795130621, -37.771890489527266 ], [ 144.892676637608844, -37.771850733503967 ], [ 144.892681075252852, -37.768725977573062 ], [ 144.892683345594804, -37.768686225461224 ], [ 144.892690025993602, -37.768646787454067 ], [ 144.892701064322523, -37.76860797124364 ], [ 144.892716374454949, -37.768570079670233 ], [ 144.892735836936566, -37.768533408359865 ], [ 144.894627779767092, -37.765367070933166 ] ] ] } },
{ "type": "Feature", "properties": { "MODE": "METRO TRAM", "transit_time_minutes_nearest_tier": 45.0, "centre": "southern-cross", "centre_name": "Southern Cross" }, "geometry": { "type": "Polygon", "coordinates": [ [ [ 144.909567396926974, -37.776948581319338 ], [ 144.917098608729589, -37.76189657398065 ], [ 144.917120733226483, -37.761857795401447 ], [ 144.917147369467301, -37.761820847844703 ], [ 144.917178279605963, -37.761786061221741 ], [ 144.917213187635156, -37.761753746147953 ], [ 144.91725178185095, -37.76172419116962 ], [ 144.917293717636142, -37.761697660187352 ], [ 144.921047241406313, -37.759544932965575 ], [ 144.921098079470624, -37.759518930719352 ], [ 144.921152114268352, -37.759497371375829 ], [ 144.921208732102542, -37.759480499793121 ], [ 144.921267289941085, -37.759468507588352 ], [ 144.927293385908769, -37.758502827949719 ], [ 144.93511420889206, -37.753073894865871 ], [ 144.935585664418994, -37.751328761330271 ], [ 144.93447148424903, -37.74638484271938 ], [ 144.934464131004717, -37.74633841676426 ], [ 144.934462881726233, -37.746291635589465 ], [ 144.934467749878905, -37.746245003845921 ], [ 144.935884375058265, -37.737941220388713 ], [ 144.935894598981321, -37.737897576958723 ], [ 144.935910181850318, -37.737854944482976 ], [ 144.935930972356289, -37.737813736896726 ], [ 144.935956768628103, -37.737774354299702 ], [ 144.938292647861061, -37.734600519458397 ], [ 144.938323842247058, -37.734562638485556 ], [ 144.938359665249465, -37.734527434580556 ], [ 144.938399755269103, -37.734495263087368 ], [ 144.938443707637674, -37.734466448740804 ], [ 144.938491078702299, -37.734441282388666 ], [ 144.942647802960721, -37.732465376962807 ], [ 144.942698112078432, -37.73244411086921 ], [ 144.942750854056754, -37.732426961352871 ], [ 144.942805496526063, -37.732414101517982 ], [ 144.942861487934408, -37.732405661169466 ], [ 144.94291826311462, -37.732401725502655 ], [ 144.947543890455478, -37.732266360186706 ], [ 144.947599553539789, -37.732266900997807 ], [ 144.947654881852912, -37.732271772354451 ], [ 144.947709342562263, -37.732280927343673 ], [ 144.947762411190212, -37.732294277799383 ], [ 144.947813576664601, -37.732311695151516 ], [ 144.951973503055399, -37.733923935543366 ], [ 144.952028179191899, -37.73394817903911 ], [ 144.952079157593687, -37.73397706103075 ], [ 144.952125817039217, -37.73401022956552 ], [ 144.952167588935254, -37.734047280454888 ], [ 144.954490235113468, -37.736351566820233 ], [ 144.954519105057017, -37.736382882480406 ], [ 144.954544474004649, -37.736416055290292 ], [ 144.954566153672658, -37.736450839053433 ], [ 144.95458398315705, -37.736486975617062 ], [ 144.956322821131295, -37.740513622897119 ], [ 144.962994337803423, -37.746312941456686 ], [ 144.966125577282071, -37.74648513713543 ], [ 144.974304896385348, -37.743528337046151 ], [ 144.974353854170431, -37.743512774998457 ], [ 144.974404420068083, -37.7435008899133 ], [ 144.974456157199057, -37.743492784475343 ], [ 144.974508618565409, -37.743488528713861 ], [ 144.974561350912268, -37.7434881593977 ], [ 144.979187523951992, -37.743626529970918 ], [ 144.979242990390929, -37.74363035879626 ], [ 144.97929771714962, -37.743638486358627 ], [ 144.979351177188306, -37.743650834386429 ], [ 144.979402855665654, -37.743667283963433 ], [ 144.979452254896614, -37.743687676673694 ], [ 144.983450202375508, -37.745541279013203 ], [ 144.983499190158795, -37.745566769987406 ], [ 144.98354460742172, -37.745596135478138 ], [ 144.983585970156213, -37.745629062542534 ], [ 144.983622837560915, -37.745665200282112 ], [ 144.987625339478825, -37.750030991795178 ], [ 144.996445369288097, -37.753443909177172 ], [ 145.00385700301473, -37.754127065131264 ], [ 145.003910324996724, -37.75413403518246 ], [ 145.003962570045644, -37.75414500109175 ], [ 145.004013264284509, -37.754159863395429 ], [ 145.004061947901732, -37.7541784872883 ], [ 145.004108179321861, -37.754200703846422 ], [ 145.004151539210454, -37.754226311559215 ], [ 145.008262798741498, -37.756904798117638 ], [ 145.008306555975395, -37.756936477696918 ], [ 145.008345916455852, -37.756971605421057 ], [ 145.008380451493082, -37.757009798706335 ], [ 145.008409784950487, -37.757050641580754 ], [ 145.008433597341423, -37.757093689214365 ], [ 145.008451629309263, -37.75713847276387 ], [ 145.010084823646821, -37.762067786347082 ], [ 145.01009639799716, -37.762111374926398 ], [ 145.010102493405043, -37.762155657889828 ], [ 145.010103050264576, -37.762200202272844 ], [ 145.010098063121518, -37.762244572554174 ], [ 145.00609903802382, -37.785020679644028 ], [ 145.006088065351435, -37.785066018834186 ], [ 145.006071303499908, -37.785110228683003 ], [ 145.005054972204988, -37.787364911652844 ], [ 145.005037300222853, -37.787399520232981 ], [ 145.005016077334346, -37.787432848409303 ], [ 145.004991449351508, -37.78746466719312 ], [ 144.999449455931853, -37.794000262598004 ], [ 145.002293136320645, -37.801318190180623 ], [ 145.004810122534536, -37.802799022985127 ], [ 145.01271289891227, -37.803430627840122 ], [ 145.021912510289724, -37.801396345901075 ], [ 145.032422483363661, -37.797369635352332 ], [ 145.032469326085561, -37.797353701132067 ], [ 145.032517780862833, -37.797341164462573 ], [ 145.032567457228055, -37.797332126369064 ], [ 145.032617954870233, -37.797326659683911 ], [ 145.036774297644342, -37.797026656985182 ], [ 145.036827524783234, -37.797024806024659 ], [ 145.036880736209014, -37.797026922426497 ], [ 145.036933463320025, -37.797032987552861 ], [ 145.036985241779405, -37.797042947991642 ], [ 145.040529172738218, -37.797866089614338 ], [ 145.040581507064275, -37.797880477982829 ], [ 145.040631825528209, -37.797898844285541 ], [ 145.040679649247608, -37.797921013730296 ], [ 145.040724523081337, -37.797946775330217 ], [ 145.043628320409397, -37.799791438765858 ], [ 145.043666238375124, -37.799817800415134 ], [ 145.043701059808484, -37.799846727067013 ], [ 145.043732510162698, -37.799877990654622 ], [ 145.043760341468584, -37.799911344685633 ], [ 145.045313055676871, -37.801964686173825 ], [ 145.045337049873666, -37.801999867333457 ], [ 145.045357016335259, -37.802036598629833 ], [ 145.045372797632922, -37.802074590460265 ], [ 145.045384269334789, -37.802113543283205 ], [ 145.046069085968753, -37.805014675646333 ], [ 145.046077080711427, -37.805062675938075 ], [ 145.046078536744034, -37.805111079759001 ], [ 145.046073437235776, -37.805159328009573 ], [ 145.046061841077375, -37.805206863386253 ], [ 145.044990661015277, -37.808606670089752 ], [ 145.044975965451215, -37.808645712161479 ], [ 145.044956883778326, -37.808683541097089 ], [ 145.044933572085455, -37.808719847441751 ], [ 145.044906221065332, -37.808754334195562 ], [ 145.044875054454877, -37.808786719243145 ], [ 145.041512247013969, -37.811971215521204 ], [ 145.036641228251767, -37.819473782775397 ], [ 145.035805057005433, -37.826208368096481 ], [ 145.035797319587687, -37.826250322719282 ], [ 145.035784643629057, -37.826291514507766 ], [ 145.035767141413487, -37.826331578558275 ], [ 145.034384645676397, -37.829071865919985 ], [ 145.034363967675915, -37.829108120640555 ], [ 145.034339336851559, -37.829142786659283 ], [ 145.034310945367736, -37.829175593511877 ], [ 145.034279014730487, -37.829206285239017 ], [ 145.034243794059137, -37.829234622383176 ], [ 145.030847318012036, -37.831735894983439 ], [ 145.030809501149122, -37.831761395674512 ], [ 145.030769021613281, -37.831784180318543 ], [ 145.030726188548329, -37.831804074907119 ], [ 145.030681329073076, -37.831820927503308 ], [ 145.022545253840661, -37.834538533036799 ], [ 145.015935865084316, -37.841356423125028 ], [ 145.016095308372456, -37.845509701694453 ], [ 145.018684339956906, -37.852915444449756 ], [ 145.018696290795674, -37.852957264384834 ], [ 145.018703172922073, -37.85299979580779 ], [ 145.01870492397515, -37.853042653381969 ], [ 145.018631443730186, -37.856868854678758 ], [ 145.021122064880245, -37.864632870247071 ], [ 145.024383608487312, -37.869001470689497 ], [ 145.024409346771051, -37.869040101942616 ], [ 145.024430243617985, -37.869080527924702 ], [ 145.024446102486422, -37.86912236843132 ], [ 145.024456774215707, -37.869165229953936 ], [ 145.024462158429571, -37.869208709380665 ], [ 145.024680211003442, -37.872708771319253 ], [ 145.024680288719708, -37.872751929072784 ], [ 145.024675156177381, -37.872794894670243 ], [ 145.02466486047399, -37.872837273774074 ], [ 145.024649496094895, -37.87287867742895 ], [ 145.02462920404642, -37.872918725631543 ], [ 145.022696576121206, -37.87626030987748 ], [ 145.022671806395039, -37.876298270996458 ], [ 145.022642609788079, -37.876334200718652 ], [ 145.022609249074861, -37.876367775662992 ], [ 145.022572024509543, -37.876398693641825 ], [ 145.022531271123825, -37.876426676380902 ], [ 145.018483488373647, -37.878949711981278 ], [ 145.011137546787381, -37.885386779288844 ], [ 145.008936937296909, -37.888786806602553 ], [ 145.008907340033062, -37.888827222945594 ], [ 145.008872619038698, -37.888864991942519 ], [ 145.008833147917613, -37.888899707184635 ], [ 145.006354754418851, -37.890864160316852 ], [ 145.006313423488734, -37.890893851262227 ], [ 145.006268619316785, -37.890920188715839 ], [ 145.006220773394432, -37.890942919030081 ], [ 145.006170346508668, -37.890961823296351 ], [ 145.006117824303942, -37.89097671945342 ], [ 145.000611058838473, -37.892300703513008 ], [ 145.00056036609962, -37.89231089772418 ], [ 145.000508705649764, -37.892317356649272 ], [ 145.000456514779444, -37.892320025615412 ], [ 145.000404235269485, -37.892318882030523 ], [ 145.000352309650907, -37.892313935574776 ], [ 145.000301177458994, -37.892305228118438 ], [ 144.992037674500182, -37.890579039093275 ], [ 144.991979481689356, -37.890564186236226 ], [ 144.99192363826171, -37.890544466421794 ], [ 144.991870790181281, -37.890520107757773 ], [ 144.991821548761862, -37.890491392011441 ], [ 144.991776483595686, -37.890458651349995 ], [ 144.988064261062647, -37.887454746356426 ], [ 144.988031248236808, -37.887425597317304 ], [ 144.988001555109975, -37.887394285725414 ], [ 144.987975406158057, -37.88736104829642 ], [ 144.984410889348766, -37.882357784684842 ], [ 144.976084417981127, -37.876355098756981 ], [ 144.965843519320742, -37.870426223941742 ], [ 144.965793284961137, -37.870393483875105 ], [ 144.965748098180313, -37.870356408590489 ], [ 144.96570855073, -37.87031548362031 ], [ 144.956538499452137, -37.859606429038401 ], [ 144.941131811944217, -37.852647808146514 ], [ 144.927974138301664, -37.847824900545838 ], [ 144.927923197821343, -37.847803678575538 ], [ 144.92787522592775, -37.84777847932618 ], [ 144.927830714770522, -37.84774956132155 ], [ 144.924558559553986, -37.845394161683856 ], [ 144.924522931598915, -37.845366140771972 ], [ 144.924490560773506, -37.845335736088032 ], [ 144.924461699631621, -37.845303184850053 ], [ 144.924436573343627, -37.845268741023112 ], [ 144.924415377939653, -37.845232673337982 ], [ 144.922910417707982, -37.842344903747644 ], [ 144.922889701876329, -37.842297964997435 ], [ 144.922875636315524, -37.842249501502764 ], [ 144.922868392417058, -37.842200103845016 ], [ 144.922868058442276, -37.842150373988169 ], [ 144.923088454357583, -37.838650361755072 ], [ 144.923093963205076, -37.838606368424585 ], [ 144.923104882800828, -37.838563015154932 ], [ 144.923121107974367, -37.838520719460426 ], [ 144.923142482460463, -37.838479888669653 ], [ 144.92443560264303, -37.83631604855173 ], [ 144.924460273896301, -37.836279262632438 ], [ 144.924489124934468, -37.836244441778597 ], [ 144.92452190895844, -37.836211883849863 ], [ 144.929211180707711, -37.831972515629644 ], [ 144.931873951366242, -37.823084086428317 ], [ 144.928884478313563, -37.816046212121222 ], [ 144.928868477083142, -37.816000813910996 ], [ 144.928858543326982, -37.815954337793187 ], [ 144.928854785799444, -37.815907292639011 ], [ 144.928814105218606, -37.812955904727986 ], [ 144.928816237702705, -37.812911664639344 ], [ 144.92882383342004, -37.812867804234379 ], [ 144.928836819004403, -37.812824747101558 ], [ 144.9288550690367, -37.812782909070869 ], [ 144.928878407256548, -37.812742694198 ], [ 144.934271752328499, -37.804535559894028 ], [ 144.934542928327943, -37.802610713445176 ], [ 144.933682861635305, -37.801175286150936 ], [ 144.927349574378724, -37.796322979860854 ], [ 144.91812791668471, -37.794741437472247 ], [ 144.918078550569163, -37.794731105195254 ], [ 144.918030553826696, -37.794717295379598 ], [ 144.917984314623141, -37.794700119710065 ], [ 144.917940206909662, -37.794679717092215 ], [ 144.917898587398668, -37.794656252528952 ], [ 144.912193997463959, -37.79112304167684 ], [ 144.91215432175315, -37.791096043942055 ], [ 144.912117942957451, -37.791066264970155 ], [ 144.912085169418248, -37.791033957166484 ], [ 144.907896286275133, -37.786491037964389 ], [ 144.907862590236192, -37.786449978519627 ], [ 144.907834712422925, -37.786406257597292 ], [ 144.907812982627206, -37.78636039242793 ], [ 144.906695353126509, -37.783545223162655 ], [ 144.906679850268858, -37.783497037457217 ], [ 144.906671133850921, -37.783447789175995 ], [ 144.906669310078399, -37.78339807846293 ], [ 144.90667440116232, -37.783348511096101 ], [ 144.907304940301458, -37.779706583596223 ], [ 144.907314276036885, -37.779666322102891 ], [ 144.907328177952962, -37.779626899463807 ], [ 144.907346531250397, -37.779588641203574 ], [ 144.907369184374062, -37.77955186323171 ], [ 144.907395950264771, -37.779516869234072 ], [ 144.909567396926974, -37.776948581319338 ] ] ] } },
{ "type": "Feature", "properties": { "MODE": "METRO TRAM", "transit_time_minutes_nearest_tier": 30.0, "centre": "southern-cross", "centre_name": "Southern Cross" }, "geometry": { "type": "Polygon", "coordinates": [ [ [ 144.929860923980783, -37.831540911110345 ], [ 144.932470129376298, -37.823754775515994 ], [ 144.929064239536359, -37.816610643567188 ], [ 144.92904804278669, -37.81657128803031 ], [ 144.929036468644881, -37.81653091914162 ], [ 144.929029614848844, -37.816489877822548 ], [ 144.928710985781123, -37.813549157974968 ], [ 144.928708967483033, -37.813503611601057 ], [ 144.92871276002947, -37.813458136515187 ], [ 144.92872232459672, -37.813413198113849 ], [ 144.928737563290099, -37.813369256300312 ], [ 144.928758320146102, -37.813326760777848 ], [ 144.935158405727179, -37.801963971641101 ], [ 144.931259044092229, -37.795928411360734 ], [ 144.927030281065697, -37.791307706870533 ], [ 144.926997527020433, -37.791267599841824 ], [ 144.926970311430864, -37.791224964864966 ], [ 144.926948940591643, -37.791180281785138 ], [ 144.926933655014892, -37.791134053497579 ], [ 144.926924626723775, -37.791086800287417 ], [ 144.926541704961693, -37.787976878513938 ], [ 144.926539035782781, -37.787936990739027 ], [ 144.926540829094989, -37.787897072117921 ], [ 144.926547070793333, -37.787857436466538 ], [ 144.926557711802445, -37.787818395375673 ], [ 144.926572668462825, -37.787780255761696 ], [ 144.928083212386412, -37.784455445543095 ], [ 144.928106264195407, -37.784411981272527 ], [ 144.928134914468075, -37.784370667560857 ], [ 144.928168849270264, -37.784331957088746 ], [ 144.938489192744925, -37.773781202964045 ], [ 144.940912777571981, -37.769994957994882 ], [ 144.940942052611291, -37.769954545174976 ], [ 144.940976431922365, -37.769916750181622 ], [ 144.941015547377987, -37.769881977708536 ], [ 144.941058980139928, -37.769850600085007 ], [ 144.944103343134088, -37.76786973072889 ], [ 144.944149199774671, -37.767842831861749 ], [ 144.944198225036274, -37.767819721411023 ], [ 144.944249924063342, -37.76780063264988 ], [ 144.944303775012997, -37.767785758257062 ], [ 144.944359234322377, -37.767775248372082 ], [ 144.949798211060482, -37.766971214811463 ], [ 144.949859789658802, -37.766964853628146 ], [ 144.94992187511474, -37.766963871375395 ], [ 144.949983724089009, -37.766968279813547 ], [ 144.950044596073553, -37.766978026161027 ], [ 144.96195805350348, -37.769430141370286 ], [ 144.966734889802154, -37.768040150030863 ], [ 144.972553601094717, -37.761831749244159 ], [ 144.97258411535239, -37.761801932139043 ], [ 144.972617718508474, -37.761774287364013 ], [ 144.972654166203569, -37.76174901594699 ], [ 144.975556104479182, -37.759903929886981 ], [ 144.975596572275492, -37.759880450441841 ], [ 144.975639491889922, -37.759859897620828 ], [ 144.975684528469742, -37.759842431773372 ], [ 144.975731330646795, -37.759828189164672 ], [ 144.975779533278853, -37.75981728091287 ], [ 144.980284272659674, -37.758966584306584 ], [ 144.980343223271007, -37.758958032879328 ], [ 144.980402981055647, -37.758954464852437 ], [ 144.980462879559923, -37.75895592001865 ], [ 144.980522250760686, -37.758962382149058 ], [ 144.980580432515438, -37.758973779174198 ], [ 144.985669648670665, -37.760200208449156 ], [ 144.985716921377644, -37.760213435898436 ], [ 144.985762539476838, -37.760229923493291 ], [ 144.985806147063386, -37.760249542600626 ], [ 144.985847403917404, -37.760272140155806 ], [ 144.985885988158145, -37.760297539856637 ], [ 144.988120638919185, -37.761905923809394 ], [ 144.988156430577675, -37.761934081059302 ], [ 144.988188934974715, -37.761964647872176 ], [ 144.98821789583107, -37.761997383249387 ], [ 144.988243084805077, -37.762032029094371 ], [ 144.989956932251459, -37.764651362861947 ], [ 144.989979992354023, -37.764691240606275 ], [ 144.989998056343978, -37.764732710107189 ], [ 144.990010952851605, -37.764775377970537 ], [ 144.990018559527243, -37.764818839433417 ], [ 144.990020804201833, -37.764862682203862 ], [ 144.989955406372388, -37.771274310573531 ], [ 144.991913493694227, -37.77791196623501 ], [ 144.999098053647685, -37.783165999138042 ], [ 144.999135242404321, -37.783195851538288 ], [ 144.999168768573952, -37.783228321678507 ], [ 144.999198341040653, -37.783263127617168 ], [ 144.999223703017805, -37.783299967130304 ], [ 145.001252923374153, -37.786604571695683 ], [ 145.001273600630157, -37.786642586302165 ], [ 145.001289792825077, -37.786681946966389 ], [ 145.001301363175401, -37.786722321206341 ], [ 145.001308213938074, -37.786763367977777 ], [ 145.00131028723635, -37.786804740555056 ], [ 145.001307565549041, -37.7868460894598 ], [ 145.00074434158725, -37.791384786330944 ], [ 145.000736976640326, -37.79142522638017 ], [ 145.00072502478713, -37.791464970541099 ], [ 145.000708584339321, -37.791503691868932 ], [ 145.000687790533334, -37.791541071832441 ], [ 145.000662814418178, -37.791576802934252 ], [ 145.000633861448421, -37.791610591240683 ], [ 144.995983085206234, -37.79654094513311 ], [ 144.996218446540894, -37.798991551138776 ], [ 144.999572108418192, -37.802192964256456 ], [ 145.008922368588912, -37.803263568647012 ], [ 145.008970894919258, -37.803270844678615 ], [ 145.009018440843846, -37.803281438947565 ], [ 145.009064646666957, -37.803295271305913 ], [ 145.012484766712078, -37.804456261548992 ], [ 145.012539500314801, -37.804477670194778 ], [ 145.01259102212461, -37.804503615758051 ], [ 145.012638737032063, -37.80453379855291 ], [ 145.012682093897695, -37.804567869950489 ], [ 145.015648776292977, -37.807164127069711 ], [ 145.015683341645683, -37.807197452909449 ], [ 145.015713728998207, -37.807233250080166 ], [ 145.015739659452976, -37.807271190039692 ], [ 145.015760895016285, -37.807310924579177 ], [ 145.015777240782626, -37.807352089018714 ], [ 145.016956280821944, -37.810907190942125 ], [ 145.016967114503046, -37.810947137690341 ], [ 145.016973341429832, -37.810987698897193 ], [ 145.016974910368305, -37.81102854088131 ], [ 145.016971808403923, -37.811069327650898 ], [ 145.016964061047815, -37.81110972366794 ], [ 145.016951732027451, -37.8111493966084 ], [ 145.012883294645036, -37.822079871769716 ], [ 145.012859860235523, -37.822131159456816 ], [ 145.012828782574616, -37.822179824219724 ], [ 145.006324677610593, -37.830994798304275 ], [ 145.006286098583985, -37.831040442211183 ], [ 145.006240799934091, -37.83108202109171 ], [ 145.003640445180679, -37.833193421587673 ], [ 145.003599857856926, -37.833223310874722 ], [ 145.003555793157176, -37.833249922940261 ], [ 145.003508670043942, -37.833273004757665 ], [ 144.999443435944528, -37.835053076991919 ], [ 144.995140673691168, -37.839435830573862 ], [ 144.994901740779113, -37.8412876319559 ], [ 144.997654216961763, -37.84954658082389 ], [ 144.997664669652266, -37.849584477579768 ], [ 144.997670971954534, -37.84962294688885 ], [ 144.997673077130315, -37.849661703498725 ], [ 144.997672991495705, -37.852439685123443 ], [ 144.997670037712169, -37.852485551242459 ], [ 144.997661209880619, -37.852530940565202 ], [ 144.99430613626339, -37.86538757411072 ], [ 144.994293788669353, -37.865426189117393 ], [ 144.994277186286581, -37.865463788379522 ], [ 144.994256458933876, -37.865500077883539 ], [ 144.994231768686717, -37.865534773857235 ], [ 144.987250940767666, -37.874402603833381 ], [ 144.987216951697746, -37.874441139574792 ], [ 144.987178080452281, -37.874476657127161 ], [ 144.98713475050053, -37.87450876955107 ], [ 144.987087433888178, -37.874537127003109 ], [ 144.98703664609468, -37.874561420547451 ], [ 144.981962162300022, -37.876710563757705 ], [ 144.981914541757504, -37.876728531225353 ], [ 144.981865024993169, -37.876742922306136 ], [ 144.981814038423437, -37.876753613070207 ], [ 144.981762021122705, -37.876760511453249 ], [ 144.981709421042126, -37.876763558049277 ], [ 144.981656691151642, -37.876762726622331 ], [ 144.981604285539362, -37.876758024332275 ], [ 144.975255575077512, -37.875950193267393 ], [ 144.975201803060258, -37.875941216869499 ], [ 144.97514937608932, -37.875928166053342 ], [ 144.975098784305203, -37.875911162831308 ], [ 144.975050500690315, -37.875890366166836 ], [ 144.975004976646886, -37.875865970488164 ], [ 144.965838002160126, -37.870422988664465 ], [ 144.965795373982417, -37.870395004682557 ], [ 144.965756382054252, -37.870363866187446 ], [ 144.965721396232823, -37.870329868546364 ], [ 144.965690748373561, -37.870293334246796 ], [ 144.958340514219714, -37.8605300831817 ], [ 144.940366738547908, -37.852022296587869 ], [ 144.925899750866279, -37.846603911763005 ], [ 144.92585047183951, -37.846583041657368 ], [ 144.925804016124516, -37.846558434327257 ], [ 144.925760832970468, -37.846530327738826 ], [ 144.925721339977741, -37.846498993697814 ], [ 144.925685919059504, -37.846464735220614 ], [ 144.925654912748371, -37.846427883604221 ], [ 144.923164031955082, -37.84312642806227 ], [ 144.923137226662561, -37.843086469462826 ], [ 144.923115612749427, -37.843044579565614 ], [ 144.923099408378931, -37.843001181209658 ], [ 144.923088777109228, -37.842956712459575 ], [ 144.923083826242731, -37.842911622183941 ], [ 144.922914222813461, -37.839238024404864 ], [ 144.922914603283914, -37.839198233767512 ], [ 144.922919409728479, -37.839158624977102 ], [ 144.922928604640759, -37.839119507058214 ], [ 144.922942116276204, -37.839081185205281 ], [ 144.92295983921187, -37.839043958401497 ], [ 144.924426864105101, -37.836331407440895 ], [ 144.92445471897932, -37.836286862436808 ], [ 144.924488593897792, -37.836245023276433 ], [ 144.924528076196168, -37.836206399632843 ], [ 144.929860923980783, -37.831540911110345 ] ] ] } },
{ "type": "Feature", "properties": { "MODE": "METRO TRAM", "transit_time_minutes_nearest_tier": 15.0, "centre": "southern-cross", "centre_name": "Southern Cross" }, "geometry": { "type": "Polygon", "coordinates": [ [ [ 144.931450964766384, -37.808823441200573 ], [ 144.931483249503259, -37.808785323768078 ], [ 144.931520257691631, -37.808750012086328 ], [ 144.931561604751778, -37.808717873099518 ], [ 144.931606861017826, -37.808689240782002 ], [ 144.931655556202969, -37.808664412668065 ], [ 144.938712737628748, -37.805456782107029 ], [ 144.945846190692066, -37.799415565538126 ], [ 144.94588456556292, -37.799385987971725 ], [ 144.94592627854405, -37.799359407761351 ], [ 144.945970959268379, -37.799336060909084 ], [ 144.95261023805179, -37.796212050342206 ], [ 144.952654591715088, -37.79619323355918 ], [ 144.952700869968226, -37.796177605479343 ], [ 144.952748709622938, -37.796165288750373 ], [ 144.952797735237766, -37.796156380032834 ], [ 144.952847562064449, -37.796150949241351 ], [ 144.964275765646477, -37.795311982021524 ], [ 144.969275614553368, -37.7916905451414 ], [ 144.969318992742501, -37.791662118445345 ], [ 144.969365703324343, -37.791637238390507 ], [ 144.96941528759649, -37.791616149299919 ], [ 144.969467258638048, -37.791599058269014 ], [ 144.973625572642817, -37.790419432185828 ], [ 144.973678888351571, -37.790406610230178 ], [ 144.973733530982685, -37.790397997142833 ], [ 144.973788974306586, -37.79039367587108 ], [ 144.973844684383153, -37.790393688030484 ], [ 144.973900124703448, -37.790398033503877 ], [ 144.978695532218978, -37.790963500849074 ], [ 144.978746734301041, -37.790971461063528 ], [ 144.978796799204872, -37.790983118178914 ], [ 144.978845304033513, -37.790998373727973 ], [ 144.978891839067131, -37.791017098847483 ], [ 144.978936011223993, -37.791039135366837 ], [ 144.978977447380544, -37.791064297143883 ], [ 144.983213520657671, -37.793890574430037 ], [ 144.983254072777328, -37.793920422032322 ], [ 144.983290772331912, -37.793953259419283 ], [ 144.983323270972534, -37.793988774906062 ], [ 144.983351260223202, -37.794026631387396 ], [ 144.983374474408862, -37.794066469537348 ], [ 144.983392693177166, -37.794107911219839 ], [ 144.988365645407271, -37.807479374758401 ], [ 144.988378928499941, -37.80752297255443 ], [ 144.988386681494717, -37.807567402233289 ], [ 144.988388827528183, -37.807612223373887 ], [ 144.988385345317198, -37.807656991673845 ], [ 144.987058033143398, -37.817066718296161 ], [ 144.987048168202421, -37.817113858404532 ], [ 144.987032064514864, -37.817159904395915 ], [ 144.987009903254858, -37.817204338199083 ], [ 144.986981933752531, -37.817246659880944 ], [ 144.974265133027586, -37.834227853840034 ], [ 144.972778536737223, -37.84182730596271 ], [ 144.972766417991039, -37.841873280295999 ], [ 144.972748329105912, -37.841918004148567 ], [ 144.972724466695382, -37.841960991377938 ], [ 144.968630171087511, -37.84840266392672 ], [ 144.968600181730466, -37.84844419482436 ], [ 144.968564805506588, -37.848482968704587 ], [ 144.968524441644092, -37.848518547987325 ], [ 144.965737065928664, -37.850727249501368 ], [ 144.96569574100215, -37.850756926987636 ], [ 144.965650946485368, -37.850783249749469 ], [ 144.965603113776808, -37.850805964280759 ], [ 144.965552703536105, -37.850824851824918 ], [ 144.965500201247522, -37.850839730481695 ], [ 144.960403916529799, -37.852063824312062 ], [ 144.960345654109432, -37.852075192232427 ], [ 144.960286204614022, -37.852081624805507 ], [ 144.960226231082316, -37.852083050289011 ], [ 144.960166402397874, -37.852079452784537 ], [ 144.960107385828678, -37.852070872414998 ], [ 144.955597864807345, -37.851217800036665 ], [ 144.95554835531297, -37.851206529766252 ], [ 144.955500336625192, -37.85119175028521 ], [ 144.955454203449108, -37.85117358307847 ], [ 144.955410334990518, -37.851152177477466 ], [ 144.955369091838548, -37.851127709432504 ], [ 144.9523241706504, -37.849144279181267 ], [ 144.952285012990984, -37.849116258469671 ], [ 144.952249301319171, -37.849085478924508 ], [ 144.952217343445056, -37.849052205847997 ], [ 144.952189414821987, -37.849016726034783 ], [ 144.94914342913242, -37.844714365573942 ], [ 144.94682177133393, -37.843745419483213 ], [ 144.943023158726135, -37.844029625857218 ], [ 144.938402746438641, -37.84745947720134 ], [ 144.938357013219189, -37.847490007279454 ], [ 144.938307487366444, -37.847516557504179 ], [ 144.938254717284366, -37.847538833880755 ], [ 144.938199287302524, -37.847556589739192 ], [ 144.933815452631308, -37.84875216009091 ], [ 144.933757765040468, -37.848765234927228 ], [ 144.933698660221836, -37.848773412747278 ], [ 144.933638797369838, -37.848776602344046 ], [ 144.933578844133507, -37.848774768144068 ], [ 144.933519469170079, -37.848767930604104 ], [ 144.928297781440619, -37.847941196213647 ], [ 144.928238381899973, -37.847929114069544 ], [ 144.928180970670866, -37.847912025568782 ], [ 144.928126216660814, -37.847890129812598 ], [ 144.928074757816233, -37.847863681912273 ], [ 144.928027193689019, -37.847832990016684 ], [ 144.924434887701864, -37.845247136706391 ], [ 144.924395497424229, -37.845215850986307 ], [ 144.924360163911899, -37.845181654232789 ], [ 144.924329227443934, -37.845144875782815 ], [ 144.924302985951869, -37.845105869836402 ], [ 144.924281692150174, -37.845065012045154 ], [ 144.922796292176315, -37.841764546919784 ], [ 144.922780475618453, -37.841723251407849 ], [ 144.922769714635677, -37.841680945140332 ], [ 144.922764107983738, -37.841638016404147 ], [ 144.922763707111613, -37.841594859198608 ], [ 144.92276851568954, -37.841551869619217 ], [ 144.923398764580128, -37.837909945909892 ], [ 144.923408879077755, -37.837867045193349 ], [ 144.923424180619435, -37.837825122011765 ], [ 144.923444525581232, -37.83778456984286 ], [ 144.923469723004217, -37.837745769295886 ], [ 144.923499536386856, -37.83770908453932 ], [ 144.923533685904971, -37.837674859883158 ], [ 144.932070752399881, -37.829921348832045 ], [ 144.933585635515527, -37.82659006672263 ], [ 144.928737729876474, -37.81531469492689 ], [ 144.9287212410336, -37.815268371906775 ], [ 144.928711076365744, -37.815220917656141 ], [ 144.928707351902659, -37.815172873921362 ], [ 144.928710110151144, -37.815124789177602 ], [ 144.929099097720751, -37.812015362733412 ], [ 144.929106250657867, -37.811975977215226 ], [ 144.929117756436085, -37.811937246093322 ], [ 144.929133525281884, -37.811899471544081 ], [ 144.929153434162174, -37.811862948280449 ], [ 144.929177327744412, -37.811827961252568 ], [ 144.931450964766384, -37.808823441200573 ] ] ] } }
]
}
