{
"type": "FeatureCollection",
"name": "commute_times_regional_train__traralgon",
"crs": { "type": "name", "properties": { "name": "urn:ogc:def:crs:OGC:1.3:CRS84" } },
"features": [
{ "type": "Feature", "properties": { "STOP_NAME": "Moe Railway Station", "minutes": 29.5, "tier": 30, "centre": "traralgon", "MODE": "REGIONAL TRAIN" }, "geometry": { "type": "Point", "coordinates": [ 146.26054896, -38.17689039 ] } },
{ "type": "Feature", "properties": { "STOP_NAME": "Moe Station", "minutes": 29.5, "tier": 30, "centre": "traralgon", "MODE": "REGIONAL TRAIN" }, "geometry": { "type": "Point", "coordinates": [ 146.26057161, -38.17690856 ] } },
{ "type": "Feature", "properties": { "STOP_NAME": "Morwell Railway Station", "minutes": 8.9, "tier": 15, "centre": "traralgon", "MODE": "REGIONAL TRAIN" }, "geometry": { "type": "Point", "coordinates": [ 146.396775670000011, -38.23674592 ] } },
{ "type": "Feature", "properties": { "STOP_NAME": "Morwell Station", "minutes": 8.9, "tier": 15, "centre": "traralgon", "MODE": "REGIONAL TRAIN" }, "geometry": { "type": "Point", "coordinates": [ 146.39675305, -38.23671876 ] } },
{ "type": "Feature", "properties": { "STOP_NAME": "Rosedale Railway Station", "minutes": 37.8, "tier": 45, "centre": "traralgon", "MODE": "REGIONAL TRAIN" }, "geometry": { "type": "Point", "coordinates": [ 146.786966369999988, -38.15640367 ] } },
{ "type": "Feature", "properties": { "STOP_NAME": "Rosedale Station", "minutes": 37.8, "tier": 45, "centre": "traralgon", "MODE": "REGIONAL TRAIN" }, "geometry": { "type": "Point", "coordinates": [ 146.786966369999988, -38.15640367 ] } },
{ "type": "Feature", "properties": { "STOP_NAME": "Sale Railway Station", "minutes": 54.4, "tier": 60, "centre": "traralgon", "MODE": "REGIONAL TRAIN" }, "geometry": { "type": "Point", "coordinates": [ 147.05480513, -38.10310272 ] } },
{ "type": "Feature", "properties": { "STOP_NAME": "Sale Station", "minutes": 54.4, "tier": 60, "centre": "traralgon", "MODE": "REGIONAL TRAIN" }, "geometry": { "type": "Point", "coordinates": [ 147.05480513, -38.10310272 ] } },
{ "type": "Feature", "properties": { "STOP_NAME": "Trafalgar Railway Station", "minutes": 46.1, "tier": 60, "centre": "traralgon", "MODE": "REGIONAL TRAIN" }, "geometry": { "type": "Point", "coordinates": [ 146.15477284, -38.2072423 ] } },
{ "type": "Feature", "properties": { "STOP_NAME": "Trafalgar Station", "minutes": 46.1, "tier": 60, "centre": "traralgon", "MODE": "REGIONAL TRAIN" }, "geometry": { "type": "Point", "coordinates": [ 146.15477284, -38.2072423 ] } },
{ "type": "Feature", "properties": { "STOP_NAME": "Traralgon Railway Station", "minutes": 0.2, "tier": 15, "centre": "traralgon", "MODE": "REGIONAL TRAIN" }, "geometry": { "type": "Point", "coordinates": [ 146.53788212, -38.19888494 ] } },
{ "type": "Feature", "properties": { "STOP_NAME": "Traralgon Station", "minutes": 0.0, "tier": 15, "centre": "traralgon", "MODE": "REGIONAL TRAIN" }, "geometry": { "type": "Point", "coordinates": [ 146.53890069, -38.19854647 ] } },
{ "type": "Feature", "properties": { "STOP_NAME": "Yarragon Railway Station", "minutes": 59.9, "tier": 60, "centre": "traralgon", "MODE": "REGIONAL TRAIN" }, "geometry": { "type": "Point", "coordinates": [ 146.063062800000012, -38.20315754 ] } },
{ "type": "Feature", "properties": { "STOP_NAME": "Yarragon Station", "minutes": 59.9, "tier": 60, "centre": "traralgon", "MODE": "REGIONAL TRAIN" }, "geometry": { "type": "Point", "coordinates": [ 146.063062800000012, -38.20315754 ] } }
]
}
