{
"type": "FeatureCollection",
"name": "commute_times_regional_train__ballarat",
"crs": { "type": "name", "properties": { "name": "urn:ogc:def:crs:OGC:1.3:CRS84" } },
"features": [
{ "type": "Feature", "properties": { "STOP_NAME": "Bacchus Marsh Railway Station", "minutes": 47.3, "tier": 60, "centre": "ballarat", "MODE": "REGIONAL TRAIN" }, "geometry": { "type": "Point", "coordinates": [ 144.43678516, -37.68757821 ] } },
{ "type": "Feature", "properties": { "STOP_NAME": "Bacchus Marsh Station", "minutes": 47.3, "tier": 60, "centre": "ballarat", "MODE": "REGIONAL TRAIN" }, "geometry": { "type": "Point", "coordinates": [ 144.43750226, -37.68782809 ] } },
{ "type": "Feature", "properties": { "STOP_NAME": "Ballan Railway Station", "minutes": 30.0, "tier": 30, "centre": "ballarat", "MODE": "REGIONAL TRAIN" }, "geometry": { "type": "Point", "coordinates": [ 144.22544803, -37.60429951 ] } },
{ "type": "Feature", "properties": { "STOP_NAME": "Ballan Station", "minutes": 30.0, "tier": 30, "centre": "ballarat", "MODE": "REGIONAL TRAIN" }, "geometry": { "type": "Point", "coordinates": [ 144.22544803, -37.60429951 ] } },
{ "type": "Feature", "properties": { "STOP_NAME": "Ballarat Railway Station", "minutes": 0.0, "tier": 15, "centre": "ballarat", "MODE": "REGIONAL TRAIN" }, "geometry": { "type": "Point", "coordinates": [ 143.85945743, -37.55879148 ] } },
{ "type": "Feature", "properties": { "STOP_NAME": "Ballarat Station", "minutes": 0.0, "tier": 15, "centre": "ballarat", "MODE": "REGIONAL TRAIN" }, "geometry": { "type": "Point", "coordinates": [ 143.85953093, -37.55865829 ] } },
{ "type": "Feature", "properties": { "STOP_NAME": "Clunes Railway Station", "minutes": 54.0, "tier": 60, "centre": "ballarat", "MODE": "REGIONAL TRAIN" }, "geometry": { "type": "Point", "coordinates": [ 143.78208969, -37.30301059 ] } },
{ "type": "Feature", "properties": { "STOP_NAME": "Clunes Station", "minutes": 54.1, "tier": 60, "centre": "ballarat", "MODE": "REGIONAL TRAIN" }, "geometry": { "type": "Point", "coordinates": [ 143.78201108, -37.30273815 ] } },
{ "type": "Feature", "properties": { "STOP_NAME": "Cobblebank Railway Station", "minutes": 58.9, "tier": 60, "centre": "ballarat", "MODE": "REGIONAL TRAIN" }, "geometry": { "type": "Point", "coordinates": [ 144.60410782, -37.71254554 ] } },
{ "type": "Feature", "properties": { "STOP_NAME": "Cobblebank Station", "minutes": 58.9, "tier": 60, "centre": "ballarat", "MODE": "REGIONAL TRAIN" }, "geometry": { "type": "Point", "coordinates": [ 144.60384768, -37.71252223 ] } },
{ "type": "Feature", "properties": { "STOP_NAME": "Creswick Railway Station", "minutes": 26.7, "tier": 30, "centre": "ballarat", "MODE": "REGIONAL TRAIN" }, "geometry": { "type": "Point", "coordinates": [ 143.888123650000011, -37.42460539 ] } },
{ "type": "Feature", "properties": { "STOP_NAME": "Creswick Station", "minutes": 26.7, "tier": 30, "centre": "ballarat", "MODE": "REGIONAL TRAIN" }, "geometry": { "type": "Point", "coordinates": [ 143.888123650000011, -37.42460539 ] } },
{ "type": "Feature", "properties": { "STOP_NAME": "Melton Railway Station", "minutes": 55.9, "tier": 60, "centre": "ballarat", "MODE": "REGIONAL TRAIN" }, "geometry": { "type": "Point", "coordinates": [ 144.572098610000012, -37.70347382 ] } },
{ "type": "Feature", "properties": { "STOP_NAME": "Melton Station", "minutes": 55.9, "tier": 60, "centre": "ballarat", "MODE": "REGIONAL TRAIN" }, "geometry": { "type": "Point", "coordinates": [ 144.572215770000014, -37.70335908 ] } },
{ "type": "Feature", "properties": { "STOP_NAME": "Wendouree Railway Station", "minutes": 2.7, "tier": 15, "centre": "ballarat", "MODE": "REGIONAL TRAIN" }, "geometry": { "type": "Point", "coordinates": [ 143.82121077, -37.53997217 ] } },
{ "type": "Feature", "properties": { "STOP_NAME": "Wendouree Station", "minutes": 2.9, "tier": 15, "centre": "ballarat", "MODE": "REGIONAL TRAIN" }, "geometry": { "type": "Point", "coordinates": [ 143.819998950000013, -37.53973228 ] } }
]
}
