{
"type": "FeatureCollection",
"name": "commute_mst_regional_train__traralgon",
"crs": { "type": "name", "properties": { "name": "urn:ogc:def:crs:OGC:1.3:CRS84" } },
"features": [
{ "type": "Feature", "properties": { "from_stop": "Moe Station", "to_stop": "Moe Railway Station", "minutes": 23.5, "tier": 30, "centre": "traralgon", "MODE": "REGIONAL TRAIN" }, "geometry": { "type": "LineString", "coordinates": [ [ 146.260565240302384, -38.176826424425535 ], [ 146.26055885, -38.17682692 ], [ 146.260543194365312, -38.176828375542364 ] ] } },
{ "type": "Feature", "properties": { "from_stop": "Morwell Station", "to_stop": "Moe Station", "minutes": 23.5, "tier": 30, "centre": "traralgon", "MODE": "REGIONAL TRAIN" }, "geometry": { "type": "LineString", "coordinates": [ [ 146.260565240302384, -38.176826424425535 ], [ 146.26076955, -38.17681058 ], [ 146.261134309999989, -38.17678953 ], [ 146.26152324, -38.17678324 ], [ 146.26226875, -38.17677477 ], [ 146.26261267000001, -38.17678233 ], [ 146.26297685, -38.17679589 ], [ 146.2632472, -38.17681939 ], [ 146.26349713, -38.17685286 ], [ 146.26365017, -38.17686969 ], [ 146.26433646000001, -38.17697177 ], [ 146.26502355, -38.17708468 ], [ 146.26512211, -38.17710404 ], [ 146.26641379, -38.17738303 ], [ 146.26683397, -38.17751696 ], [ 146.26722292, -38.17765818 ], [ 146.267681470000014, -38.17787122 ], [ 146.268089870000011, -38.17804157 ], [ 146.27105824, -38.17985379 ], [ 146.27186541, -38.18036448 ], [ 146.27585205, -38.1827933 ], [ 146.27774939, -38.18401941 ], [ 146.27964111, -38.18518426 ], [ 146.281412960000011, -38.18623687 ], [ 146.282272940000013, -38.18679027 ], [ 146.28281582, -38.1872406 ], [ 146.28335999, -38.18772411 ], [ 146.283766289999988, -38.18819992 ], [ 146.284092969999989, -38.18863307 ], [ 146.284412800000013, -38.18917153 ], [ 146.2846499, -38.18959971 ], [ 146.284908410000014, -38.1901505 ], [ 146.285043910000013, -38.19059871 ], [ 146.28546868, -38.19222624 ], [ 146.28571202, -38.19304578 ], [ 146.28597464, -38.1936567 ], [ 146.28634931, -38.19431328 ], [ 146.28681712, -38.19493997 ], [ 146.287449790000011, -38.19561938 ], [ 146.28833599, -38.19634647 ], [ 146.28926353, -38.196958 ], [ 146.29082595, -38.19795773 ], [ 146.29201036, -38.19870083 ], [ 146.29422077000001, -38.20025491 ], [ 146.29712637, -38.20235376 ], [ 146.29782565, -38.20282127 ], [ 146.2987248, -38.20331314 ], [ 146.299516509999989, -38.20368377 ], [ 146.300242419999989, -38.20398587 ], [ 146.30095425, -38.20424336 ], [ 146.30189614, -38.20452168 ], [ 146.30256956, -38.2047245 ], [ 146.303203599999989, -38.20487634 ], [ 146.30401011, -38.20504064 ], [ 146.30477686, -38.20513459 ], [ 146.30549886, -38.20518978 ], [ 146.306166459999986, -38.20520049 ], [ 146.307038330000012, -38.20515841 ], [ 146.30773032, -38.20506579 ], [ 146.30857301, -38.20489619 ], [ 146.30948496, -38.20469643 ], [ 146.31060993, -38.20453244 ], [ 146.31190085, -38.20440419 ], [ 146.31369228, -38.20427309 ], [ 146.315815109999988, -38.20424421 ], [ 146.31642836, -38.2042649 ], [ 146.31696459, -38.20430137 ], [ 146.31739167, -38.20434738 ], [ 146.3180117, -38.20444913 ], [ 146.318534449999987, -38.20457276 ], [ 146.318999420000011, -38.20470794 ], [ 146.319447489999988, -38.20485428 ], [ 146.32034201, -38.2051877 ], [ 146.32077358, -38.2053781 ], [ 146.32120964, -38.20558899 ], [ 146.32162125, -38.20580037 ], [ 146.32223396, -38.20616477 ], [ 146.3225286, -38.2063295 ], [ 146.32281035, -38.20649146 ], [ 146.32321975, -38.20673382 ], [ 146.32362529, -38.20699887 ], [ 146.323980189999986, -38.20725534 ], [ 146.32428207000001, -38.20750248 ], [ 146.3245709, -38.20776569 ], [ 146.324857830000013, -38.20806087 ], [ 146.32512408, -38.20835783 ], [ 146.32532873, -38.20860919 ], [ 146.32552075000001, -38.20887914 ], [ 146.32572, -38.20918382 ], [ 146.32596421, -38.20961683 ], [ 146.32623512, -38.21015309 ], [ 146.32827305, -38.21432022 ], [ 146.328384949999986, -38.21452454 ], [ 146.32852025, -38.21475549 ], [ 146.32866238, -38.21501343 ], [ 146.32922032, -38.21614164 ], [ 146.32967703, -38.21683802 ], [ 146.33020004, -38.21745602 ], [ 146.330802049999988, -38.21803102 ], [ 146.33147699, -38.218552 ], [ 146.33221702, -38.21901296 ], [ 146.333013959999988, -38.21941196 ], [ 146.333859960000012, -38.21974302 ], [ 146.334745, -38.220002 ], [ 146.335658959999989, -38.22018599 ], [ 146.34395716, -38.22170258 ], [ 146.346472549999987, -38.2221228 ], [ 146.34822829, -38.22235896 ], [ 146.34972154, -38.22242456 ], [ 146.350975190000014, -38.22241762 ], [ 146.35214969, -38.22231839 ], [ 146.35521884, -38.22196578 ], [ 146.35589805, -38.22192256 ], [ 146.35698924, -38.22194098 ], [ 146.35804597, -38.22204716 ], [ 146.359179, -38.22230966 ], [ 146.359875820000013, -38.22251282 ], [ 146.364726069999989, -38.22481742 ], [ 146.364941390000013, -38.22492637 ], [ 146.37000896, -38.22737289 ], [ 146.371005770000011, -38.22786743 ], [ 146.37212055, -38.22840882 ], [ 146.37388268, -38.22927297 ], [ 146.37562116, -38.23011579 ], [ 146.37690569, -38.23075006 ], [ 146.37807734, -38.23131793 ], [ 146.37870154, -38.23158566 ], [ 146.379380809999986, -38.23185242 ], [ 146.38011884, -38.23210362 ], [ 146.38117963, -38.23245277 ], [ 146.381984280000012, -38.23269061 ], [ 146.38577921000001, -38.23373146 ], [ 146.3884579, -38.23447284 ], [ 146.39173839, -38.23537535 ], [ 146.3936511, -38.23589157 ], [ 146.39394218000001, -38.23596824 ], [ 146.39674359, -38.23672872 ], [ 146.396749890975371, -38.236730426204936 ] ] } },
{ "type": "Feature", "properties": { "from_stop": "Traralgon Railway Station", "to_stop": "Morwell Railway Station", "minutes": 2.9, "tier": 15, "centre": "traralgon", "MODE": "REGIONAL TRAIN" }, "geometry": { "type": "LineString", "coordinates": [ [ 146.537875162043463, -38.198857378340406 ], [ 146.53785531, -38.19886239 ], [ 146.537786540000013, -38.19888231 ], [ 146.537693960000013, -38.19891313 ], [ 146.537281689999986, -38.19905462 ], [ 146.536992199999986, -38.19913973 ], [ 146.536716180000013, -38.19920957 ], [ 146.533553360000013, -38.19997239 ], [ 146.51547964, -38.20445079 ], [ 146.51037211, -38.20571839 ], [ 146.505848859999986, -38.20681798 ], [ 146.49902322, -38.20847024 ], [ 146.49233665, -38.21011847 ], [ 146.48874411, -38.21101107 ], [ 146.487207, -38.21147887 ], [ 146.48567942, -38.21213289 ], [ 146.48543797, -38.21225891 ], [ 146.484215479999989, -38.21297518 ], [ 146.482782390000011, -38.21392383 ], [ 146.46337986, -38.22698341 ], [ 146.46198048, -38.22788889 ], [ 146.460460149999989, -38.22876729 ], [ 146.458466969999989, -38.22964899 ], [ 146.45677781, -38.23021997 ], [ 146.45502113, -38.23070976 ], [ 146.442669450000011, -38.23463256 ], [ 146.440493659999987, -38.23530481 ], [ 146.438258530000013, -38.23599106 ], [ 146.437657050000013, -38.23618294 ], [ 146.43279327, -38.23771022 ], [ 146.431473610000012, -38.23810479 ], [ 146.42931485, -38.23876394 ], [ 146.42053671, -38.24145728 ], [ 146.41992273, -38.24162891 ], [ 146.41920077, -38.2417845 ], [ 146.41835756, -38.24189838 ], [ 146.41763683, -38.24194122 ], [ 146.41685912, -38.24193673 ], [ 146.415687350000013, -38.24183754 ], [ 146.414584240000011, -38.24159916 ], [ 146.412234930000011, -38.24097024 ], [ 146.41046703, -38.24047444 ], [ 146.40769415, -38.23972506 ], [ 146.40487829, -38.23896919 ], [ 146.402563500000014, -38.23830466 ], [ 146.396777817768452, -38.23673798834082 ] ] } },
{ "type": "Feature", "properties": { "from_stop": "Morwell Railway Station", "to_stop": "Morwell Station", "minutes": 2.9, "tier": 15, "centre": "traralgon", "MODE": "REGIONAL TRAIN" }, "geometry": { "type": "LineString", "coordinates": [ [ 146.396777817768452, -38.23673798834082 ], [ 146.396749890975371, -38.236730426204936 ] ] } },
{ "type": "Feature", "properties": { "from_stop": "Traralgon Station", "to_stop": "Rosedale Railway Station", "minutes": 46.8, "tier": 60, "centre": "traralgon", "MODE": "REGIONAL TRAIN" }, "geometry": { "type": "LineString", "coordinates": [ [ 146.787011887227976, -38.156554378952386 ], [ 146.782419549999986, -38.15794136 ], [ 146.77957914000001, -38.15879434 ], [ 146.77460955, -38.16036888 ], [ 146.77318306, -38.16080883 ], [ 146.771833390000012, -38.16109688 ], [ 146.77051165, -38.16135423 ], [ 146.76574172, -38.16188629 ], [ 146.755660909999989, -38.16288102 ], [ 146.74393324, -38.16408383 ], [ 146.74353826, -38.16412046 ], [ 146.732383410000011, -38.165281 ], [ 146.71117866, -38.16750744 ], [ 146.70847365, -38.16777014 ], [ 146.698561790000014, -38.16882754 ], [ 146.69732928, -38.16894748 ], [ 146.69598833, -38.16908849 ], [ 146.695844, -38.16909631 ], [ 146.69447399, -38.16925201 ], [ 146.69108634, -38.16958446 ], [ 146.69083802, -38.16961481 ], [ 146.687282079999989, -38.1699695 ], [ 146.68591376, -38.17014817 ], [ 146.68456532, -38.17035041 ], [ 146.67795415, -38.17146427 ], [ 146.676213319999988, -38.17176086 ], [ 146.67072058, -38.17270552 ], [ 146.65906816, -38.17467081 ], [ 146.62305411, -38.18073732 ], [ 146.615127120000011, -38.18206296 ], [ 146.592633690000014, -38.18586104 ], [ 146.590182059999989, -38.18629511 ], [ 146.58657298, -38.18691424 ], [ 146.5860712, -38.18702162 ], [ 146.569985370000012, -38.19096006 ], [ 146.56244382, -38.1928151 ], [ 146.56200711, -38.19293226 ], [ 146.561658200000011, -38.1930145 ], [ 146.55201746, -38.19538978 ], [ 146.54994084, -38.19590519 ], [ 146.54599685, -38.19691987 ], [ 146.54279223, -38.19773244 ], [ 146.54210756, -38.1978427 ], [ 146.54180509, -38.19788866 ], [ 146.54157952, -38.19792788 ], [ 146.539904689999986, -38.1983451 ], [ 146.53891833, -38.19859403 ] ] } },
{ "type": "Feature", "properties": { "from_stop": "Traralgon Station", "to_stop": "Rosedale Station", "minutes": 46.8, "tier": 60, "centre": "traralgon", "MODE": "REGIONAL TRAIN" }, "geometry": { "type": "LineString", "coordinates": [ [ 146.538913034065615, -38.198595366961634 ], [ 146.53891833, -38.19859403 ], [ 146.539904689999986, -38.1983451 ], [ 146.54157952, -38.19792788 ], [ 146.54180509, -38.19788866 ], [ 146.54210756, -38.1978427 ], [ 146.54279223, -38.19773244 ], [ 146.54599685, -38.19691987 ], [ 146.54994084, -38.19590519 ], [ 146.55201746, -38.19538978 ], [ 146.561658200000011, -38.1930145 ], [ 146.56200711, -38.19293226 ], [ 146.56244382, -38.1928151 ], [ 146.569985370000012, -38.19096006 ], [ 146.5860712, -38.18702162 ], [ 146.58657298, -38.18691424 ], [ 146.590182059999989, -38.18629511 ], [ 146.592633690000014, -38.18586104 ], [ 146.615127120000011, -38.18206296 ], [ 146.62305411, -38.18073732 ], [ 146.65906816, -38.17467081 ], [ 146.67072058, -38.17270552 ], [ 146.676213319999988, -38.17176086 ], [ 146.67795415, -38.17146427 ], [ 146.68456532, -38.17035041 ], [ 146.68591376, -38.17014817 ], [ 146.687282079999989, -38.1699695 ], [ 146.69083802, -38.16961481 ], [ 146.69108634, -38.16958446 ], [ 146.69447399, -38.16925201 ], [ 146.695844, -38.16909631 ], [ 146.69598833, -38.16908849 ], [ 146.69732928, -38.16894748 ], [ 146.698561790000014, -38.16882754 ], [ 146.70847365, -38.16777014 ], [ 146.71117866, -38.16750744 ], [ 146.732383410000011, -38.165281 ], [ 146.74353826, -38.16412046 ], [ 146.74393324, -38.16408383 ], [ 146.755660909999989, -38.16288102 ], [ 146.76574172, -38.16188629 ], [ 146.77051165, -38.16135423 ], [ 146.771833390000012, -38.16109688 ], [ 146.77318306, -38.16080883 ], [ 146.77460955, -38.16036888 ], [ 146.77957914000001, -38.15879434 ], [ 146.782419549999986, -38.15794136 ], [ 146.787011887227976, -38.156554378952386 ] ] } },
{ "type": "Feature", "properties": { "from_stop": "Moe Railway Station", "to_stop": "Trafalgar Railway Station", "minutes": 41.1, "tier": 45, "centre": "traralgon", "MODE": "REGIONAL TRAIN" }, "geometry": { "type": "LineString", "coordinates": [ [ 146.260543194365312, -38.176828375542364 ], [ 146.260439889999986, -38.17683798 ], [ 146.260109910000011, -38.17687447 ], [ 146.25985956, -38.17690561 ], [ 146.25958658, -38.17694976 ], [ 146.25913068, -38.17704142 ], [ 146.25878154, -38.17712087 ], [ 146.25853546, -38.17718124 ], [ 146.25822825, -38.17726861 ], [ 146.25737676, -38.17752756 ], [ 146.252608470000013, -38.17909242 ], [ 146.25178485, -38.17935638 ], [ 146.25144623, -38.17945543 ], [ 146.25110036, -38.17954749 ], [ 146.250734599999987, -38.17965313 ], [ 146.23107081, -38.18595773 ], [ 146.22306483, -38.18851709 ], [ 146.21211915, -38.19203316 ], [ 146.20572199, -38.19409247 ], [ 146.2049879, -38.19433616 ], [ 146.20425322, -38.19460272 ], [ 146.20367382, -38.19482969 ], [ 146.20294035, -38.19514078 ], [ 146.202266619999989, -38.19547191 ], [ 146.20115399, -38.19602366 ], [ 146.19497832, -38.19908759 ], [ 146.19234122, -38.2003989 ], [ 146.19170451, -38.20070851 ], [ 146.19104631, -38.20101048 ], [ 146.190343039999988, -38.20130647 ], [ 146.18960728, -38.20158763 ], [ 146.18902465, -38.20178719 ], [ 146.188400879999989, -38.20197863 ], [ 146.18775721, -38.20215172 ], [ 146.187177100000014, -38.20228893 ], [ 146.186510520000013, -38.20242626 ], [ 146.18594188, -38.20253786 ], [ 146.178369769999989, -38.20371106 ], [ 146.16939912, -38.20505323 ], [ 146.166113810000013, -38.20555707 ], [ 146.16071982, -38.20640716 ], [ 146.154786339999987, -38.20731981 ], [ 146.154784797429699, -38.207320047245396 ] ] } },
{ "type": "Feature", "properties": { "from_stop": "Moe Railway Station", "to_stop": "Trafalgar Station", "minutes": 41.1, "tier": 45, "centre": "traralgon", "MODE": "REGIONAL TRAIN" }, "geometry": { "type": "LineString", "coordinates": [ [ 146.154784797429699, -38.207320047245396 ], [ 146.154786339999987, -38.20731981 ], [ 146.16071982, -38.20640716 ], [ 146.166113810000013, -38.20555707 ], [ 146.16939912, -38.20505323 ], [ 146.178369769999989, -38.20371106 ], [ 146.18594188, -38.20253786 ], [ 146.186510520000013, -38.20242626 ], [ 146.187177100000014, -38.20228893 ], [ 146.18775721, -38.20215172 ], [ 146.188400879999989, -38.20197863 ], [ 146.18902465, -38.20178719 ], [ 146.18960728, -38.20158763 ], [ 146.190343039999988, -38.20130647 ], [ 146.19104631, -38.20101048 ], [ 146.19170451, -38.20070851 ], [ 146.19234122, -38.2003989 ], [ 146.19497832, -38.19908759 ], [ 146.20115399, -38.19602366 ], [ 146.202266619999989, -38.19547191 ], [ 146.20294035, -38.19514078 ], [ 146.20367382, -38.19482969 ], [ 146.20425322, -38.19460272 ], [ 146.2049879, -38.19433616 ], [ 146.20572199, -38.19409247 ], [ 146.21211915, -38.19203316 ], [ 146.22306483, -38.18851709 ], [ 146.23107081, -38.18595773 ], [ 146.250734599999987, -38.17965313 ], [ 146.25110036, -38.17954749 ], [ 146.25144623, -38.17945543 ], [ 146.25178485, -38.17935638 ], [ 146.252608470000013, -38.17909242 ], [ 146.25737676, -38.17752756 ], [ 146.25822825, -38.17726861 ], [ 146.25853546, -38.17718124 ], [ 146.25878154, -38.17712087 ], [ 146.25913068, -38.17704142 ], [ 146.25958658, -38.17694976 ], [ 146.25985956, -38.17690561 ], [ 146.260109910000011, -38.17687447 ], [ 146.260439889999986, -38.17683798 ], [ 146.260543194365312, -38.176828375542364 ] ] } },
{ "type": "Feature", "properties": { "from_stop": "Traralgon Station", "to_stop": "Traralgon Railway Station", "minutes": 0.4, "tier": 15, "centre": "traralgon", "MODE": "REGIONAL TRAIN" }, "geometry": { "type": "LineString", "coordinates": [ [ 146.538913034065615, -38.198595366961634 ], [ 146.537875162043463, -38.198857378340406 ] ] } }
]
}
