{
"type": "FeatureCollection",
"name": "commute_hulls_regional_train__shepparton",
"crs": { "type": "name", "properties": { "name": "urn:ogc:def:crs:OGC:1.3:CRS84" } },
"features": [
{ "type": "Feature", "properties": { "MODE": "REGIONAL TRAIN", "transit_time_minutes_nearest_tier": 60.0, "centre": "shepparton", "centre_name": "Shepparton" }, "geometry": { "type": "Polygon", "coordinates": [ [ [ 145.355720431163093, -36.397461569300944 ], [ 145.3558958086399, -36.397225100147509 ], [ 145.35609351965644, -36.397006959656437 ], [ 145.356311660147497, -36.396809248639912 ], [ 145.356548129300933, -36.39663387116309 ], [ 145.356800649789506, -36.396482516206952 ], [ 145.357066789702884, -36.396356641402463 ], [ 145.357343985968214, -36.3962574589928 ], [ 145.405102245968237, -36.3809402389928 ], [ 145.40538782903397, -36.380868704158793 ], [ 145.405679048579032, -36.380825505819985 ], [ 145.405973100000011, -36.38081106 ], [ 145.40649749, -36.38079101 ], [ 145.406791541420972, -36.380805455819988 ], [ 145.407082760966034, -36.380848654158797 ], [ 145.407368344031767, -36.380920188992803 ], [ 145.407645540297096, -36.381019371402466 ], [ 145.407911680210475, -36.381145246206955 ], [ 145.408164200699048, -36.381296601163093 ], [ 145.408400669852483, -36.381471978639915 ], [ 145.40861881034354, -36.381669689656441 ], [ 145.40881652136008, -36.381887830147512 ], [ 145.408991898836888, -36.382124299300948 ], [ 145.409143253793047, -36.382376819789528 ], [ 145.409269128597515, -36.382642959702906 ], [ 145.409368311007199, -36.382920155968243 ], [ 145.409439845841206, -36.383205739033954 ], [ 145.409483044180007, -36.383496958579016 ], [ 145.409497489999978, -36.38379101 ], [ 145.409483044180007, -36.38408506142099 ], [ 145.409439845841206, -36.384376280966052 ], [ 145.409368311007199, -36.384661864031763 ], [ 145.409269128597515, -36.3849390602971 ], [ 145.409143253793047, -36.385205200210478 ], [ 145.408991898836888, -36.385457720699058 ], [ 145.40881652136008, -36.385694189852494 ], [ 145.40861881034354, -36.385912330343565 ], [ 145.243281323793042, -36.614562130210473 ], [ 145.163128298597513, -36.786612150297096 ], [ 145.163002423793046, -36.786878290210474 ], [ 145.162851068836886, -36.787130810699054 ], [ 145.162675691360079, -36.787367279852489 ], [ 145.162477980343539, -36.787585420343561 ], [ 145.162259839852481, -36.787783131360086 ], [ 145.162023370699046, -36.787958508836908 ], [ 145.161770850210473, -36.788109863793046 ], [ 145.161504710297095, -36.788235738597535 ], [ 145.161227514031765, -36.788334921007198 ], [ 145.160941930966032, -36.788406455841205 ], [ 145.160650711420971, -36.788449654180013 ], [ 145.16035666, -36.7884641 ], [ 145.160062608579011, -36.788449654180013 ], [ 145.159771389033949, -36.788406455841205 ], [ 145.159485805968217, -36.788334921007198 ], [ 145.159208609702887, -36.788235738597535 ], [ 145.158942469789508, -36.788109863793046 ], [ 145.158689949300935, -36.787958508836908 ], [ 145.1584534801475, -36.787783131360086 ], [ 145.158235339656443, -36.787585420343561 ], [ 145.158037628639903, -36.787367279852489 ], [ 145.157862251163095, -36.787130810699054 ], [ 145.157710896206936, -36.786878290210474 ], [ 145.157585021402468, -36.786612150297096 ], [ 145.157485838992784, -36.786334954031759 ], [ 145.157414304158777, -36.786049370966047 ], [ 145.157371105819976, -36.785758151420985 ], [ 145.15735666, -36.7854641 ], [ 145.157371105819976, -36.785170048579012 ], [ 145.157414304158777, -36.78487882903395 ], [ 145.157485838992784, -36.784593245968239 ], [ 145.157585021402468, -36.784316049702902 ], [ 145.237863921402464, -36.611999889702901 ], [ 145.237989796206932, -36.611733749789522 ], [ 145.355569076206933, -36.397714089789524 ], [ 145.355720431163093, -36.397461569300944 ] ] ] } },
{ "type": "Feature", "properties": { "MODE": "REGIONAL TRAIN", "transit_time_minutes_nearest_tier": 45.0, "centre": "shepparton", "centre_name": "Shepparton" }, "geometry": { "type": "Polygon", "coordinates": [ [ [ 145.355720431163093, -36.397461569300944 ], [ 145.3558958086399, -36.397225100147509 ], [ 145.35609351965644, -36.397006959656437 ], [ 145.356311660147497, -36.396809248639912 ], [ 145.356548129300933, -36.39663387116309 ], [ 145.356800649789506, -36.396482516206952 ], [ 145.357066789702884, -36.396356641402463 ], [ 145.357343985968214, -36.3962574589928 ], [ 145.405102245968237, -36.3809402389928 ], [ 145.40538782903397, -36.380868704158793 ], [ 145.405679048579032, -36.380825505819985 ], [ 145.405973100000011, -36.38081106 ], [ 145.40649749, -36.38079101 ], [ 145.406791541420972, -36.380805455819988 ], [ 145.407082760966034, -36.380848654158797 ], [ 145.407368344031767, -36.380920188992803 ], [ 145.407645540297096, -36.381019371402466 ], [ 145.407911680210475, -36.381145246206955 ], [ 145.408164200699048, -36.381296601163093 ], [ 145.408400669852483, -36.381471978639915 ], [ 145.40861881034354, -36.381669689656441 ], [ 145.40881652136008, -36.381887830147512 ], [ 145.408991898836888, -36.382124299300948 ], [ 145.409143253793047, -36.382376819789528 ], [ 145.409269128597515, -36.382642959702906 ], [ 145.409368311007199, -36.382920155968243 ], [ 145.409439845841206, -36.383205739033954 ], [ 145.409483044180007, -36.383496958579016 ], [ 145.409497489999978, -36.38379101 ], [ 145.409483044180007, -36.38408506142099 ], [ 145.409439845841206, -36.384376280966052 ], [ 145.409368311007199, -36.384661864031763 ], [ 145.409269128597515, -36.3849390602971 ], [ 145.409143253793047, -36.385205200210478 ], [ 145.408991898836888, -36.385457720699058 ], [ 145.40881652136008, -36.385694189852494 ], [ 145.40861881034354, -36.385912330343565 ], [ 145.243281323793042, -36.614562130210473 ], [ 145.163128298597513, -36.786612150297096 ], [ 145.163002423793046, -36.786878290210474 ], [ 145.162851068836886, -36.787130810699054 ], [ 145.162675691360079, -36.787367279852489 ], [ 145.162477980343539, -36.787585420343561 ], [ 145.162259839852481, -36.787783131360086 ], [ 145.162023370699046, -36.787958508836908 ], [ 145.161770850210473, -36.788109863793046 ], [ 145.161504710297095, -36.788235738597535 ], [ 145.161227514031765, -36.788334921007198 ], [ 145.160941930966032, -36.788406455841205 ], [ 145.160650711420971, -36.788449654180013 ], [ 145.16035666, -36.7884641 ], [ 145.160062608579011, -36.788449654180013 ], [ 145.159771389033949, -36.788406455841205 ], [ 145.159485805968217, -36.788334921007198 ], [ 145.159208609702887, -36.788235738597535 ], [ 145.158942469789508, -36.788109863793046 ], [ 145.158689949300935, -36.787958508836908 ], [ 145.1584534801475, -36.787783131360086 ], [ 145.158235339656443, -36.787585420343561 ], [ 145.158037628639903, -36.787367279852489 ], [ 145.157862251163095, -36.787130810699054 ], [ 145.157710896206936, -36.786878290210474 ], [ 145.157585021402468, -36.786612150297096 ], [ 145.157485838992784, -36.786334954031759 ], [ 145.157414304158777, -36.786049370966047 ], [ 145.157371105819976, -36.785758151420985 ], [ 145.15735666, -36.7854641 ], [ 145.157371105819976, -36.785170048579012 ], [ 145.157414304158777, -36.78487882903395 ], [ 145.157485838992784, -36.784593245968239 ], [ 145.157585021402468, -36.784316049702902 ], [ 145.237863921402464, -36.611999889702901 ], [ 145.237989796206932, -36.611733749789522 ], [ 145.355569076206933, -36.397714089789524 ], [ 145.355720431163093, -36.397461569300944 ] ] ] } },
{ "type": "Feature", "properties": { "MODE": "REGIONAL TRAIN", "transit_time_minutes_nearest_tier": 30.0, "centre": "shepparton", "centre_name": "Shepparton" }, "geometry": { "type": "Polygon", "coordinates": [ [ [ 145.355720431163093, -36.397461569300944 ], [ 145.3558958086399, -36.397225100147509 ], [ 145.35609351965644, -36.397006959656437 ], [ 145.356311660147497, -36.396809248639912 ], [ 145.356548129300933, -36.39663387116309 ], [ 145.356800649789506, -36.396482516206952 ], [ 145.357066789702884, -36.396356641402463 ], [ 145.357343985968214, -36.3962574589928 ], [ 145.405102245968237, -36.3809402389928 ], [ 145.40538782903397, -36.380868704158793 ], [ 145.405679048579032, -36.380825505819985 ], [ 145.405973100000011, -36.38081106 ], [ 145.40649749, -36.38079101 ], [ 145.406791541420972, -36.380805455819988 ], [ 145.407082760966034, -36.380848654158797 ], [ 145.407368344031767, -36.380920188992803 ], [ 145.407645540297096, -36.381019371402466 ], [ 145.407911680210475, -36.381145246206955 ], [ 145.408164200699048, -36.381296601163093 ], [ 145.408400669852483, -36.381471978639915 ], [ 145.40861881034354, -36.381669689656441 ], [ 145.40881652136008, -36.381887830147512 ], [ 145.408991898836888, -36.382124299300948 ], [ 145.409143253793047, -36.382376819789528 ], [ 145.409269128597515, -36.382642959702906 ], [ 145.409368311007199, -36.382920155968243 ], [ 145.409439845841206, -36.383205739033954 ], [ 145.409483044180007, -36.383496958579016 ], [ 145.409497489999978, -36.38379101 ], [ 145.409483044180007, -36.38408506142099 ], [ 145.409439845841206, -36.384376280966052 ], [ 145.409368311007199, -36.384661864031763 ], [ 145.409269128597515, -36.3849390602971 ], [ 145.409143253793047, -36.385205200210478 ], [ 145.408991898836888, -36.385457720699058 ], [ 145.40881652136008, -36.385694189852494 ], [ 145.40861881034354, -36.385912330343565 ], [ 145.243281323793042, -36.614562130210473 ], [ 145.163128298597513, -36.786612150297096 ], [ 145.163002423793046, -36.786878290210474 ], [ 145.162851068836886, -36.787130810699054 ], [ 145.162675691360079, -36.787367279852489 ], [ 145.162477980343539, -36.787585420343561 ], [ 145.162259839852481, -36.787783131360086 ], [ 145.162023370699046, -36.787958508836908 ], [ 145.161770850210473, -36.788109863793046 ], [ 145.161504710297095, -36.788235738597535 ], [ 145.161227514031765, -36.788334921007198 ], [ 145.160941930966032, -36.788406455841205 ], [ 145.160650711420971, -36.788449654180013 ], [ 145.16035666, -36.7884641 ], [ 145.160062608579011, -36.788449654180013 ], [ 145.159771389033949, -36.788406455841205 ], [ 145.159485805968217, -36.788334921007198 ], [ 145.159208609702887, -36.788235738597535 ], [ 145.158942469789508, -36.788109863793046 ], [ 145.158689949300935, -36.787958508836908 ], [ 145.1584534801475, -36.787783131360086 ], [ 145.158235339656443, -36.787585420343561 ], [ 145.158037628639903, -36.787367279852489 ], [ 145.157862251163095, -36.787130810699054 ], [ 145.157710896206936, -36.786878290210474 ], [ 145.157585021402468, -36.786612150297096 ], [ 145.157485838992784, -36.786334954031759 ], [ 145.157414304158777, -36.786049370966047 ], [ 145.157371105819976, -36.785758151420985 ], [ 145.15735666, -36.7854641 ], [ 145.157371105819976, -36.785170048579012 ], [ 145.157414304158777, -36.78487882903395 ], [ 145.157485838992784, -36.784593245968239 ], [ 145.157585021402468, -36.784316049702902 ], [ 145.237863921402464, -36.611999889702901 ], [ 145.237989796206932, -36.611733749789522 ], [ 145.355569076206933, -36.397714089789524 ], [ 145.355720431163093, -36.397461569300944 ] ] ] } },
{ "type": "Feature", "properties": { "MODE": "REGIONAL TRAIN", "transit_time_minutes_nearest_tier": 15.0, "centre": "shepparton", "centre_name": "Shepparton" }, "geometry": { "type": "Polygon", "coordinates": [ [ [ 145.355720431163093, -36.397461569300944 ], [ 145.3558958086399, -36.397225100147509 ], [ 145.35609351965644, -36.397006959656437 ], [ 145.356311660147497, -36.396809248639912 ], [ 145.356548129300933, -36.39663387116309 ], [ 145.356800649789506, -36.396482516206952 ], [ 145.357066789702884, -36.396356641402463 ], [ 145.357343985968214, -36.3962574589928 ], [ 145.357629569033946, -36.396185924158793 ], [ 145.357920788579008, -36.396142725819985 ], [ 145.358214839999988, -36.39612828 ], [ 145.358508891420968, -36.396142725819985 ], [ 145.35880011096603, -36.396185924158793 ], [ 145.359085694031762, -36.3962574589928 ], [ 145.359362890297092, -36.396356641402463 ], [ 145.359629030210471, -36.396482516206952 ], [ 145.359881550699043, -36.39663387116309 ], [ 145.360118019852479, -36.396809248639912 ], [ 145.360336160343536, -36.397006959656437 ], [ 145.360533871360076, -36.397225100147509 ], [ 145.360709248836883, -36.397461569300944 ], [ 145.360860603793043, -36.397714089789524 ], [ 145.360986478597511, -36.397980229702902 ], [ 145.403102278992804, -36.384681914031759 ], [ 145.403030744158798, -36.384396330966048 ], [ 145.402987545819997, -36.384105111420986 ], [ 145.402973100000025, -36.38381106 ], [ 145.402987545819997, -36.383517008579012 ], [ 145.403030744158798, -36.383225789033951 ], [ 145.403102278992804, -36.382940205968239 ], [ 145.403201461402489, -36.382663009702902 ], [ 145.403327336206956, -36.382396869789524 ], [ 145.403478691163116, -36.382144349300944 ], [ 145.403654068639923, -36.381907880147509 ], [ 145.403851779656463, -36.381689739656437 ], [ 145.404069920147521, -36.381492028639911 ], [ 145.404306389300956, -36.38131665116309 ], [ 145.404558909789529, -36.381165296206952 ], [ 145.404825049702907, -36.381039421402463 ], [ 145.405102245968237, -36.3809402389928 ], [ 145.40538782903397, -36.380868704158793 ], [ 145.405679048579032, -36.380825505819985 ], [ 145.405973100000011, -36.38081106 ], [ 145.40649749, -36.38079101 ], [ 145.406791541420972, -36.380805455819988 ], [ 145.407082760966034, -36.380848654158797 ], [ 145.407368344031767, -36.380920188992803 ], [ 145.407645540297096, -36.381019371402466 ], [ 145.407911680210475, -36.381145246206955 ], [ 145.408164200699048, -36.381296601163093 ], [ 145.408400669852483, -36.381471978639915 ], [ 145.40861881034354, -36.381669689656441 ], [ 145.40881652136008, -36.381887830147512 ], [ 145.408991898836888, -36.382124299300948 ], [ 145.409143253793047, -36.382376819789528 ], [ 145.409269128597515, -36.382642959702906 ], [ 145.409368311007199, -36.382920155968243 ], [ 145.409439845841206, -36.383205739033954 ], [ 145.409483044180007, -36.383496958579016 ], [ 145.409497489999978, -36.38379101 ], [ 145.409483044180007, -36.38408506142099 ], [ 145.409439845841206, -36.384376280966052 ], [ 145.409368311007199, -36.384661864031763 ], [ 145.409269128597515, -36.3849390602971 ], [ 145.409143253793047, -36.385205200210478 ], [ 145.408991898836888, -36.385457720699058 ], [ 145.40881652136008, -36.385694189852494 ], [ 145.40861881034354, -36.385912330343565 ], [ 145.408400669852483, -36.386110041360091 ], [ 145.408164200699048, -36.386285418836913 ], [ 145.407911680210475, -36.386436773793051 ], [ 145.407645540297096, -36.38656264859754 ], [ 145.407368344031767, -36.386661831007203 ], [ 145.407082760966034, -36.386733365841209 ], [ 145.406791541420972, -36.386776564180018 ], [ 145.40649749, -36.38679101 ], [ 145.405973100000011, -36.38681106 ], [ 145.405679048579032, -36.386796614180014 ], [ 145.40538782903397, -36.386753415841206 ], [ 145.405102245968237, -36.386681881007199 ], [ 145.404825049702907, -36.386582698597536 ], [ 145.404558909789529, -36.386456823793047 ], [ 145.404306389300956, -36.386305468836909 ], [ 145.404069920147521, -36.386130091360087 ], [ 145.403851779656463, -36.385932380343561 ], [ 145.403654068639923, -36.38571423985249 ], [ 145.403478691163116, -36.385477770699055 ], [ 145.403327336206956, -36.385225250210475 ], [ 145.403201461402489, -36.384959110297096 ], [ 145.361085661007195, -36.398257425968239 ], [ 145.361157195841201, -36.398543009033951 ], [ 145.361200394180003, -36.398834228579013 ], [ 145.361214839999974, -36.39912828 ], [ 145.361200394180003, -36.399422331420986 ], [ 145.361157195841201, -36.399713550966048 ], [ 145.361085661007195, -36.399999134031759 ], [ 145.360986478597511, -36.400276330297096 ], [ 145.360860603793043, -36.400542470210475 ], [ 145.360709248836883, -36.400794990699055 ], [ 145.360533871360076, -36.40103145985249 ], [ 145.360336160343536, -36.401249600343561 ], [ 145.360118019852479, -36.401447311360087 ], [ 145.359881550699043, -36.401622688836909 ], [ 145.359629030210471, -36.401774043793047 ], [ 145.359362890297092, -36.401899918597536 ], [ 145.359085694031762, -36.401999101007199 ], [ 145.35880011096603, -36.402070635841206 ], [ 145.358508891420968, -36.402113834180014 ], [ 145.358214839999988, -36.40212828 ], [ 145.357920788579008, -36.402113834180014 ], [ 145.357629569033946, -36.402070635841206 ], [ 145.357343985968214, -36.401999101007199 ], [ 145.357066789702884, -36.401899918597536 ], [ 145.356800649789506, -36.401774043793047 ], [ 145.356548129300933, -36.401622688836909 ], [ 145.356311660147497, -36.401447311360087 ], [ 145.35609351965644, -36.401249600343561 ], [ 145.3558958086399, -36.40103145985249 ], [ 145.355720431163093, -36.400794990699055 ], [ 145.355569076206933, -36.400542470210475 ], [ 145.355443201402466, -36.400276330297096 ], [ 145.355344018992781, -36.399999134031759 ], [ 145.355272484158775, -36.399713550966048 ], [ 145.355229285819973, -36.399422331420986 ], [ 145.35521484, -36.39912828 ], [ 145.355229285819973, -36.398834228579013 ], [ 145.355272484158775, -36.398543009033951 ], [ 145.355344018992781, -36.398257425968239 ], [ 145.355443201402466, -36.397980229702902 ], [ 145.355569076206933, -36.397714089789524 ], [ 145.355720431163093, -36.397461569300944 ] ] ] } }
]
}
