{
"type": "FeatureCollection",
"name": "commute_hulls_metro_train",
"crs": { "type": "name", "properties": { "name": "urn:ogc:def:crs:OGC:1.3:CRS84" } },
"features": [
{ "type": "Feature", "properties": { "MODE": "METRO TRAIN", "transit_time_minutes_nearest_tier": 60.0, "centre": "southern-cross", "centre_name": "Southern Cross" }, "geometry": { "type": "Polygon", "coordinates": [ [ [ 144.725340978639906, -37.577509770147508 ], [ 144.725538689656446, -37.577291629656436 ], [ 144.725756830147503, -37.57709391863991 ], [ 144.725993299300939, -37.576918541163089 ], [ 144.726245819789511, -37.576767186206951 ], [ 144.72651195970289, -37.576641311402462 ], [ 144.726832929702908, -37.576512321402461 ], [ 144.727110125968238, -37.576413138992798 ], [ 144.727395709033971, -37.576341604158792 ], [ 144.727686928579033, -37.576298405819983 ], [ 144.727980980000012, -37.57628396 ], [ 144.728275031420992, -37.576298405819983 ], [ 144.728566250966054, -37.576341604158792 ], [ 144.943306009999986, -37.5989248 ], [ 145.100970210000014, -37.59931503 ], [ 145.101264261420994, -37.599329475819985 ], [ 145.101555480966056, -37.599372674158793 ], [ 145.101841064031788, -37.5994442089928 ], [ 145.102118260297118, -37.599543391402463 ], [ 145.102384400210497, -37.599669266206952 ], [ 145.102636920699069, -37.59982062116309 ], [ 145.349583610699057, -37.75291811116309 ], [ 145.349820079852492, -37.753093488639912 ], [ 145.350038220343549, -37.753291199656438 ], [ 145.350235931360089, -37.753509340147509 ], [ 145.350411308836897, -37.753745809300945 ], [ 145.350562663793056, -37.753998329789525 ], [ 145.350688538597524, -37.754264469702903 ], [ 145.350787721007208, -37.75454166596824 ], [ 145.350859255841215, -37.754827249033951 ], [ 145.350902454180016, -37.755118468579013 ], [ 145.350916899999987, -37.75541252 ], [ 145.350902454180016, -37.755706571420987 ], [ 145.350859255841215, -37.755997790966049 ], [ 145.350787721007208, -37.75628337403176 ], [ 145.350688538597524, -37.756560570297097 ], [ 145.334354895841216, -37.903124849033951 ], [ 145.487377544031773, -38.077636648992801 ], [ 145.487654740297103, -38.077735831402464 ], [ 145.487920880210481, -38.077861706206953 ], [ 145.488173400699054, -38.078013061163091 ], [ 145.488409869852489, -38.078188438639913 ], [ 145.488628010343547, -38.078386149656438 ], [ 145.488825721360087, -38.07860429014751 ], [ 145.489001098836894, -38.078840759300945 ], [ 145.489152453793054, -38.079093279789525 ], [ 145.489278328597521, -38.079359419702904 ], [ 145.489377511007206, -38.079636615968241 ], [ 145.489449045841212, -38.079922199033952 ], [ 145.489492244180013, -38.080213418579014 ], [ 145.489506689999985, -38.08050747 ], [ 145.489492244180013, -38.080801521420987 ], [ 145.489449045841212, -38.081092740966049 ], [ 145.489377511007206, -38.08137832403176 ], [ 145.489278328597521, -38.081655520297097 ], [ 145.489152453793054, -38.081921660210476 ], [ 145.489001098836894, -38.082174180699056 ], [ 145.488825721360087, -38.082410649852491 ], [ 145.488628010343547, -38.082628790343563 ], [ 145.488409869852489, -38.082826501360088 ], [ 145.488282249852489, -38.08293300136009 ], [ 145.488045780699053, -38.083108378836911 ], [ 145.487793260210481, -38.083259733793049 ], [ 145.487527120297102, -38.083385608597538 ], [ 145.487249924031772, -38.083484791007201 ], [ 145.48696434096604, -38.083556325841208 ], [ 145.486673121420978, -38.083599524180016 ], [ 145.48637907, -38.08361397 ], [ 145.486085018579018, -38.083599524180016 ], [ 145.485793799033956, -38.083556325841208 ], [ 145.485508215968224, -38.083484791007201 ], [ 145.485231019702894, -38.083385608597538 ], [ 145.484964879789516, -38.083259733793049 ], [ 145.484712359300943, -38.083108378836911 ], [ 145.484475890147507, -38.08293300136009 ], [ 145.48425774965645, -38.082735290343564 ], [ 145.48406003863991, -38.082517149852492 ], [ 145.483884661163103, -38.082280680699057 ], [ 145.483733306206943, -38.082028160210477 ], [ 145.483607431402476, -38.081762020297099 ], [ 145.483508248992791, -38.081484824031762 ], [ 145.483436714158785, -38.08119924096605 ], [ 145.483393515819984, -38.080908021420989 ], [ 145.483379070000012, -38.08061397 ], [ 145.331118488579023, -37.906695674180014 ], [ 145.131150684180028, -38.10405036857901 ], [ 145.13116513, -38.10434442 ], [ 145.131150684180028, -38.104638471420984 ], [ 145.131107485841227, -38.104929690966046 ], [ 145.13103595100722, -38.105215274031757 ], [ 145.130936768597536, -38.105492470297094 ], [ 145.130810893793068, -38.105758610210472 ], [ 145.130659538836909, -38.106011130699052 ], [ 145.130484161360101, -38.106247599852487 ], [ 145.130286450343561, -38.106465740343559 ], [ 145.130068309852504, -38.106663451360085 ], [ 145.129831840699069, -38.106838828836906 ], [ 145.129579320210496, -38.106990183793044 ], [ 145.129313180297117, -38.107116058597533 ], [ 145.129035984031788, -38.107215241007196 ], [ 145.128750400966055, -38.107286775841203 ], [ 145.128459181420993, -38.107329974180011 ], [ 145.128165130000014, -38.10734442 ], [ 145.127871078579034, -38.107329974180011 ], [ 145.127579859033972, -38.107286775841203 ], [ 145.127294275968239, -38.107215241007196 ], [ 145.12701707970291, -38.107116058597533 ], [ 145.126750939789531, -38.106990183793044 ], [ 145.126498419300958, -38.106838828836906 ], [ 145.126261950147523, -38.106663451360085 ], [ 145.126043809656466, -38.106465740343559 ], [ 145.125846098639926, -38.106247599852487 ], [ 145.125670721163118, -38.106011130699052 ], [ 145.125519366206959, -38.105758610210472 ], [ 145.125393491402491, -38.105492470297094 ], [ 145.002894649300941, -37.952824588836911 ], [ 145.002658180147506, -37.95264921136009 ], [ 145.002440039656449, -37.952451500343564 ], [ 144.82914591857903, -37.870138384180017 ], [ 144.701895090297114, -37.886151888597539 ], [ 144.701617894031784, -37.886251071007202 ], [ 144.66230091021049, -37.902145363793046 ], [ 144.662034770297112, -37.902271238597535 ], [ 144.661757574031782, -37.902370421007198 ], [ 144.661471990966049, -37.902441955841205 ], [ 144.661180771420987, -37.902485154180013 ], [ 144.66088672, -37.9024996 ], [ 144.660592668579028, -37.902485154180013 ], [ 144.660301449033966, -37.902441955841205 ], [ 144.660015865968234, -37.902370421007198 ], [ 144.659738669702904, -37.902271238597535 ], [ 144.659472529789525, -37.902145363793046 ], [ 144.659220009300952, -37.901994008836908 ], [ 144.658983540147517, -37.901818631360086 ], [ 144.65876539965646, -37.901620920343561 ], [ 144.65856768863992, -37.901402779852489 ], [ 144.658392311163112, -37.901166310699054 ], [ 144.658240956206953, -37.900913790210474 ], [ 144.658115081402485, -37.900647650297095 ], [ 144.658015898992801, -37.900370454031759 ], [ 144.657944364158794, -37.900084870966047 ], [ 144.657901165819993, -37.899793651420985 ], [ 144.657886720000022, -37.8994996 ], [ 144.657901165819993, -37.899205548579012 ], [ 144.657944364158794, -37.89891432903395 ], [ 144.658015898992801, -37.898628745968239 ], [ 144.658115081402485, -37.898351549702902 ], [ 144.658240956206953, -37.898085409789523 ], [ 144.658392311163112, -37.897832889300943 ], [ 144.65856768863992, -37.897596420147508 ], [ 144.65876539965646, -37.897378279656436 ], [ 144.658983540147517, -37.897180568639911 ], [ 144.659220009300952, -37.897005191163089 ], [ 144.659472529789525, -37.896853836206951 ], [ 144.659703819789513, -37.896732286206955 ], [ 144.771195435819976, -37.701404761420989 ], [ 144.725340978639906, -37.581316129852489 ], [ 144.725165601163098, -37.581079660699054 ], [ 144.725014246206939, -37.580827140210474 ], [ 144.724888371402471, -37.580561000297095 ], [ 144.724789188992787, -37.580283804031758 ], [ 144.724717654158781, -37.579998220966047 ], [ 144.724674455819979, -37.579707001420985 ], [ 144.72466001, -37.57941295 ], [ 144.724674455819979, -37.579118898579011 ], [ 144.724717654158781, -37.578827679033949 ], [ 144.724789188992787, -37.578542095968238 ], [ 144.724888371402471, -37.578264899702901 ], [ 144.725014246206939, -37.577998759789523 ], [ 144.725165601163098, -37.577746239300943 ], [ 144.725340978639906, -37.577509770147508 ] ] ] } },
{ "type": "Feature", "properties": { "MODE": "METRO TRAIN", "transit_time_minutes_nearest_tier": 45.0, "centre": "southern-cross", "centre_name": "Southern Cross" }, "geometry": { "type": "Polygon", "coordinates": [ [ [ 144.725340978639906, -37.577509770147508 ], [ 144.725538689656446, -37.577291629656436 ], [ 144.725756830147503, -37.57709391863991 ], [ 144.725993299300939, -37.576918541163089 ], [ 144.726245819789511, -37.576767186206951 ], [ 144.72651195970289, -37.576641311402462 ], [ 144.726832929702908, -37.576512321402461 ], [ 144.727110125968238, -37.576413138992798 ], [ 144.727395709033971, -37.576341604158792 ], [ 144.727686928579033, -37.576298405819983 ], [ 144.727980980000012, -37.57628396 ], [ 144.728275031420992, -37.576298405819983 ], [ 144.728566250966054, -37.576341604158792 ], [ 144.728851834031786, -37.576413138992798 ], [ 144.729129030297116, -37.576512321402461 ], [ 144.729395170210495, -37.57663819620695 ], [ 144.729647690699068, -37.576789551163088 ], [ 144.729884159852503, -37.57696492863991 ], [ 144.73010230034356, -37.577162639656436 ], [ 144.7303000113601, -37.577380780147507 ], [ 144.730475388836908, -37.577617249300943 ], [ 144.9197394, -37.67999742 ], [ 145.016045119702909, -37.66307911140246 ], [ 145.016322315968239, -37.662979928992797 ], [ 145.016607899033971, -37.662908394158791 ], [ 145.016899118579033, -37.662865195819982 ], [ 145.017193170000013, -37.66285075 ], [ 145.017487221420993, -37.662865195819982 ], [ 145.01763405142097, -37.662885685819987 ], [ 145.017925270966032, -37.662928884158795 ], [ 145.018210854031764, -37.663000418992802 ], [ 145.018488050297094, -37.663099601402465 ], [ 145.018754190210473, -37.663225476206954 ], [ 145.019006710699045, -37.663376831163092 ], [ 145.019243179852481, -37.663552208639913 ], [ 145.019461320343538, -37.663749919656439 ], [ 145.019659031360078, -37.663968060147511 ], [ 145.019834408836886, -37.664204529300946 ], [ 145.019985763793045, -37.664457049789526 ], [ 145.020111638597513, -37.664723189702904 ], [ 145.020210821007197, -37.665000385968241 ], [ 145.020282355841204, -37.665285969033953 ], [ 145.228985978579033, -37.812698335819988 ], [ 145.250281779033969, -37.808774384158795 ], [ 145.250572998579031, -37.808731185819987 ], [ 145.250867050000011, -37.80871674 ], [ 145.25116110142099, -37.808731185819987 ], [ 145.251452320966052, -37.808774384158795 ], [ 145.251737904031785, -37.808845918992802 ], [ 145.252015100297115, -37.808945101402465 ], [ 145.252281240210493, -37.809070976206954 ], [ 145.252533760699066, -37.809222331163092 ], [ 145.252770229852501, -37.809397708639914 ], [ 145.252988370343559, -37.809595419656439 ], [ 145.253186081360099, -37.809813560147511 ], [ 145.253361458836906, -37.810050029300946 ], [ 145.253512813793066, -37.810302549789526 ], [ 145.27078215379305, -37.840315849789526 ], [ 145.270908028597518, -37.840581989702905 ], [ 145.271007211007202, -37.840859185968242 ], [ 145.271049491007204, -37.840994985968237 ], [ 145.271121025841211, -37.841280569033948 ], [ 145.271164224180012, -37.84157178857901 ], [ 145.271178669999983, -37.84186584 ], [ 145.271164224180012, -37.842159891420984 ], [ 145.271121025841211, -37.842451110966046 ], [ 145.271049491007204, -37.842736694031757 ], [ 145.27095030859752, -37.843013890297094 ], [ 145.270824433793052, -37.843280030210472 ], [ 145.270673078836893, -37.843532550699052 ], [ 145.270497701360085, -37.843769019852488 ], [ 145.270299990343545, -37.843987160343559 ], [ 145.089468470343547, -38.008446860343561 ], [ 145.08925032985249, -38.008644571360087 ], [ 145.089013860699055, -38.008819948836909 ], [ 145.088761340210482, -38.008971303793047 ], [ 145.088495200297103, -38.009097178597536 ], [ 145.088218004031773, -38.009196361007199 ], [ 145.087932420966041, -38.009267895841205 ], [ 145.087641201420979, -38.009311094180013 ], [ 145.08734715, -38.00932554 ], [ 145.08705309857902, -38.009311094180013 ], [ 145.086761879033958, -38.009267895841205 ], [ 145.086476295968225, -38.009196361007199 ], [ 145.086199099702895, -38.009097178597536 ], [ 145.085932959789517, -38.008971303793047 ], [ 145.085680439300944, -38.008819948836909 ], [ 145.085443970147509, -38.008644571360087 ], [ 145.003147169789514, -37.952975943793049 ], [ 145.002894649300941, -37.952824588836911 ], [ 145.002658180147506, -37.95264921136009 ], [ 145.002440039656449, -37.952451500343564 ], [ 144.82914591857903, -37.870138384180017 ], [ 144.701895090297114, -37.886151888597539 ], [ 144.701617894031784, -37.886251071007202 ], [ 144.66230091021049, -37.902145363793046 ], [ 144.662034770297112, -37.902271238597535 ], [ 144.661757574031782, -37.902370421007198 ], [ 144.661471990966049, -37.902441955841205 ], [ 144.661180771420987, -37.902485154180013 ], [ 144.66088672, -37.9024996 ], [ 144.660592668579028, -37.902485154180013 ], [ 144.660301449033966, -37.902441955841205 ], [ 144.660015865968234, -37.902370421007198 ], [ 144.659738669702904, -37.902271238597535 ], [ 144.659472529789525, -37.902145363793046 ], [ 144.659220009300952, -37.901994008836908 ], [ 144.658983540147517, -37.901818631360086 ], [ 144.65876539965646, -37.901620920343561 ], [ 144.65856768863992, -37.901402779852489 ], [ 144.658392311163112, -37.901166310699054 ], [ 144.658240956206953, -37.900913790210474 ], [ 144.658115081402485, -37.900647650297095 ], [ 144.658015898992801, -37.900370454031759 ], [ 144.657944364158794, -37.900084870966047 ], [ 144.657901165819993, -37.899793651420985 ], [ 144.657886720000022, -37.8994996 ], [ 144.657901165819993, -37.899205548579012 ], [ 144.657944364158794, -37.89891432903395 ], [ 144.658015898992801, -37.898628745968239 ], [ 144.658115081402485, -37.898351549702902 ], [ 144.658240956206953, -37.898085409789523 ], [ 144.658392311163112, -37.897832889300943 ], [ 144.65856768863992, -37.897596420147508 ], [ 144.65876539965646, -37.897378279656436 ], [ 144.658983540147517, -37.897180568639911 ], [ 144.659220009300952, -37.897005191163089 ], [ 144.659472529789525, -37.896853836206951 ], [ 144.659703819789513, -37.896732286206955 ], [ 144.659969959702892, -37.896606411402466 ], [ 144.660247155968221, -37.896507228992803 ], [ 144.699332849789528, -37.880734486206954 ], [ 144.699598989702906, -37.880608611402465 ], [ 144.700520049702902, -37.880239121402461 ], [ 144.700797245968232, -37.880139938992798 ], [ 144.701082829033965, -37.880068404158791 ], [ 144.821736208992803, -37.776590925968243 ], [ 144.72678915596822, -37.582283771007198 ], [ 144.72651195970289, -37.582184588597535 ], [ 144.726245819789511, -37.582058713793046 ], [ 144.725993299300939, -37.581907358836908 ], [ 144.725756830147503, -37.581731981360086 ], [ 144.725538689656446, -37.58153427034356 ], [ 144.725340978639906, -37.581316129852489 ], [ 144.725165601163098, -37.581079660699054 ], [ 144.725014246206939, -37.580827140210474 ], [ 144.724888371402471, -37.580561000297095 ], [ 144.724789188992787, -37.580283804031758 ], [ 144.724717654158781, -37.579998220966047 ], [ 144.724674455819979, -37.579707001420985 ], [ 144.72466001, -37.57941295 ], [ 144.724674455819979, -37.579118898579011 ], [ 144.724717654158781, -37.578827679033949 ], [ 144.724789188992787, -37.578542095968238 ], [ 144.724888371402471, -37.578264899702901 ], [ 144.725014246206939, -37.577998759789523 ], [ 144.725165601163098, -37.577746239300943 ], [ 144.725340978639906, -37.577509770147508 ] ] ] } },
{ "type": "Feature", "properties": { "MODE": "METRO TRAIN", "transit_time_minutes_nearest_tier": 30.0, "centre": "southern-cross", "centre_name": "Southern Cross" }, "geometry": { "type": "Polygon", "coordinates": [ [ [ 144.757964548639904, -37.864800900147507 ], [ 144.758162259656444, -37.864582759656436 ], [ 144.758380400147502, -37.86438504863991 ], [ 144.758616869300937, -37.864209671163088 ], [ 144.75886938978951, -37.86405831620695 ], [ 144.861041760147515, -37.796931868639909 ], [ 144.918676949656458, -37.745239249656436 ], [ 144.918895090147515, -37.74504153863991 ], [ 144.919131559300951, -37.744866161163088 ], [ 144.919384079789523, -37.74471480620695 ], [ 144.919650219702902, -37.744588931402461 ], [ 144.919927415968232, -37.744489748992798 ], [ 144.920212999033964, -37.744418214158792 ], [ 144.920504218579026, -37.744375015819983 ], [ 144.92079827, -37.74436057 ], [ 145.00015503, -37.74256212 ], [ 145.000449081420982, -37.742576565819988 ], [ 145.000740300966044, -37.742619764158796 ], [ 145.001025884031776, -37.742691298992803 ], [ 145.001303080297106, -37.742790481402466 ], [ 145.001569220210484, -37.742916356206955 ], [ 145.046839380210486, -37.766250976206955 ], [ 145.151161590297107, -37.817299111402463 ], [ 145.151427730210486, -37.817424986206952 ], [ 145.151680250699059, -37.81757634116309 ], [ 145.151916719852494, -37.817751718639911 ], [ 145.152134860343551, -37.817949429656437 ], [ 145.152332571360091, -37.818167570147509 ], [ 145.152507948836899, -37.818404039300944 ], [ 145.152659303793058, -37.818656559789524 ], [ 145.152785178597526, -37.818922699702902 ], [ 145.152838808597522, -37.819049709702902 ], [ 145.152937991007207, -37.819326905968239 ], [ 145.153009525841213, -37.81961248903395 ], [ 145.153052724180014, -37.819903708579012 ], [ 145.153067169999986, -37.82019776 ], [ 145.153052724180014, -37.820491811420986 ], [ 145.153009525841213, -37.820783030966048 ], [ 145.152937991007207, -37.821068614031759 ], [ 145.152838808597522, -37.821345810297096 ], [ 145.152712933793055, -37.821611950210475 ], [ 145.152561578836895, -37.821864470699055 ], [ 145.152386201360088, -37.82210093985249 ], [ 145.152188490343548, -37.822319080343561 ], [ 145.15197034985249, -37.822516791360087 ], [ 145.151733880699055, -37.822692168836909 ], [ 145.151481360210482, -37.822843523793047 ], [ 145.04393897021049, -37.880105223793045 ], [ 145.043672830297112, -37.880231098597534 ], [ 145.043395634031782, -37.880330281007197 ], [ 145.04311005096605, -37.880401815841203 ], [ 145.001765480966043, -37.888186895841208 ], [ 145.001474261420981, -37.888230094180017 ], [ 145.00118021, -37.88824454 ], [ 145.000886158579021, -37.888230094180017 ], [ 145.000594939033959, -37.888186895841208 ], [ 145.000309355968227, -37.888115361007202 ], [ 144.90502925857902, -37.870738474180015 ], [ 144.841251781420993, -37.870827864180015 ], [ 144.840957730000014, -37.87084231 ], [ 144.76028358, -37.86970408 ], [ 144.759989528579013, -37.869689634180013 ], [ 144.759698309033951, -37.869646435841204 ], [ 144.759412725968218, -37.869574901007198 ], [ 144.759135529702888, -37.869475718597535 ], [ 144.75886938978951, -37.869349843793046 ], [ 144.758616869300937, -37.869198488836908 ], [ 144.758380400147502, -37.869023111360086 ], [ 144.758162259656444, -37.86882540034356 ], [ 144.757964548639904, -37.868607259852489 ], [ 144.757789171163097, -37.868370790699053 ], [ 144.757637816206937, -37.868118270210473 ], [ 144.75751194140247, -37.867852130297095 ], [ 144.757412758992785, -37.867574934031758 ], [ 144.757341224158779, -37.867289350966047 ], [ 144.757298025819978, -37.866998131420985 ], [ 144.75728358, -37.86670408 ], [ 144.757298025819978, -37.866410028579011 ], [ 144.757341224158779, -37.866118809033949 ], [ 144.757412758992785, -37.865833225968238 ], [ 144.75751194140247, -37.865556029702901 ], [ 144.757637816206937, -37.865289889789523 ], [ 144.757789171163097, -37.865037369300943 ], [ 144.757964548639904, -37.864800900147507 ] ] ] } },
{ "type": "Feature", "properties": { "MODE": "METRO TRAIN", "transit_time_minutes_nearest_tier": 15.0, "centre": "southern-cross", "centre_name": "Southern Cross" }, "geometry": { "type": "Polygon", "coordinates": [ [ [ 144.899701028639925, -37.799510250147506 ], [ 144.899898739656464, -37.799292109656434 ], [ 144.900116880147522, -37.799094398639909 ], [ 144.900353349300957, -37.798919021163087 ], [ 144.900631139300941, -37.798734731163087 ], [ 144.900883659789514, -37.798583376206949 ], [ 144.901149799702893, -37.79845750140246 ], [ 144.901426995968222, -37.798358318992797 ], [ 144.901712579033955, -37.79828678415879 ], [ 144.902003798579017, -37.798243585819982 ], [ 144.924472668579028, -37.796478875819986 ], [ 144.92476672, -37.79646443 ], [ 144.925060771420988, -37.796478875819986 ], [ 144.92576306142098, -37.796545315819984 ], [ 144.926054280966042, -37.796588514158792 ], [ 144.926339864031775, -37.796660048992798 ], [ 144.926617060297104, -37.796759231402461 ], [ 144.926883200210483, -37.79688510620695 ], [ 144.942381024031761, -37.803439018992798 ], [ 144.993037239789516, -37.79651205620695 ], [ 144.993303379702894, -37.796386181402461 ], [ 144.993580575968224, -37.796286998992798 ], [ 144.993866159033956, -37.796215464158792 ], [ 144.994157378579018, -37.796172265819983 ], [ 144.99445143, -37.79615782 ], [ 144.994745481420978, -37.796172265819983 ], [ 144.99503670096604, -37.796215464158792 ], [ 144.995322284031772, -37.796286998992798 ], [ 144.995599480297102, -37.796386181402461 ], [ 144.995865620210481, -37.79651205620695 ], [ 144.996118140699053, -37.796663411163088 ], [ 144.996354609852489, -37.79683878863991 ], [ 144.996572750343546, -37.797036499656436 ], [ 144.996770461360086, -37.797254640147507 ], [ 144.996945838836893, -37.797491109300942 ], [ 144.997097193793053, -37.797743629789522 ], [ 144.997108053793056, -37.797761839789523 ], [ 144.997233928597524, -37.798027979702901 ], [ 144.997333111007208, -37.798305175968238 ], [ 144.997404645841215, -37.798590759033949 ], [ 144.997447844180016, -37.798881978579011 ], [ 144.997462289999987, -37.79917603 ], [ 144.997447844180016, -37.799470081420985 ], [ 144.995171814180026, -37.838209051420989 ], [ 144.995128615841224, -37.838500270966051 ], [ 144.995057081007218, -37.838785854031762 ], [ 144.994957898597534, -37.839063050297099 ], [ 144.994832023793066, -37.839329190210478 ], [ 144.994680668836907, -37.839581710699058 ], [ 144.994505291360099, -37.839818179852493 ], [ 144.994307580343559, -37.840036320343565 ], [ 144.994089439852502, -37.84023403136009 ], [ 144.993852970699066, -37.840409408836912 ], [ 144.993600450210494, -37.84056076379305 ], [ 144.993334310297115, -37.840686638597539 ], [ 144.993057114031785, -37.840785821007202 ], [ 144.992771530966053, -37.840857355841209 ], [ 144.992480311420991, -37.840900554180017 ], [ 144.992186260000011, -37.840915 ], [ 144.991892208579031, -37.840900554180017 ], [ 144.991600989033969, -37.840857355841209 ], [ 144.991315405968237, -37.840785821007202 ], [ 144.991038209702907, -37.840686638597539 ], [ 144.990772069789529, -37.84056076379305 ], [ 144.990519549300956, -37.840409408836912 ], [ 144.951906205968214, -37.821533921007202 ], [ 144.89567157, -37.81200514 ], [ 144.895377518579011, -37.811990694180011 ], [ 144.895086299033949, -37.811947495841203 ], [ 144.895018439033947, -37.811937265841209 ], [ 144.894732855968215, -37.811865731007202 ], [ 144.894455659702885, -37.811766548597539 ], [ 144.894189519789506, -37.81164067379305 ], [ 144.893936999300934, -37.811489318836912 ], [ 144.893700530147498, -37.81131394136009 ], [ 144.893482389656441, -37.811116230343565 ], [ 144.893284678639901, -37.810898089852493 ], [ 144.893109301163094, -37.810661620699058 ], [ 144.892957946206934, -37.810409100210478 ], [ 144.892832071402466, -37.8101429602971 ], [ 144.892732888992782, -37.809865764031763 ], [ 144.892661354158776, -37.809580180966051 ], [ 144.892618155819974, -37.809288961420989 ], [ 144.89260371, -37.80899491 ], [ 144.892618155819974, -37.808700858579016 ], [ 144.892661354158776, -37.808409639033954 ], [ 144.892732888992782, -37.808124055968243 ], [ 144.892832071402466, -37.807846859702906 ], [ 144.892957946206934, -37.807580719789527 ], [ 144.893109301163094, -37.807328199300947 ], [ 144.893284678639901, -37.807091730147512 ], [ 144.899701028639925, -37.799510250147506 ] ] ] } }
]
}
