{
"type": "FeatureCollection",
"name": "commute_mst_regional_train__shepparton",
"crs": { "type": "name", "properties": { "name": "urn:ogc:def:crs:OGC:1.3:CRS84" } },
"features": [
{ "type": "Feature", "properties": { "from_stop": "Shepparton Station", "to_stop": "Mooroopna Railway Station", "minutes": 5.0, "tier": 15, "centre": "shepparton", "MODE": "REGIONAL TRAIN" }, "geometry": { "type": "LineString", "coordinates": [ [ 145.358209776973723, -36.399063874240191 ], [ 145.360463829999986, -36.39888668 ], [ 145.38322061, -36.39703438 ], [ 145.38378649, -36.39698047 ], [ 145.38441422, -36.39687899 ], [ 145.3851142, -36.39670844 ], [ 145.38585448, -36.3964537 ], [ 145.38951841, -36.39509776 ], [ 145.39173931, -36.39427314 ], [ 145.39348537, -36.393634 ], [ 145.394676260000011, -36.39318488 ], [ 145.39566871, -36.39274444 ], [ 145.39655382, -36.39222619 ], [ 145.396841310000013, -36.39202822 ], [ 145.39703838, -36.39187907 ], [ 145.39735478, -36.39161929 ], [ 145.3977593, -36.39123304 ], [ 145.400905490000014, -36.38837333 ], [ 145.40100185, -36.38827916 ], [ 145.40111449, -36.38817926 ], [ 145.4012188, -36.38807816 ], [ 145.40141125, -36.38790838 ], [ 145.40156155, -36.38778789 ], [ 145.40163125, -36.38773816 ], [ 145.40197061, -36.38743378 ], [ 145.40325271, -36.38625158 ], [ 145.40496115, -36.3846906 ], [ 145.40586633, -36.38386967 ], [ 145.40594669, -36.38379439 ] ] } },
{ "type": "Feature", "properties": { "from_stop": "Mooroopna Railway Station", "to_stop": "Mooroopna Station", "minutes": 5.0, "tier": 15, "centre": "shepparton", "MODE": "REGIONAL TRAIN" }, "geometry": { "type": "Point", "coordinates": [ 145.358209776973723, -36.399063874240191 ] } },
{ "type": "Feature", "properties": { "from_stop": "Mooroopna Station", "to_stop": "Murchison East Railway Station", "minutes": 28.0, "tier": 30, "centre": "shepparton", "MODE": "REGIONAL TRAIN" }, "geometry": { "type": "LineString", "coordinates": [ [ 145.240686502938331, -36.613147050368646 ], [ 145.24068075, -36.61281762 ], [ 145.2406875, -36.61212691 ], [ 145.2406705, -36.61158069 ], [ 145.24068076, -36.61128203 ], [ 145.2406944, -36.61102111 ], [ 145.240721079999986, -36.61083582 ], [ 145.24077377, -36.61060332 ], [ 145.24085193, -36.61034722 ], [ 145.2409437, -36.61011196 ], [ 145.24103265, -36.60992209 ], [ 145.241132529999987, -36.60972833 ], [ 145.24132676, -36.60940237 ], [ 145.24143605, -36.60925733 ], [ 145.241574140000012, -36.60908946 ], [ 145.241719429999989, -36.60893432 ], [ 145.24192265, -36.60874884 ], [ 145.24215439, -36.60855332 ], [ 145.24243259, -36.60835966 ], [ 145.24270268, -36.60820347 ], [ 145.243053229999987, -36.60804369 ], [ 145.24331815, -36.60793754 ], [ 145.243546540000011, -36.60785473 ], [ 145.24379366, -36.6077841 ], [ 145.24404001, -36.60771797 ], [ 145.24430562, -36.60766519 ], [ 145.244885579999988, -36.60756971 ], [ 145.24877135, -36.60688902 ], [ 145.252002119999986, -36.60633777 ], [ 145.25548102, -36.60575221 ], [ 145.26328222, -36.60442037 ], [ 145.28469895, -36.60078284 ], [ 145.29385399, -36.59922238 ], [ 145.29436486, -36.59912658 ], [ 145.294694850000013, -36.59905658 ], [ 145.29506774, -36.59896727 ], [ 145.29540834, -36.59887678 ], [ 145.295795950000013, -36.59876379 ], [ 145.29613792, -36.59865177 ], [ 145.29642765, -36.5985463 ], [ 145.29676419, -36.59841708 ], [ 145.29713035, -36.59826204 ], [ 145.29758365, -36.59804876 ], [ 145.29787457, -36.59789923 ], [ 145.298226, -36.59770748 ], [ 145.298656459999989, -36.59744483 ], [ 145.29907752, -36.59716709 ], [ 145.2995899, -36.59678257 ], [ 145.29989828, -36.59652962 ], [ 145.30014911, -36.59630668 ], [ 145.30097122, -36.59551536 ], [ 145.31165305, -36.5850855 ], [ 145.31838765, -36.57859731 ], [ 145.33176572, -36.56545332 ], [ 145.332984649999986, -36.56427151 ], [ 145.333974250000011, -36.56330319 ], [ 145.33414615, -36.56314478 ], [ 145.33496946, -36.56234809 ], [ 145.33597705, -36.56122622 ], [ 145.33639553, -36.56080822 ], [ 145.33683541, -36.56030408 ], [ 145.33714647, -36.5599292 ], [ 145.33757566, -36.55936037 ], [ 145.33819261, -36.55845991 ], [ 145.33861635, -36.55775317 ], [ 145.33899722000001, -36.55705512 ], [ 145.33923855, -36.55655964 ], [ 145.33943166, -36.5561092 ], [ 145.33976195, -36.55527784 ], [ 145.34004275, -36.55444138 ], [ 145.34053549, -36.55277353 ], [ 145.341035080000012, -36.55018869 ], [ 145.34285266, -36.53904957 ], [ 145.34372334, -36.53398893 ], [ 145.34386884, -36.53235671 ], [ 145.34384968, -36.53104012 ], [ 145.34372498, -36.52975416 ], [ 145.34350919, -36.52767496 ], [ 145.34342806, -36.52711677 ], [ 145.34118695, -36.51128849 ], [ 145.340652260000013, -36.50692807 ], [ 145.33887925, -36.49387373 ], [ 145.33860035, -36.49183708 ], [ 145.33837778, -36.49044014 ], [ 145.33836699, -36.49021364 ], [ 145.338365970000012, -36.49013629 ], [ 145.33802877, -36.48770959 ], [ 145.33760912, -36.48457694 ], [ 145.33685448, -36.47910181 ], [ 145.33668818000001, -36.47739366 ], [ 145.33661851, -36.47609971 ], [ 145.33661848, -36.46931839 ], [ 145.33662378, -36.46452116 ], [ 145.33662376, -36.45382986 ], [ 145.33662919, -36.44951073 ], [ 145.33661851, -36.44649436 ], [ 145.33664535, -36.44249407 ], [ 145.33664533000001, -36.43894673 ], [ 145.33663465, -36.4336038 ], [ 145.33669899, -36.43186452 ], [ 145.33686519, -36.43064731 ], [ 145.33713884, -36.42966326 ], [ 145.33740715, -36.42885617 ], [ 145.33770746, -36.42812236 ], [ 145.3380186, -36.42751382 ], [ 145.34118895, -36.42187232 ], [ 145.34376928, -36.41729216 ], [ 145.34549119, -36.41424878 ], [ 145.34702015, -36.41149448 ], [ 145.34911222, -36.40782048 ], [ 145.35092543, -36.40457383 ], [ 145.351193239999986, -36.40412718 ], [ 145.35265413, -36.40155621 ], [ 145.35290623, -36.40110834 ], [ 145.353140880000012, -36.40070999 ], [ 145.353300460000014, -36.40048756 ], [ 145.353425249999987, -36.40033388 ], [ 145.35361426, -36.4001379 ], [ 145.35383825, -36.39994889 ], [ 145.35411045, -36.39975794 ], [ 145.35440159, -36.39959916 ], [ 145.35468857, -36.39947403 ], [ 145.35502922, -36.39936821 ], [ 145.355463719999989, -36.39927972 ], [ 145.355963910000014, -36.39923334 ], [ 145.35673913, -36.3991782 ], [ 145.35820805, -36.39906401 ], [ 145.358209776973723, -36.399063874240191 ] ] } },
{ "type": "Feature", "properties": { "from_stop": "Mooroopna Railway Station", "to_stop": "Murchison East Station", "minutes": 28.0, "tier": 30, "centre": "shepparton", "MODE": "REGIONAL TRAIN" }, "geometry": { "type": "LineString", "coordinates": [ [ 145.358209776973723, -36.399063874240191 ], [ 145.35820805, -36.39906401 ], [ 145.35673913, -36.3991782 ], [ 145.355963910000014, -36.39923334 ], [ 145.355463719999989, -36.39927972 ], [ 145.35502922, -36.39936821 ], [ 145.35468857, -36.39947403 ], [ 145.35440159, -36.39959916 ], [ 145.35411045, -36.39975794 ], [ 145.35383825, -36.39994889 ], [ 145.35361426, -36.4001379 ], [ 145.353425249999987, -36.40033388 ], [ 145.353300460000014, -36.40048756 ], [ 145.353140880000012, -36.40070999 ], [ 145.35290623, -36.40110834 ], [ 145.35265413, -36.40155621 ], [ 145.351193239999986, -36.40412718 ], [ 145.35092543, -36.40457383 ], [ 145.34911222, -36.40782048 ], [ 145.34702015, -36.41149448 ], [ 145.34549119, -36.41424878 ], [ 145.34376928, -36.41729216 ], [ 145.34118895, -36.42187232 ], [ 145.3380186, -36.42751382 ], [ 145.33770746, -36.42812236 ], [ 145.33740715, -36.42885617 ], [ 145.33713884, -36.42966326 ], [ 145.33686519, -36.43064731 ], [ 145.33669899, -36.43186452 ], [ 145.33663465, -36.4336038 ], [ 145.33664533000001, -36.43894673 ], [ 145.33664535, -36.44249407 ], [ 145.33661851, -36.44649436 ], [ 145.33662919, -36.44951073 ], [ 145.33662376, -36.45382986 ], [ 145.33662378, -36.46452116 ], [ 145.33661848, -36.46931839 ], [ 145.33661851, -36.47609971 ], [ 145.33668818000001, -36.47739366 ], [ 145.33685448, -36.47910181 ], [ 145.33760912, -36.48457694 ], [ 145.33802877, -36.48770959 ], [ 145.338365970000012, -36.49013629 ], [ 145.33836699, -36.49021364 ], [ 145.33837778, -36.49044014 ], [ 145.33860035, -36.49183708 ], [ 145.33887925, -36.49387373 ], [ 145.340652260000013, -36.50692807 ], [ 145.34118695, -36.51128849 ], [ 145.34342806, -36.52711677 ], [ 145.34350919, -36.52767496 ], [ 145.34372498, -36.52975416 ], [ 145.34384968, -36.53104012 ], [ 145.34386884, -36.53235671 ], [ 145.34372334, -36.53398893 ], [ 145.34285266, -36.53904957 ], [ 145.341035080000012, -36.55018869 ], [ 145.34053549, -36.55277353 ], [ 145.34004275, -36.55444138 ], [ 145.33976195, -36.55527784 ], [ 145.33943166, -36.5561092 ], [ 145.33923855, -36.55655964 ], [ 145.33899722000001, -36.55705512 ], [ 145.33861635, -36.55775317 ], [ 145.33819261, -36.55845991 ], [ 145.33757566, -36.55936037 ], [ 145.33714647, -36.5599292 ], [ 145.33683541, -36.56030408 ], [ 145.33639553, -36.56080822 ], [ 145.33597705, -36.56122622 ], [ 145.33496946, -36.56234809 ], [ 145.33414615, -36.56314478 ], [ 145.333974250000011, -36.56330319 ], [ 145.332984649999986, -36.56427151 ], [ 145.33176572, -36.56545332 ], [ 145.31838765, -36.57859731 ], [ 145.31165305, -36.5850855 ], [ 145.30097122, -36.59551536 ], [ 145.30014911, -36.59630668 ], [ 145.29989828, -36.59652962 ], [ 145.2995899, -36.59678257 ], [ 145.29907752, -36.59716709 ], [ 145.298656459999989, -36.59744483 ], [ 145.298226, -36.59770748 ], [ 145.29787457, -36.59789923 ], [ 145.29758365, -36.59804876 ], [ 145.29713035, -36.59826204 ], [ 145.29676419, -36.59841708 ], [ 145.29642765, -36.5985463 ], [ 145.29613792, -36.59865177 ], [ 145.295795950000013, -36.59876379 ], [ 145.29540834, -36.59887678 ], [ 145.29506774, -36.59896727 ], [ 145.294694850000013, -36.59905658 ], [ 145.29436486, -36.59912658 ], [ 145.29385399, -36.59922238 ], [ 145.28469895, -36.60078284 ], [ 145.26328222, -36.60442037 ], [ 145.25548102, -36.60575221 ], [ 145.252002119999986, -36.60633777 ], [ 145.24877135, -36.60688902 ], [ 145.244885579999988, -36.60756971 ], [ 145.24430562, -36.60766519 ], [ 145.24404001, -36.60771797 ], [ 145.24379366, -36.6077841 ], [ 145.243546540000011, -36.60785473 ], [ 145.24331815, -36.60793754 ], [ 145.243053229999987, -36.60804369 ], [ 145.24270268, -36.60820347 ], [ 145.24243259, -36.60835966 ], [ 145.24215439, -36.60855332 ], [ 145.24192265, -36.60874884 ], [ 145.241719429999989, -36.60893432 ], [ 145.241574140000012, -36.60908946 ], [ 145.24143605, -36.60925733 ], [ 145.24132676, -36.60940237 ], [ 145.241132529999987, -36.60972833 ], [ 145.24103265, -36.60992209 ], [ 145.2409437, -36.61011196 ], [ 145.24085193, -36.61034722 ], [ 145.24077377, -36.61060332 ], [ 145.240721079999986, -36.61083582 ], [ 145.2406944, -36.61102111 ], [ 145.24068076, -36.61128203 ], [ 145.2406705, -36.61158069 ], [ 145.2406875, -36.61212691 ], [ 145.24068075, -36.61281762 ], [ 145.240686502938331, -36.613147050368646 ] ] } },
{ "type": "Feature", "properties": { "from_stop": "Murchison East Railway Station", "to_stop": "Nagambie Railway Station", "minutes": 28.0, "tier": 30, "centre": "shepparton", "MODE": "REGIONAL TRAIN" }, "geometry": { "type": "LineString", "coordinates": [ [ 145.240686502938331, -36.613147050368646 ], [ 145.24068653, -36.6131486 ], [ 145.24069011, -36.6133502 ], [ 145.24068431, -36.61360061 ], [ 145.240673930000014, -36.6142984 ], [ 145.24068281000001, -36.61448854 ], [ 145.24068736000001, -36.61486872 ], [ 145.240706890000013, -36.61530852 ], [ 145.240715419999987, -36.6155777 ], [ 145.24070304, -36.61631404 ], [ 145.24069789, -36.61704741 ], [ 145.24067462, -36.61777637 ], [ 145.24070136, -36.6237382 ], [ 145.24070082, -36.62715612 ], [ 145.24067765, -36.64189101 ], [ 145.24063967, -36.65927676 ], [ 145.240645230000013, -36.66558851 ], [ 145.24061405, -36.6722006 ], [ 145.24057758, -36.67592956 ], [ 145.24056536, -36.67683932 ], [ 145.24053695, -36.67737404 ], [ 145.24050845, -36.67766746 ], [ 145.240467779999989, -36.67797396 ], [ 145.24041086, -36.67830653 ], [ 145.24035403, -36.67854131 ], [ 145.2402808, -36.67881839 ], [ 145.2402117, -36.67904668 ], [ 145.24009905, -36.67936924 ], [ 145.23996358, -36.67967631 ], [ 145.23982761, -36.68002007 ], [ 145.23973526, -36.6802079 ], [ 145.239655410000012, -36.68035797 ], [ 145.23945924, -36.68070633 ], [ 145.239376099999987, -36.68084833 ], [ 145.23927101000001, -36.68100559 ], [ 145.23917992, -36.68114793 ], [ 145.23904919, -36.68133519 ], [ 145.238150170000011, -36.6825052 ], [ 145.23705037, -36.68390443 ], [ 145.23466165, -36.68695648 ], [ 145.23341717, -36.68853497 ], [ 145.230324919999987, -36.69247641 ], [ 145.228718249999986, -36.69461723 ], [ 145.224028440000012, -36.70056233 ], [ 145.220124559999988, -36.70554056 ], [ 145.21816596, -36.70807716 ], [ 145.21790879, -36.70837382 ], [ 145.2171132, -36.7094046 ], [ 145.21645505, -36.710223 ], [ 145.21619225, -36.71055419 ], [ 145.213592119999987, -36.71389313 ], [ 145.205208090000013, -36.7245968 ], [ 145.20041355, -36.73068642 ], [ 145.195315779999987, -36.73722903 ], [ 145.18962793, -36.74440401 ], [ 145.183551920000014, -36.75212881 ], [ 145.182173479999989, -36.75391018 ], [ 145.181430189999986, -36.75482928 ], [ 145.18048697, -36.75606431 ], [ 145.179072209999987, -36.75783112 ], [ 145.178454460000012, -36.75863937 ], [ 145.17738474, -36.75998483 ], [ 145.175202750000011, -36.76274636 ], [ 145.16654705, -36.77376759 ], [ 145.161773860000011, -36.77981296 ], [ 145.16157138, -36.78006644 ], [ 145.161381049999989, -36.7803504 ], [ 145.16122725, -36.78059219 ], [ 145.161076290000011, -36.78085612 ], [ 145.160959850000012, -36.78109561 ], [ 145.16083685000001, -36.78139457 ], [ 145.16073535000001, -36.78174507 ], [ 145.16065224, -36.7821091 ], [ 145.160595550000011, -36.78244163 ], [ 145.16056129, -36.78274503 ], [ 145.16053262, -36.78308674 ], [ 145.16049263, -36.78392013 ], [ 145.160506412945779, -36.785462762003164 ] ] } },
{ "type": "Feature", "properties": { "from_stop": "Murchison East Station", "to_stop": "Nagambie Station", "minutes": 28.0, "tier": 30, "centre": "shepparton", "MODE": "REGIONAL TRAIN" }, "geometry": { "type": "LineString", "coordinates": [ [ 145.160506412945779, -36.785462762003164 ], [ 145.16049263, -36.78392013 ], [ 145.16053262, -36.78308674 ], [ 145.16056129, -36.78274503 ], [ 145.160595550000011, -36.78244163 ], [ 145.16065224, -36.7821091 ], [ 145.16073535000001, -36.78174507 ], [ 145.16083685000001, -36.78139457 ], [ 145.160959850000012, -36.78109561 ], [ 145.161076290000011, -36.78085612 ], [ 145.16122725, -36.78059219 ], [ 145.161381049999989, -36.7803504 ], [ 145.16157138, -36.78006644 ], [ 145.161773860000011, -36.77981296 ], [ 145.16654705, -36.77376759 ], [ 145.175202750000011, -36.76274636 ], [ 145.17738474, -36.75998483 ], [ 145.178454460000012, -36.75863937 ], [ 145.179072209999987, -36.75783112 ], [ 145.18048697, -36.75606431 ], [ 145.181430189999986, -36.75482928 ], [ 145.182173479999989, -36.75391018 ], [ 145.183551920000014, -36.75212881 ], [ 145.18962793, -36.74440401 ], [ 145.195315779999987, -36.73722903 ], [ 145.20041355, -36.73068642 ], [ 145.205208090000013, -36.7245968 ], [ 145.213592119999987, -36.71389313 ], [ 145.21619225, -36.71055419 ], [ 145.21645505, -36.710223 ], [ 145.2171132, -36.7094046 ], [ 145.21790879, -36.70837382 ], [ 145.21816596, -36.70807716 ], [ 145.220124559999988, -36.70554056 ], [ 145.224028440000012, -36.70056233 ], [ 145.228718249999986, -36.69461723 ], [ 145.230324919999987, -36.69247641 ], [ 145.23341717, -36.68853497 ], [ 145.23466165, -36.68695648 ], [ 145.23705037, -36.68390443 ], [ 145.238150170000011, -36.6825052 ], [ 145.23904919, -36.68133519 ], [ 145.23917992, -36.68114793 ], [ 145.23927101000001, -36.68100559 ], [ 145.239376099999987, -36.68084833 ], [ 145.23945924, -36.68070633 ], [ 145.239655410000012, -36.68035797 ], [ 145.23973526, -36.6802079 ], [ 145.23982761, -36.68002007 ], [ 145.23996358, -36.67967631 ], [ 145.24009905, -36.67936924 ], [ 145.2402117, -36.67904668 ], [ 145.2402808, -36.67881839 ], [ 145.24035403, -36.67854131 ], [ 145.24041086, -36.67830653 ], [ 145.240467779999989, -36.67797396 ], [ 145.24050845, -36.67766746 ], [ 145.24053695, -36.67737404 ], [ 145.24056536, -36.67683932 ], [ 145.24057758, -36.67592956 ], [ 145.24061405, -36.6722006 ], [ 145.240645230000013, -36.66558851 ], [ 145.24063967, -36.65927676 ], [ 145.24067765, -36.64189101 ], [ 145.24070082, -36.62715612 ], [ 145.24070136, -36.6237382 ], [ 145.24067462, -36.61777637 ], [ 145.24069789, -36.61704741 ], [ 145.24070304, -36.61631404 ], [ 145.240715419999987, -36.6155777 ], [ 145.240706890000013, -36.61530852 ], [ 145.24068736000001, -36.61486872 ], [ 145.24068281000001, -36.61448854 ], [ 145.240673930000014, -36.6142984 ], [ 145.24068431, -36.61360061 ], [ 145.24069011, -36.6133502 ], [ 145.24068653, -36.6131486 ], [ 145.240686502938331, -36.613147050368646 ] ] } },
{ "type": "Feature", "properties": { "from_stop": "Shepparton Station", "to_stop": "Shepparton Railway Station", "minutes": 0.3, "tier": 15, "centre": "shepparton", "MODE": "REGIONAL TRAIN" }, "geometry": { "type": "Point", "coordinates": [ 145.40594669, -36.38379439 ] } }
]
}
