{
"type": "FeatureCollection",
"name": "commute_hulls_regional_train__bendigo",
"crs": { "type": "name", "properties": { "name": "urn:ogc:def:crs:OGC:1.3:CRS84" } },
"features": [
{ "type": "Feature", "properties": { "MODE": "REGIONAL TRAIN", "transit_time_minutes_nearest_tier": 60.0, "centre": "bendigo", "centre_name": "Bendigo" }, "geometry": { "type": "Polygon", "coordinates": [ [ [ 144.228625931163094, -36.367566199300946 ], [ 144.228801308639902, -36.36732973014751 ], [ 144.228999019656442, -36.367111589656439 ], [ 144.229217160147499, -36.366913878639913 ], [ 144.229453629300934, -36.366738501163091 ], [ 144.229706149789507, -36.366587146206953 ], [ 144.229972289702886, -36.366461271402464 ], [ 144.230249485968216, -36.366362088992801 ], [ 144.230535069033948, -36.366290554158795 ], [ 144.23082628857901, -36.366247355819986 ], [ 144.23112034, -36.36623291 ], [ 144.698505, -36.35929401 ], [ 144.698799051420991, -36.359308455819985 ], [ 144.699090270966053, -36.359351654158793 ], [ 144.699375854031786, -36.3594231889928 ], [ 144.699653050297115, -36.359522371402463 ], [ 144.699829390297111, -36.359588861402464 ], [ 144.70009553021049, -36.359714736206953 ], [ 144.700348050699063, -36.359866091163092 ], [ 144.700584519852498, -36.360041468639913 ], [ 144.700802660343555, -36.360239179656439 ], [ 144.701000371360095, -36.360457320147511 ], [ 144.701175748836903, -36.360693789300946 ], [ 144.701327103793062, -36.360946309789526 ], [ 144.70145297859753, -36.361212449702904 ], [ 144.701552161007214, -36.361489645968241 ], [ 144.701623695841221, -36.361775229033952 ], [ 144.701666894180022, -36.362066448579014 ], [ 144.70168134, -36.3623605 ], [ 144.701666894180022, -36.362654551420988 ], [ 144.701623695841221, -36.36294577096605 ], [ 144.701552161007214, -36.363231354031761 ], [ 144.70145297859753, -36.363508550297098 ], [ 144.701327103793062, -36.363774690210477 ], [ 144.701175748836903, -36.364027210699057 ], [ 144.701000371360095, -36.364263679852492 ], [ 144.610403283793062, -36.496434210210474 ], [ 144.610251928836902, -36.496686730699054 ], [ 144.610076551360095, -36.496923199852489 ], [ 144.609878840343555, -36.497141340343561 ], [ 144.507054188836889, -36.616467170699053 ], [ 144.506878811360082, -36.616703639852489 ], [ 144.506681100343542, -36.61692178034356 ], [ 144.453296048836904, -37.256697559300946 ], [ 144.453447403793064, -37.256950079789526 ], [ 144.528011440343562, -37.356677269656437 ], [ 144.528209151360102, -37.356895410147509 ], [ 144.528384528836909, -37.357131879300944 ], [ 144.528535883793069, -37.357384399789524 ], [ 144.528824523793048, -37.357877069789524 ], [ 144.56389125883689, -37.421906599300947 ], [ 144.564042613793049, -37.422159119789526 ], [ 144.564168488597517, -37.422425259702905 ], [ 144.564267671007201, -37.422702455968242 ], [ 144.564339205841208, -37.422988039033953 ], [ 144.564382404180009, -37.423279258579015 ], [ 144.56439684999998, -37.42357331 ], [ 144.564382404180009, -37.423867361420989 ], [ 144.564339205841208, -37.424158580966051 ], [ 144.564267671007201, -37.424444164031762 ], [ 144.564168488597517, -37.424721360297099 ], [ 144.564042613793049, -37.424987500210477 ], [ 144.56389125883689, -37.425240020699057 ], [ 144.563715881360082, -37.425476489852493 ], [ 144.563518170343542, -37.425694630343564 ], [ 144.563300029852485, -37.42589234136009 ], [ 144.56306356069905, -37.426067718836912 ], [ 144.562925140699065, -37.426154978836912 ], [ 144.562672620210492, -37.42630633379305 ], [ 144.562406480297113, -37.426432208597539 ], [ 144.562129284031784, -37.426531391007202 ], [ 144.561843700966051, -37.426602925841209 ], [ 144.561552481420989, -37.426646124180017 ], [ 144.56125843, -37.42666057 ], [ 144.56096437857903, -37.426646124180017 ], [ 144.560673159033968, -37.426602925841209 ], [ 144.560387575968235, -37.426531391007202 ], [ 144.560110379702905, -37.426432208597539 ], [ 144.559844239789527, -37.42630633379305 ], [ 144.559591719300954, -37.426154978836912 ], [ 144.559355250147519, -37.42597960136009 ], [ 144.559137109656461, -37.425781890343565 ], [ 144.211822109656453, -37.06500722034356 ], [ 144.211624398639913, -37.064789079852488 ], [ 144.211449021163105, -37.064552610699053 ], [ 144.211297666206946, -37.064300090210473 ], [ 144.211171791402478, -37.064033950297095 ], [ 144.211072608992794, -37.063756754031758 ], [ 144.211001074158787, -37.063471170966046 ], [ 144.210957875819986, -37.063179951420985 ], [ 144.210943430000015, -37.0628859 ], [ 144.19816104, -36.53195927 ], [ 144.198175485819974, -36.531665218579015 ], [ 144.198218684158775, -36.531373999033953 ], [ 144.228177984158776, -36.368647639033952 ], [ 144.228249518992783, -36.368362055968241 ], [ 144.228348701402467, -36.368084859702904 ], [ 144.228474576206935, -36.367818719789526 ], [ 144.228625931163094, -36.367566199300946 ] ] ] } },
{ "type": "Feature", "properties": { "MODE": "REGIONAL TRAIN", "transit_time_minutes_nearest_tier": 45.0, "centre": "bendigo", "centre_name": "Bendigo" }, "geometry": { "type": "Polygon", "coordinates": [ [ [ 144.245885491163108, -36.716858679300948 ], [ 144.246060868639915, -36.716622210147513 ], [ 144.246258579656455, -36.716404069656441 ], [ 144.246476720147513, -36.716206358639916 ], [ 144.246713189300948, -36.716030981163094 ], [ 144.246965709789521, -36.715879626206956 ], [ 144.247231849702899, -36.715753751402467 ], [ 144.367110159702889, -36.663618551402465 ], [ 144.5023261197029, -36.612411631402466 ], [ 144.50260331596823, -36.612312448992803 ], [ 144.50368892596822, -36.611929638992798 ], [ 144.503974509033952, -36.611858104158792 ], [ 144.504265728579014, -36.611814905819983 ], [ 144.50455978, -36.61180046 ], [ 144.504853831420974, -36.611814905819983 ], [ 144.505145050966036, -36.611858104158792 ], [ 144.505430634031768, -36.611929638992798 ], [ 144.505707830297098, -36.612028821402461 ], [ 144.505973970210476, -36.61215469620695 ], [ 144.506226490699049, -36.612306051163088 ], [ 144.506462959852485, -36.61248142863991 ], [ 144.506681100343542, -36.612679139656436 ], [ 144.506878811360082, -36.612897280147507 ], [ 144.507054188836889, -36.613133749300943 ], [ 144.507205543793049, -36.613386269789522 ], [ 144.507331418597516, -36.613652409702901 ], [ 144.507430601007201, -36.613929605968238 ], [ 144.507502135841207, -36.614215189033949 ], [ 144.507545334180008, -36.614506408579011 ], [ 144.50755977999998, -36.61480046 ], [ 144.507545334180008, -36.615094511420985 ], [ 144.507502135841207, -36.615385730966047 ], [ 144.507430601007201, -36.615671314031758 ], [ 144.507331418597516, -36.615948510297095 ], [ 144.507205543793049, -36.616214650210473 ], [ 144.507054188836889, -36.616467170699053 ], [ 144.506878811360082, -36.616703639852489 ], [ 144.506681100343542, -36.61692178034356 ], [ 144.506462959852485, -36.617119491360086 ], [ 144.506226490699049, -36.617294868836908 ], [ 144.505973970210476, -36.617446223793046 ], [ 144.505707830297098, -36.617572098597535 ], [ 144.505430634031768, -36.617671281007198 ], [ 144.504345024031778, -36.618054091007203 ], [ 144.504059440966046, -36.618125625841209 ], [ 144.285654693793049, -36.767083920210474 ], [ 144.285503338836889, -36.767336440699054 ], [ 144.285327961360082, -36.76757290985249 ], [ 144.285130250343542, -36.767791050343561 ], [ 144.284912109852485, -36.767988761360087 ], [ 144.216624543793046, -37.061427479789522 ], [ 144.375908440966043, -37.186797964158792 ], [ 144.376194024031776, -37.186869498992799 ], [ 144.376471220297105, -37.186968681402462 ], [ 144.376737360210484, -37.187094556206951 ], [ 144.376989880699057, -37.187245911163089 ], [ 144.377226349852492, -37.187421288639911 ], [ 144.377444490343549, -37.187618999656436 ], [ 144.377642201360089, -37.187837140147508 ], [ 144.377817578836897, -37.188073609300943 ], [ 144.377968933793056, -37.188326129789523 ], [ 144.378094808597524, -37.188592269702902 ], [ 144.378193991007208, -37.188869465968239 ], [ 144.378265525841215, -37.18915504903395 ], [ 144.378308724180016, -37.189446268579012 ], [ 144.378323169999987, -37.18974032 ], [ 144.37832192, -37.18977634 ], [ 144.378307474180019, -37.190070391420988 ], [ 144.378264275841218, -37.19036161096605 ], [ 144.378192741007211, -37.190647194031762 ], [ 144.378093558597527, -37.190924390297099 ], [ 144.377967683793059, -37.191190530210477 ], [ 144.3778163288369, -37.191443050699057 ], [ 144.377640951360092, -37.191679519852492 ], [ 144.377443240343553, -37.191897660343564 ], [ 144.377225099852495, -37.192095371360089 ], [ 144.37698863069906, -37.192270748836911 ], [ 144.376736110210487, -37.192422103793049 ], [ 144.376469970297109, -37.192547978597538 ], [ 144.376192774031779, -37.192647161007201 ], [ 144.375907190966046, -37.192718695841208 ], [ 144.375615971420984, -37.192761894180016 ], [ 144.37532192, -37.19277634 ], [ 144.375027868579025, -37.192761894180016 ], [ 144.374736649033963, -37.192718695841208 ], [ 144.374451065968231, -37.192647161007201 ], [ 144.374173869702901, -37.192547978597538 ], [ 144.373907729789522, -37.192422103793049 ], [ 144.373655209300949, -37.192270748836911 ], [ 144.373418740147514, -37.192095371360089 ], [ 144.21204025014751, -37.065204931360086 ], [ 144.211822109656453, -37.06500722034356 ], [ 144.211624398639913, -37.064789079852488 ], [ 144.211449021163105, -37.064552610699053 ], [ 144.211297666206946, -37.064300090210473 ], [ 144.211171791402478, -37.064033950297095 ], [ 144.211072608992794, -37.063756754031758 ], [ 144.211001074158787, -37.063471170966046 ], [ 144.210957875819986, -37.063179951420985 ], [ 144.210943430000015, -37.0628859 ], [ 144.210957875819986, -37.062591848579011 ], [ 144.245394345819989, -36.718231338579017 ], [ 144.24543754415879, -36.717940119033955 ], [ 144.245509078992797, -36.717654535968244 ], [ 144.245608261402481, -36.717377339702907 ], [ 144.245734136206949, -36.717111199789528 ], [ 144.245885491163108, -36.716858679300948 ] ] ] } },
{ "type": "Feature", "properties": { "MODE": "REGIONAL TRAIN", "transit_time_minutes_nearest_tier": 30.0, "centre": "bendigo", "centre_name": "Bendigo" }, "geometry": { "type": "Polygon", "coordinates": [ [ [ 144.318733568639914, -36.704384630147509 ], [ 144.318931279656454, -36.704166489656437 ], [ 144.319149420147511, -36.703968778639911 ], [ 144.366355030147503, -36.664071158639914 ], [ 144.366591499300938, -36.663895781163092 ], [ 144.366844019789511, -36.663744426206954 ], [ 144.367110159702889, -36.663618551402465 ], [ 144.367387355968219, -36.663519368992802 ], [ 144.368949605968226, -36.662977118992799 ], [ 144.369235189033958, -36.662905584158793 ], [ 144.36952640857902, -36.662862385819984 ], [ 144.36982046, -36.66284794 ], [ 144.370114511420979, -36.662862385819984 ], [ 144.370405730966041, -36.662905584158793 ], [ 144.370691314031774, -36.662977118992799 ], [ 144.370968510297104, -36.663076301402462 ], [ 144.371234650210482, -36.663202176206951 ], [ 144.371487170699055, -36.663353531163089 ], [ 144.37172363985249, -36.663528908639911 ], [ 144.371941780343548, -36.663726619656437 ], [ 144.372139491360088, -36.663944760147508 ], [ 144.372314868836895, -36.664181229300944 ], [ 144.372466223793054, -36.664433749789524 ], [ 144.372592098597522, -36.664699889702902 ], [ 144.372691281007206, -36.664977085968239 ], [ 144.372762815841213, -36.66526266903395 ], [ 144.372806014180014, -36.665553888579012 ], [ 144.372820459999986, -36.66584794 ], [ 144.372806014180014, -36.666141991420986 ], [ 144.372762815841213, -36.666433210966048 ], [ 144.372691281007206, -36.666718794031759 ], [ 144.372592098597522, -36.666995990297096 ], [ 144.372466223793054, -36.667262130210474 ], [ 144.372314868836895, -36.667514650699054 ], [ 144.372139491360088, -36.66775111985249 ], [ 144.371941780343548, -36.667969260343561 ], [ 144.37172363985249, -36.668166971360087 ], [ 144.285503338836889, -36.767336440699054 ], [ 144.285327961360082, -36.76757290985249 ], [ 144.285130250343542, -36.767791050343561 ], [ 144.284912109852485, -36.767988761360087 ], [ 144.284675640699049, -36.768164138836909 ], [ 144.251111480343553, -36.796954960343562 ], [ 144.250893339852496, -36.797152671360088 ], [ 144.250656870699061, -36.79732804883691 ], [ 144.250404350210488, -36.797479403793048 ], [ 144.250138210297109, -36.797605278597537 ], [ 144.249861014031779, -36.7977044610072 ], [ 144.249575430966047, -36.797775995841207 ], [ 144.249284211420985, -36.797819194180015 ], [ 144.24899016, -36.79783364 ], [ 144.24895657, -36.79783286 ], [ 144.24866251857901, -36.797818414180014 ], [ 144.214564050966032, -37.059899314158791 ], [ 144.214849634031765, -37.059970848992798 ], [ 144.215126830297095, -37.060070031402461 ], [ 144.215392970210473, -37.06019590620695 ], [ 144.215645490699046, -37.060347261163088 ], [ 144.215881959852481, -37.06052263863991 ], [ 144.216100100343539, -37.060720349656435 ], [ 144.216297811360079, -37.060938490147507 ], [ 144.216473188836886, -37.061174959300942 ], [ 144.216624543793046, -37.061427479789522 ], [ 144.216750418597513, -37.061693619702901 ], [ 144.216849601007198, -37.061970815968238 ], [ 144.216921135841204, -37.062256399033949 ], [ 144.216964334180005, -37.062547618579011 ], [ 144.216978779999977, -37.06284167 ], [ 144.216964334180005, -37.063135721420984 ], [ 144.216921135841204, -37.063426940966046 ], [ 144.216849601007198, -37.063712524031757 ], [ 144.216750418597513, -37.063989720297094 ], [ 144.216624543793046, -37.064255860210473 ], [ 144.216473188836886, -37.064508380699053 ], [ 144.216297811360079, -37.064744849852488 ], [ 144.216262461360088, -37.064789079852488 ], [ 144.216064750343548, -37.06500722034356 ], [ 144.215846609852491, -37.065204931360086 ], [ 144.215610140699056, -37.065380308836907 ], [ 144.215357620210483, -37.065531663793045 ], [ 144.215091480297104, -37.065657538597534 ], [ 144.214814284031775, -37.065756721007197 ], [ 144.214528700966042, -37.065828255841204 ], [ 144.21423748142098, -37.065871454180012 ], [ 144.21394343, -37.0658859 ], [ 144.213649378579021, -37.065871454180012 ], [ 144.213358159033959, -37.065828255841204 ], [ 144.213072575968226, -37.065756721007197 ], [ 144.212795379702897, -37.065657538597534 ], [ 144.212529239789518, -37.065531663793045 ], [ 144.212276719300945, -37.065380308836907 ], [ 144.21204025014751, -37.065204931360086 ], [ 144.211822109656453, -37.06500722034356 ], [ 144.211624398639913, -37.064789079852488 ], [ 144.211449021163105, -37.064552610699053 ], [ 144.211297666206946, -37.064300090210473 ], [ 144.211171791402478, -37.064033950297095 ], [ 144.211072608992794, -37.063756754031758 ], [ 144.211001074158787, -37.063471170966046 ], [ 144.210957875819986, -37.063179951420985 ], [ 144.210943430000015, -37.0628859 ], [ 144.210957875819986, -37.062591848579011 ], [ 144.211001074158787, -37.062300629033949 ], [ 144.211072608992794, -37.062015045968238 ], [ 144.211171791402478, -37.061737849702901 ], [ 144.211297666206946, -37.061471709789522 ], [ 144.211449021163105, -37.061219189300942 ], [ 144.211624398639913, -37.060982720147507 ], [ 144.211659748639903, -37.060938490147507 ], [ 144.211857459656443, -37.060720349656435 ], [ 144.2120756001475, -37.06052263863991 ], [ 144.212312069300935, -37.060347261163088 ], [ 144.212564589789508, -37.06019590620695 ], [ 144.212830729702887, -37.060070031402461 ], [ 144.213107925968217, -37.059970848992798 ], [ 144.213393509033949, -37.059899314158791 ], [ 144.213684728579011, -37.059856115819983 ], [ 144.21397878, -37.05984167 ], [ 144.214272831420971, -37.059856115819983 ], [ 144.248371299033948, -36.797775215841206 ], [ 144.248085715968216, -36.797703681007199 ], [ 144.247808519702886, -36.797604498597536 ], [ 144.247542379789508, -36.797478623793047 ], [ 144.247289859300935, -36.797327268836909 ], [ 144.247053390147499, -36.797151891360087 ], [ 144.246835249656442, -36.796954180343562 ], [ 144.246637538639902, -36.79673603985249 ], [ 144.246462161163095, -36.796499570699055 ], [ 144.246310806206935, -36.796247050210475 ], [ 144.246184931402468, -36.795980910297097 ], [ 144.246085748992783, -36.79570371403176 ], [ 144.246014214158777, -36.795418130966048 ], [ 144.245971015819975, -36.795126911420986 ], [ 144.24595657, -36.79483286 ], [ 144.245971015819975, -36.794538808579013 ], [ 144.246014214158777, -36.794247589033951 ], [ 144.246085748992783, -36.79396200596824 ], [ 144.246184931402468, -36.793684809702903 ], [ 144.246310806206935, -36.793418669789524 ], [ 144.246462161163095, -36.793166149300944 ], [ 144.246637538639902, -36.792929680147509 ], [ 144.318733568639914, -36.704384630147509 ] ] ] } },
{ "type": "Feature", "properties": { "MODE": "REGIONAL TRAIN", "transit_time_minutes_nearest_tier": 15.0, "centre": "bendigo", "centre_name": "Bendigo" }, "geometry": { "type": "Polygon", "coordinates": [ [ [ 144.246637538639902, -36.792929680147509 ], [ 144.246835249656442, -36.792711539656437 ], [ 144.247053390147499, -36.792513828639912 ], [ 144.247289859300935, -36.79233845116309 ], [ 144.247542379789508, -36.792187096206952 ], [ 144.247808519702886, -36.792061221402463 ], [ 144.248085715968216, -36.7919620389928 ], [ 144.248371299033948, -36.791890504158793 ], [ 144.24866251857901, -36.791847305819985 ], [ 144.24895657, -36.79183286 ], [ 144.24899016, -36.79183364 ], [ 144.249284211420985, -36.791848085819986 ], [ 144.249575430966047, -36.791891284158794 ], [ 144.249861014031779, -36.791962818992801 ], [ 144.250138210297109, -36.792062001402464 ], [ 144.250404350210488, -36.792187876206953 ], [ 144.250656870699061, -36.792339231163091 ], [ 144.250893339852496, -36.792514608639912 ], [ 144.251111480343553, -36.792712319656438 ], [ 144.280535438639902, -36.767506299852492 ], [ 144.280360061163094, -36.767269830699057 ], [ 144.280208706206935, -36.767017310210477 ], [ 144.280082831402467, -36.766751170297098 ], [ 144.279983648992783, -36.766473974031761 ], [ 144.279912114158776, -36.76618839096605 ], [ 144.279868915819975, -36.765897171420988 ], [ 144.27985447, -36.76560312 ], [ 144.279868915819975, -36.765309068579015 ], [ 144.279912114158776, -36.765017849033953 ], [ 144.279983648992783, -36.764732265968242 ], [ 144.280082831402467, -36.764455069702905 ], [ 144.280208706206935, -36.764188929789526 ], [ 144.280360061163094, -36.763936409300946 ], [ 144.280535438639902, -36.763699940147511 ], [ 144.280733149656442, -36.763481799656439 ], [ 144.280951290147499, -36.763284088639914 ], [ 144.281187759300934, -36.763108711163092 ], [ 144.281440279789507, -36.762957356206954 ], [ 144.281706419702886, -36.762831481402465 ], [ 144.281983615968215, -36.762732298992802 ], [ 144.282269199033948, -36.762660764158795 ], [ 144.28256041857901, -36.762617565819987 ], [ 144.28285447, -36.76260312 ], [ 144.283148521420969, -36.762617565819987 ], [ 144.283439740966031, -36.762660764158795 ], [ 144.283725324031764, -36.762732298992802 ], [ 144.284002520297093, -36.762831481402465 ], [ 144.284156980297098, -36.762898091402462 ], [ 144.284423120210477, -36.763023966206951 ], [ 144.284675640699049, -36.763175321163089 ], [ 144.284912109852485, -36.763350698639911 ], [ 144.285130250343542, -36.763548409656437 ], [ 144.285327961360082, -36.763766550147508 ], [ 144.285503338836889, -36.764003019300944 ], [ 144.285654693793049, -36.764255539789524 ], [ 144.285780568597517, -36.764521679702902 ], [ 144.285879751007201, -36.764798875968239 ], [ 144.285951285841207, -36.76508445903395 ], [ 144.285994484180009, -36.765375678579012 ], [ 144.28600892999998, -36.76566973 ], [ 144.285994484180009, -36.765963781420986 ], [ 144.285951285841207, -36.766255000966048 ], [ 144.285879751007201, -36.766540584031759 ], [ 144.285780568597517, -36.766817780297096 ], [ 144.285654693793049, -36.767083920210474 ], [ 144.285503338836889, -36.767336440699054 ], [ 144.285327961360082, -36.76757290985249 ], [ 144.285130250343542, -36.767791050343561 ], [ 144.284912109852485, -36.767988761360087 ], [ 144.284675640699049, -36.768164138836909 ], [ 144.284423120210477, -36.768315493793047 ], [ 144.284156980297098, -36.768441368597536 ], [ 144.283879784031768, -36.768540551007199 ], [ 144.283594200966036, -36.768612085841205 ], [ 144.283302981420974, -36.768655284180014 ], [ 144.28300893, -36.76866973 ], [ 144.282714878579014, -36.768655284180014 ], [ 144.282423659033952, -36.768612085841205 ], [ 144.28213807596822, -36.768540551007199 ], [ 144.28186087970289, -36.768441368597536 ], [ 144.281706419702886, -36.768374758597538 ], [ 144.281440279789507, -36.768248883793049 ], [ 144.281187759300934, -36.768097528836911 ], [ 144.280951290147499, -36.767922151360089 ], [ 144.280733149656442, -36.767724440343564 ], [ 144.251309191360093, -36.79293046014751 ], [ 144.251484568836901, -36.793166929300945 ], [ 144.25163592379306, -36.793419449789525 ], [ 144.251761798597528, -36.793685589702903 ], [ 144.251860981007212, -36.79396278596824 ], [ 144.251932515841219, -36.794248369033951 ], [ 144.25197571418002, -36.794539588579013 ], [ 144.25199016, -36.79483364 ], [ 144.25197571418002, -36.795127691420987 ], [ 144.251932515841219, -36.795418910966049 ], [ 144.251860981007212, -36.79570449403176 ], [ 144.251761798597528, -36.795981690297097 ], [ 144.25163592379306, -36.796247830210476 ], [ 144.251484568836901, -36.796500350699056 ], [ 144.251309191360093, -36.796736819852491 ], [ 144.251111480343553, -36.796954960343562 ], [ 144.250893339852496, -36.797152671360088 ], [ 144.250656870699061, -36.79732804883691 ], [ 144.250404350210488, -36.797479403793048 ], [ 144.250138210297109, -36.797605278597537 ], [ 144.249861014031779, -36.7977044610072 ], [ 144.249575430966047, -36.797775995841207 ], [ 144.249284211420985, -36.797819194180015 ], [ 144.24899016, -36.79783364 ], [ 144.24895657, -36.79783286 ], [ 144.24866251857901, -36.797818414180014 ], [ 144.248371299033948, -36.797775215841206 ], [ 144.248085715968216, -36.797703681007199 ], [ 144.247808519702886, -36.797604498597536 ], [ 144.247542379789508, -36.797478623793047 ], [ 144.247289859300935, -36.797327268836909 ], [ 144.247053390147499, -36.797151891360087 ], [ 144.246835249656442, -36.796954180343562 ], [ 144.246637538639902, -36.79673603985249 ], [ 144.246462161163095, -36.796499570699055 ], [ 144.246310806206935, -36.796247050210475 ], [ 144.246184931402468, -36.795980910297097 ], [ 144.246085748992783, -36.79570371403176 ], [ 144.246014214158777, -36.795418130966048 ], [ 144.245971015819975, -36.795126911420986 ], [ 144.24595657, -36.79483286 ], [ 144.245971015819975, -36.794538808579013 ], [ 144.246014214158777, -36.794247589033951 ], [ 144.246085748992783, -36.79396200596824 ], [ 144.246184931402468, -36.793684809702903 ], [ 144.246310806206935, -36.793418669789524 ], [ 144.246462161163095, -36.793166149300944 ], [ 144.246637538639902, -36.792929680147509 ] ] ] } }
]
}
