{
"type": "FeatureCollection",
"name": "commute_hulls_regional_train__ballarat",
"crs": { "type": "name", "properties": { "name": "urn:ogc:def:crs:OGC:1.3:CRS84" } },
"features": [
{ "type": "Feature", "properties": { "MODE": "REGIONAL TRAIN", "transit_time_minutes_nearest_tier": 60.0, "centre": "ballarat", "centre_name": "Ballarat" }, "geometry": { "type": "Polygon", "coordinates": [ [ [ 143.779692048639902, -37.300834970147513 ], [ 143.779889759656442, -37.300616829656441 ], [ 143.780107900147499, -37.300419118639915 ], [ 143.780344369300934, -37.300243741163094 ], [ 143.780596889789507, -37.300092386206956 ], [ 143.780863029702886, -37.299966511402467 ], [ 143.781140225968215, -37.299867328992804 ], [ 143.781425809033948, -37.299795794158797 ], [ 143.78171702857901, -37.299752595819989 ], [ 143.78201108, -37.29973815 ], [ 143.782305131420969, -37.299752595819989 ], [ 143.782596350966031, -37.299795794158797 ], [ 143.782881934031764, -37.299867328992804 ], [ 143.783159130297093, -37.299966511402467 ], [ 143.783425270210472, -37.300092386206956 ], [ 143.783677790699045, -37.300243741163094 ], [ 143.78391425985248, -37.300419118639915 ], [ 143.784132400343537, -37.300616829656441 ], [ 144.226596080297099, -37.60152787140246 ], [ 144.572801040966056, -37.700416724158792 ], [ 144.573086624031788, -37.700488258992799 ], [ 144.60497867403177, -37.709674718992801 ], [ 144.6052558702971, -37.709773901402464 ], [ 144.605522010210478, -37.709899776206953 ], [ 144.605774530699051, -37.710051131163091 ], [ 144.606010999852487, -37.710226508639913 ], [ 144.606229140343544, -37.710424219656439 ], [ 144.606426851360084, -37.71064236014751 ], [ 144.606602228836891, -37.710878829300945 ], [ 144.606753583793051, -37.711131349789525 ], [ 144.606879458597518, -37.711397489702904 ], [ 144.606978641007203, -37.711674685968241 ], [ 144.607050175841209, -37.711960269033952 ], [ 144.60709337418001, -37.712251488579014 ], [ 144.607107819999982, -37.71254554 ], [ 144.60709337418001, -37.712839591420988 ], [ 144.607050175841209, -37.713130810966049 ], [ 144.606978641007203, -37.713416394031761 ], [ 144.606879458597518, -37.713693590297098 ], [ 144.606753583793051, -37.713959730210476 ], [ 144.606602228836891, -37.714212250699056 ], [ 144.606426851360084, -37.714448719852491 ], [ 144.606229140343544, -37.714666860343563 ], [ 144.606010999852487, -37.714864571360089 ], [ 144.605774530699051, -37.71503994883691 ], [ 144.605522010210478, -37.715191303793048 ], [ 144.6052558702971, -37.715317178597537 ], [ 144.60497867403177, -37.7154163610072 ], [ 144.604693090966038, -37.715487895841207 ], [ 144.604401871420976, -37.715531094180015 ], [ 144.60410782, -37.71554554 ], [ 144.603813768579016, -37.715531094180015 ], [ 144.603553628579022, -37.715507784180012 ], [ 144.60326240903396, -37.715464585841204 ], [ 144.436916989033961, -37.690770445841203 ], [ 144.436631405968228, -37.690698911007196 ], [ 144.435914305968225, -37.690449031007198 ], [ 144.435637109702895, -37.690349848597535 ], [ 144.435370969789517, -37.690223973793046 ], [ 144.224577175968221, -37.607170331007197 ], [ 143.85945743, -37.56179148 ], [ 143.859163378579012, -37.561777034180011 ], [ 143.85887215903395, -37.561733835841203 ], [ 143.858586575968218, -37.561662301007196 ], [ 143.858309379702888, -37.561563118597533 ], [ 143.858043239789509, -37.561437243793044 ], [ 143.81858475978953, -37.54237804379305 ], [ 143.818332239300958, -37.542226688836912 ], [ 143.818095770147522, -37.54205131136009 ], [ 143.817877629656465, -37.541853600343565 ], [ 143.817679918639925, -37.541635459852493 ], [ 143.817504541163117, -37.541398990699058 ], [ 143.817353186206958, -37.541146470210478 ], [ 143.81722731140249, -37.540880330297099 ], [ 143.817128128992806, -37.540603134031763 ], [ 143.817056594158799, -37.540317550966051 ], [ 143.779068724158776, -37.303323420966052 ], [ 143.779025525819975, -37.30303220142099 ], [ 143.77901108, -37.30273815 ], [ 143.779025525819975, -37.302444098579016 ], [ 143.779068724158776, -37.302152879033954 ], [ 143.779140258992783, -37.301867295968243 ], [ 143.779239441402467, -37.301590099702906 ], [ 143.779365316206935, -37.301323959789528 ], [ 143.779516671163094, -37.301071439300948 ], [ 143.779692048639902, -37.300834970147513 ] ] ] } },
{ "type": "Feature", "properties": { "MODE": "REGIONAL TRAIN", "transit_time_minutes_nearest_tier": 45.0, "centre": "ballarat", "centre_name": "Ballarat" }, "geometry": { "type": "Polygon", "coordinates": [ [ [ 143.885629241163116, -37.422938679300948 ], [ 143.885804618639924, -37.422702210147513 ], [ 143.886002329656463, -37.422484069656441 ], [ 143.886220470147521, -37.422286358639916 ], [ 143.886456939300956, -37.422110981163094 ], [ 143.886709459789529, -37.421959626206956 ], [ 143.886975599702907, -37.421833751402467 ], [ 143.887252795968237, -37.421734568992804 ], [ 143.88753837903397, -37.421663034158797 ], [ 143.887829598579032, -37.421619835819989 ], [ 143.888123650000011, -37.42160539 ], [ 143.888417701420991, -37.421619835819989 ], [ 143.888708920966053, -37.421663034158797 ], [ 143.888994504031785, -37.421734568992804 ], [ 143.889271700297115, -37.421833751402467 ], [ 143.889537840210494, -37.421959626206956 ], [ 143.889790360699067, -37.422110981163094 ], [ 143.890026829852502, -37.422286358639916 ], [ 143.890244970343559, -37.422484069656441 ], [ 143.890442681360099, -37.422702210147513 ], [ 143.890618058836907, -37.422938679300948 ], [ 143.890769413793066, -37.423191199789528 ], [ 143.890895288597534, -37.423457339702907 ], [ 143.890994471007218, -37.423734535968244 ], [ 143.891066005841225, -37.424020119033955 ], [ 143.891109204180026, -37.424311338579017 ], [ 143.89112365, -37.42460539 ], [ 143.891109204180026, -37.42489944142099 ], [ 143.891066005841225, -37.425190660966052 ], [ 143.890994471007218, -37.425476244031763 ], [ 143.890895288597534, -37.4257534402971 ], [ 143.890769413793066, -37.426019580210479 ], [ 143.890618058836907, -37.426272100699059 ], [ 143.862473285841219, -37.558073019033948 ], [ 143.86251648418002, -37.55836423857901 ], [ 143.86253093, -37.55865829 ], [ 143.86251648418002, -37.558952341420984 ], [ 144.222505674158782, -37.603714239033948 ], [ 144.222577208992789, -37.603428655968237 ], [ 144.222676391402473, -37.6031514597029 ], [ 144.222802266206941, -37.602885319789522 ], [ 144.2229536211631, -37.602632799300942 ], [ 144.223128998639908, -37.602396330147506 ], [ 144.223326709656448, -37.602178189656435 ], [ 144.223544850147505, -37.601980478639909 ], [ 144.22378131930094, -37.601805101163087 ], [ 144.224033839789513, -37.601653746206949 ], [ 144.224299979702892, -37.60152787140246 ], [ 144.224577175968221, -37.601428688992797 ], [ 144.224862759033954, -37.601357154158791 ], [ 144.225153978579016, -37.601313955819982 ], [ 144.22544803, -37.60129951 ], [ 144.225742081420975, -37.601313955819982 ], [ 144.226033300966037, -37.601357154158791 ], [ 144.22631888403177, -37.601428688992797 ], [ 144.226596080297099, -37.60152787140246 ], [ 144.226862220210478, -37.601653746206949 ], [ 144.227114740699051, -37.601805101163087 ], [ 144.227351209852486, -37.601980478639909 ], [ 144.227569350343543, -37.602178189656435 ], [ 144.227767061360083, -37.602396330147506 ], [ 144.227942438836891, -37.602632799300942 ], [ 144.22809379379305, -37.602885319789522 ], [ 144.228219668597518, -37.6031514597029 ], [ 144.228318851007202, -37.603428655968237 ], [ 144.228390385841209, -37.603714239033948 ], [ 144.22843358418001, -37.60400545857901 ], [ 144.228448029999981, -37.60429951 ], [ 144.22843358418001, -37.604593561420984 ], [ 144.228390385841209, -37.604884780966046 ], [ 144.228318851007202, -37.605170364031757 ], [ 144.228219668597518, -37.605447560297094 ], [ 144.22809379379305, -37.605713700210472 ], [ 144.227942438836891, -37.605966220699052 ], [ 144.227767061360083, -37.606202689852488 ], [ 144.227569350343543, -37.606420830343559 ], [ 144.227351209852486, -37.606618541360085 ], [ 144.227114740699051, -37.606793918836907 ], [ 144.226862220210478, -37.606945273793045 ], [ 144.226596080297099, -37.607071148597534 ], [ 144.22631888403177, -37.607170331007197 ], [ 144.226033300966037, -37.607241865841203 ], [ 144.225742081420975, -37.607285064180012 ], [ 144.22544803, -37.60729951 ], [ 144.225153978579016, -37.607285064180012 ], [ 144.224862759033954, -37.607241865841203 ], [ 144.224577175968221, -37.607170331007197 ], [ 144.224299979702892, -37.607071148597534 ], [ 144.224033839789513, -37.606945273793045 ], [ 144.22378131930094, -37.606793918836907 ], [ 144.223544850147505, -37.606618541360085 ], [ 144.223326709656448, -37.606420830343559 ], [ 144.223128998639908, -37.606202689852488 ], [ 144.2229536211631, -37.605966220699052 ], [ 144.222802266206941, -37.605713700210472 ], [ 144.222676391402473, -37.605447560297094 ], [ 144.222577208992789, -37.605170364031757 ], [ 144.222505674158782, -37.604884780966046 ], [ 144.222462475819981, -37.604593561420984 ], [ 144.22244803000001, -37.60429951 ], [ 144.222462475819981, -37.60400545857901 ], [ 143.862473285841219, -37.559243560966046 ], [ 143.862401751007212, -37.559529144031757 ], [ 143.862302568597528, -37.559806340297094 ], [ 143.86217669379306, -37.560072480210472 ], [ 143.862103193793047, -37.560205670210472 ], [ 143.861951838836887, -37.560458190699052 ], [ 143.86177646136008, -37.560694659852487 ], [ 143.86157875034354, -37.560912800343559 ], [ 143.861360609852483, -37.561110511360084 ], [ 143.861124140699047, -37.561285888836906 ], [ 143.860871620210474, -37.561437243793044 ], [ 143.860605480297096, -37.561563118597533 ], [ 143.860328284031766, -37.561662301007196 ], [ 143.860042700966034, -37.561733835841203 ], [ 143.859751481420972, -37.561777034180011 ], [ 143.85945743, -37.56179148 ], [ 143.859163378579012, -37.561777034180011 ], [ 143.85887215903395, -37.561733835841203 ], [ 143.858586575968218, -37.561662301007196 ], [ 143.858309379702888, -37.561563118597533 ], [ 143.858043239789509, -37.561437243793044 ], [ 143.81858475978953, -37.54237804379305 ], [ 143.818332239300958, -37.542226688836912 ], [ 143.818095770147522, -37.54205131136009 ], [ 143.817877629656465, -37.541853600343565 ], [ 143.817679918639925, -37.541635459852493 ], [ 143.817504541163117, -37.541398990699058 ], [ 143.817353186206958, -37.541146470210478 ], [ 143.81722731140249, -37.540880330297099 ], [ 143.817128128992806, -37.540603134031763 ], [ 143.817056594158799, -37.540317550966051 ], [ 143.817013395819998, -37.540026331420989 ], [ 143.816998950000027, -37.53973228 ], [ 143.817013395819998, -37.539438228579016 ], [ 143.817056594158799, -37.539147009033954 ], [ 143.817128128992806, -37.538861425968243 ], [ 143.81722731140249, -37.538584229702906 ], [ 143.817353186206958, -37.538318089789527 ], [ 143.885477886206957, -37.423191199789528 ], [ 143.885629241163116, -37.422938679300948 ] ] ] } },
{ "type": "Feature", "properties": { "MODE": "REGIONAL TRAIN", "transit_time_minutes_nearest_tier": 30.0, "centre": "ballarat", "centre_name": "Ballarat" }, "geometry": { "type": "Polygon", "coordinates": [ [ [ 143.885629241163116, -37.422938679300948 ], [ 143.885804618639924, -37.422702210147513 ], [ 143.886002329656463, -37.422484069656441 ], [ 143.886220470147521, -37.422286358639916 ], [ 143.886456939300956, -37.422110981163094 ], [ 143.886709459789529, -37.421959626206956 ], [ 143.886975599702907, -37.421833751402467 ], [ 143.887252795968237, -37.421734568992804 ], [ 143.88753837903397, -37.421663034158797 ], [ 143.887829598579032, -37.421619835819989 ], [ 143.888123650000011, -37.42160539 ], [ 143.888417701420991, -37.421619835819989 ], [ 143.888708920966053, -37.421663034158797 ], [ 143.888994504031785, -37.421734568992804 ], [ 143.889271700297115, -37.421833751402467 ], [ 143.889537840210494, -37.421959626206956 ], [ 143.889790360699067, -37.422110981163094 ], [ 143.890026829852502, -37.422286358639916 ], [ 143.890244970343559, -37.422484069656441 ], [ 143.890442681360099, -37.422702210147513 ], [ 143.890618058836907, -37.422938679300948 ], [ 143.890769413793066, -37.423191199789528 ], [ 143.890895288597534, -37.423457339702907 ], [ 143.890994471007218, -37.423734535968244 ], [ 143.891066005841225, -37.424020119033955 ], [ 143.891109204180026, -37.424311338579017 ], [ 143.89112365, -37.42460539 ], [ 143.891109204180026, -37.42489944142099 ], [ 143.891066005841225, -37.425190660966052 ], [ 143.890994471007218, -37.425476244031763 ], [ 143.890895288597534, -37.4257534402971 ], [ 143.890769413793066, -37.426019580210479 ], [ 143.890618058836907, -37.426272100699059 ], [ 143.862473285841219, -37.558073019033948 ], [ 143.86251648418002, -37.55836423857901 ], [ 143.86253093, -37.55865829 ], [ 143.86251648418002, -37.558952341420984 ], [ 144.222505674158782, -37.603714239033948 ], [ 144.222577208992789, -37.603428655968237 ], [ 144.222676391402473, -37.6031514597029 ], [ 144.222802266206941, -37.602885319789522 ], [ 144.2229536211631, -37.602632799300942 ], [ 144.223128998639908, -37.602396330147506 ], [ 144.223326709656448, -37.602178189656435 ], [ 144.223544850147505, -37.601980478639909 ], [ 144.22378131930094, -37.601805101163087 ], [ 144.224033839789513, -37.601653746206949 ], [ 144.224299979702892, -37.60152787140246 ], [ 144.224577175968221, -37.601428688992797 ], [ 144.224862759033954, -37.601357154158791 ], [ 144.225153978579016, -37.601313955819982 ], [ 144.22544803, -37.60129951 ], [ 144.225742081420975, -37.601313955819982 ], [ 144.226033300966037, -37.601357154158791 ], [ 144.22631888403177, -37.601428688992797 ], [ 144.226596080297099, -37.60152787140246 ], [ 144.226862220210478, -37.601653746206949 ], [ 144.227114740699051, -37.601805101163087 ], [ 144.227351209852486, -37.601980478639909 ], [ 144.227569350343543, -37.602178189656435 ], [ 144.227767061360083, -37.602396330147506 ], [ 144.227942438836891, -37.602632799300942 ], [ 144.22809379379305, -37.602885319789522 ], [ 144.228219668597518, -37.6031514597029 ], [ 144.228318851007202, -37.603428655968237 ], [ 144.228390385841209, -37.603714239033948 ], [ 144.22843358418001, -37.60400545857901 ], [ 144.228448029999981, -37.60429951 ], [ 144.22843358418001, -37.604593561420984 ], [ 144.228390385841209, -37.604884780966046 ], [ 144.228318851007202, -37.605170364031757 ], [ 144.228219668597518, -37.605447560297094 ], [ 144.22809379379305, -37.605713700210472 ], [ 144.227942438836891, -37.605966220699052 ], [ 144.227767061360083, -37.606202689852488 ], [ 144.227569350343543, -37.606420830343559 ], [ 144.227351209852486, -37.606618541360085 ], [ 144.227114740699051, -37.606793918836907 ], [ 144.226862220210478, -37.606945273793045 ], [ 144.226596080297099, -37.607071148597534 ], [ 144.22631888403177, -37.607170331007197 ], [ 144.226033300966037, -37.607241865841203 ], [ 144.225742081420975, -37.607285064180012 ], [ 144.22544803, -37.60729951 ], [ 144.225153978579016, -37.607285064180012 ], [ 144.224862759033954, -37.607241865841203 ], [ 144.224577175968221, -37.607170331007197 ], [ 144.224299979702892, -37.607071148597534 ], [ 144.224033839789513, -37.606945273793045 ], [ 144.22378131930094, -37.606793918836907 ], [ 144.223544850147505, -37.606618541360085 ], [ 144.223326709656448, -37.606420830343559 ], [ 144.223128998639908, -37.606202689852488 ], [ 144.2229536211631, -37.605966220699052 ], [ 144.222802266206941, -37.605713700210472 ], [ 144.222676391402473, -37.605447560297094 ], [ 144.222577208992789, -37.605170364031757 ], [ 144.222505674158782, -37.604884780966046 ], [ 144.222462475819981, -37.604593561420984 ], [ 144.22244803000001, -37.60429951 ], [ 144.222462475819981, -37.60400545857901 ], [ 143.862473285841219, -37.559243560966046 ], [ 143.862401751007212, -37.559529144031757 ], [ 143.862302568597528, -37.559806340297094 ], [ 143.86217669379306, -37.560072480210472 ], [ 143.862103193793047, -37.560205670210472 ], [ 143.861951838836887, -37.560458190699052 ], [ 143.86177646136008, -37.560694659852487 ], [ 143.86157875034354, -37.560912800343559 ], [ 143.861360609852483, -37.561110511360084 ], [ 143.861124140699047, -37.561285888836906 ], [ 143.860871620210474, -37.561437243793044 ], [ 143.860605480297096, -37.561563118597533 ], [ 143.860328284031766, -37.561662301007196 ], [ 143.860042700966034, -37.561733835841203 ], [ 143.859751481420972, -37.561777034180011 ], [ 143.85945743, -37.56179148 ], [ 143.859163378579012, -37.561777034180011 ], [ 143.85887215903395, -37.561733835841203 ], [ 143.858586575968218, -37.561662301007196 ], [ 143.858309379702888, -37.561563118597533 ], [ 143.858043239789509, -37.561437243793044 ], [ 143.81858475978953, -37.54237804379305 ], [ 143.818332239300958, -37.542226688836912 ], [ 143.818095770147522, -37.54205131136009 ], [ 143.817877629656465, -37.541853600343565 ], [ 143.817679918639925, -37.541635459852493 ], [ 143.817504541163117, -37.541398990699058 ], [ 143.817353186206958, -37.541146470210478 ], [ 143.81722731140249, -37.540880330297099 ], [ 143.817128128992806, -37.540603134031763 ], [ 143.817056594158799, -37.540317550966051 ], [ 143.817013395819998, -37.540026331420989 ], [ 143.816998950000027, -37.53973228 ], [ 143.817013395819998, -37.539438228579016 ], [ 143.817056594158799, -37.539147009033954 ], [ 143.817128128992806, -37.538861425968243 ], [ 143.81722731140249, -37.538584229702906 ], [ 143.817353186206958, -37.538318089789527 ], [ 143.885477886206957, -37.423191199789528 ], [ 143.885629241163116, -37.422938679300948 ] ] ] } },
{ "type": "Feature", "properties": { "MODE": "REGIONAL TRAIN", "transit_time_minutes_nearest_tier": 15.0, "centre": "ballarat", "centre_name": "Ballarat" }, "geometry": { "type": "Polygon", "coordinates": [ [ [ 143.817679918639925, -37.537829100147512 ], [ 143.817877629656465, -37.53761095965644 ], [ 143.818095770147522, -37.537413248639915 ], [ 143.818332239300958, -37.537237871163093 ], [ 143.81858475978953, -37.537086516206955 ], [ 143.818850899702909, -37.536960641402466 ], [ 143.819128095968239, -37.536861458992803 ], [ 143.819413679033971, -37.536789924158796 ], [ 143.819704898579033, -37.536746725819988 ], [ 143.819998950000013, -37.53673228 ], [ 143.820293001420993, -37.536746725819988 ], [ 143.820584220966055, -37.536789924158796 ], [ 143.821796040966035, -37.537029814158792 ], [ 143.822081624031767, -37.537101348992799 ], [ 143.822358820297097, -37.537200531402462 ], [ 143.822624960210476, -37.537326406206951 ], [ 143.822877480699049, -37.537477761163089 ], [ 143.823113949852484, -37.537653138639911 ], [ 143.823332090343541, -37.537850849656436 ], [ 143.823529801360081, -37.538068990147508 ], [ 143.823705178836889, -37.538305459300943 ], [ 143.823856533793048, -37.538557979789523 ], [ 143.823982408597516, -37.538824119702902 ], [ 143.8240815910072, -37.539101315968239 ], [ 143.824153125841207, -37.53938689903395 ], [ 143.824196324180008, -37.539678118579012 ], [ 143.824210769999979, -37.53997217 ], [ 143.824196324180008, -37.540266221420985 ], [ 143.824153125841207, -37.540557440966047 ], [ 143.8240815910072, -37.540843024031759 ], [ 143.823982408597516, -37.541120220297095 ], [ 143.856811666206937, -37.557377289789521 ], [ 143.856885166206951, -37.557244099789521 ], [ 143.85703652116311, -37.556991579300941 ], [ 143.857211898639918, -37.556755110147506 ], [ 143.857409609656457, -37.556536969656435 ], [ 143.857627750147515, -37.556339258639909 ], [ 143.85786421930095, -37.556163881163087 ], [ 143.858116739789523, -37.556012526206949 ], [ 143.858382879702901, -37.55588665140246 ], [ 143.858660075968231, -37.555787468992797 ], [ 143.858945659033964, -37.555715934158791 ], [ 143.859236878579026, -37.555672735819982 ], [ 143.85953093, -37.55565829 ], [ 143.859824981420985, -37.555672735819982 ], [ 143.860116200966047, -37.555715934158791 ], [ 143.860401784031779, -37.555787468992797 ], [ 143.860678980297109, -37.55588665140246 ], [ 143.860945120210488, -37.556012526206949 ], [ 143.861197640699061, -37.556163881163087 ], [ 143.861434109852496, -37.556339258639909 ], [ 143.861652250343553, -37.556536969656435 ], [ 143.861849961360093, -37.556755110147506 ], [ 143.862025338836901, -37.556991579300941 ], [ 143.86217669379306, -37.557244099789521 ], [ 143.862302568597528, -37.5575102397029 ], [ 143.862401751007212, -37.557787435968237 ], [ 143.862473285841219, -37.558073019033948 ], [ 143.86251648418002, -37.55836423857901 ], [ 143.86253093, -37.55865829 ], [ 143.86251648418002, -37.558952341420984 ], [ 143.862473285841219, -37.559243560966046 ], [ 143.862401751007212, -37.559529144031757 ], [ 143.862302568597528, -37.559806340297094 ], [ 143.86217669379306, -37.560072480210472 ], [ 143.862103193793047, -37.560205670210472 ], [ 143.861951838836887, -37.560458190699052 ], [ 143.86177646136008, -37.560694659852487 ], [ 143.86157875034354, -37.560912800343559 ], [ 143.861360609852483, -37.561110511360084 ], [ 143.861124140699047, -37.561285888836906 ], [ 143.860871620210474, -37.561437243793044 ], [ 143.860605480297096, -37.561563118597533 ], [ 143.860328284031766, -37.561662301007196 ], [ 143.860042700966034, -37.561733835841203 ], [ 143.859751481420972, -37.561777034180011 ], [ 143.85945743, -37.56179148 ], [ 143.859163378579012, -37.561777034180011 ], [ 143.85887215903395, -37.561733835841203 ], [ 143.858586575968218, -37.561662301007196 ], [ 143.858309379702888, -37.561563118597533 ], [ 143.858043239789509, -37.561437243793044 ], [ 143.857790719300937, -37.561285888836906 ], [ 143.857554250147501, -37.561110511360084 ], [ 143.857336109656444, -37.560912800343559 ], [ 143.857138398639904, -37.560694659852487 ], [ 143.856963021163097, -37.560458190699052 ], [ 143.856811666206937, -37.560205670210472 ], [ 143.856685791402469, -37.559939530297093 ], [ 143.856586608992785, -37.559662334031756 ], [ 143.856515074158779, -37.559376750966045 ], [ 143.856471875819977, -37.559085531420983 ], [ 143.85645743, -37.55879148 ], [ 143.856471875819977, -37.55849742857901 ], [ 143.856515074158779, -37.558206209033948 ], [ 143.856586608992785, -37.557920625968237 ], [ 143.856685791402469, -37.5576434297029 ], [ 143.823856533793048, -37.541386360210474 ], [ 143.823705178836889, -37.541638880699054 ], [ 143.823529801360081, -37.541875349852489 ], [ 143.823332090343541, -37.542093490343561 ], [ 143.823113949852484, -37.542291201360086 ], [ 143.822877480699049, -37.542466578836908 ], [ 143.822624960210476, -37.542617933793046 ], [ 143.822358820297097, -37.542743808597535 ], [ 143.822081624031767, -37.542842991007198 ], [ 143.821796040966035, -37.542914525841205 ], [ 143.821504821420973, -37.542957724180013 ], [ 143.82121077, -37.54297217 ], [ 143.820916718579014, -37.542957724180013 ], [ 143.820625499033952, -37.542914525841205 ], [ 143.819413679033971, -37.542674635841209 ], [ 143.819128095968239, -37.542603101007202 ], [ 143.818850899702909, -37.542503918597539 ], [ 143.81858475978953, -37.54237804379305 ], [ 143.818332239300958, -37.542226688836912 ], [ 143.818095770147522, -37.54205131136009 ], [ 143.817877629656465, -37.541853600343565 ], [ 143.817679918639925, -37.541635459852493 ], [ 143.817504541163117, -37.541398990699058 ], [ 143.817353186206958, -37.541146470210478 ], [ 143.81722731140249, -37.540880330297099 ], [ 143.817128128992806, -37.540603134031763 ], [ 143.817056594158799, -37.540317550966051 ], [ 143.817013395819998, -37.540026331420989 ], [ 143.816998950000027, -37.53973228 ], [ 143.817013395819998, -37.539438228579016 ], [ 143.817056594158799, -37.539147009033954 ], [ 143.817128128992806, -37.538861425968243 ], [ 143.81722731140249, -37.538584229702906 ], [ 143.817353186206958, -37.538318089789527 ], [ 143.817504541163117, -37.538065569300947 ], [ 143.817679918639925, -37.537829100147512 ] ] ] } }
]
}
