{
"type": "FeatureCollection",
"name": "commute_hulls_regional_train__geelong",
"crs": { "type": "name", "properties": { "name": "urn:ogc:def:crs:OGC:1.3:CRS84" } },
"features": [
{ "type": "Feature", "properties": { "MODE": "REGIONAL TRAIN", "transit_time_minutes_nearest_tier": 60.0, "centre": "geelong", "centre_name": "Geelong" }, "geometry": { "type": "Polygon", "coordinates": [ [ [ 143.781130801163101, -38.327141099300945 ], [ 143.781306178639909, -38.32690463014751 ], [ 143.781503889656449, -38.326686489656439 ], [ 143.781722030147506, -38.326488778639913 ], [ 143.781958499300941, -38.326313401163091 ], [ 143.782211019789514, -38.326162046206953 ], [ 143.782477159702893, -38.326036171402464 ], [ 143.982719699789527, -38.237489296206952 ], [ 143.982985839702906, -38.237363421402463 ], [ 143.983263035968235, -38.2372642389928 ], [ 143.983548619033968, -38.237192704158794 ], [ 144.412501110147502, -38.020108608639909 ], [ 144.647985716206932, -37.727847079789527 ], [ 144.648137071163092, -37.727594559300947 ], [ 144.648312448639899, -37.727358090147511 ], [ 144.648510159656439, -37.72713994965644 ], [ 144.648728300147496, -37.726942238639914 ], [ 144.648809950147523, -37.726871778639911 ], [ 144.649046419300959, -37.726696401163089 ], [ 144.649298939789531, -37.726545046206951 ], [ 144.64956507970291, -37.726419171402462 ], [ 144.64984227596824, -37.726319988992799 ], [ 144.650127859033972, -37.726248454158792 ], [ 144.650419078579034, -37.726205255819984 ], [ 144.650713130000014, -37.72619081 ], [ 144.651007181420994, -37.726205255819984 ], [ 144.651298400966056, -37.726248454158792 ], [ 144.651583984031788, -37.726319988992799 ], [ 144.833334664031781, -37.785468638992803 ], [ 144.833611860297111, -37.785567821402466 ], [ 144.83387800021049, -37.785693696206955 ], [ 144.834130520699063, -37.785845051163093 ], [ 144.834366989852498, -37.786020428639915 ], [ 144.834585130343555, -37.786218139656441 ], [ 144.834782841360095, -37.786436280147512 ], [ 144.834958218836903, -37.786672749300948 ], [ 144.835109573793062, -37.786925269789528 ], [ 144.83523544859753, -37.787191409702906 ], [ 144.835334631007214, -37.787468605968243 ], [ 144.835406165841221, -37.787754189033954 ], [ 144.835449364180022, -37.788045408579016 ], [ 144.83546381, -37.78833946 ], [ 144.835449364180022, -37.78863351142099 ], [ 144.835406165841221, -37.788924730966052 ], [ 144.835334631007214, -37.789210314031763 ], [ 144.83523544859753, -37.7894875102971 ], [ 144.835109573793062, -37.789753650210478 ], [ 144.834958218836903, -37.790006170699058 ], [ 144.834782841360095, -37.790242639852494 ], [ 144.834585130343555, -37.790460780343565 ], [ 144.834366989852498, -37.790658491360091 ], [ 144.356959889852504, -38.200868031360088 ], [ 144.356723420699069, -38.20104340883691 ], [ 144.356470900210496, -38.201194763793048 ], [ 144.356204760297118, -38.201320638597537 ], [ 144.307585250297109, -38.218730508597538 ], [ 144.307308054031779, -38.218829691007201 ], [ 144.307022470966047, -38.218901225841208 ], [ 143.784210480966038, -38.331750165841207 ], [ 143.783919261420976, -38.331793364180015 ], [ 143.78362521, -38.33180781 ], [ 143.783331158579017, -38.331793364180015 ], [ 143.783039939033955, -38.331750165841207 ], [ 143.782754355968223, -38.3316786310072 ], [ 143.782477159702893, -38.331579448597537 ], [ 143.782211019789514, -38.331453573793048 ], [ 143.781958499300941, -38.33130221883691 ], [ 143.781722030147506, -38.331126841360089 ], [ 143.781503889656449, -38.330929130343563 ], [ 143.781306178639909, -38.330710989852491 ], [ 143.781130801163101, -38.330474520699056 ], [ 143.780979446206942, -38.330222000210476 ], [ 143.780853571402474, -38.329955860297098 ], [ 143.78075438899279, -38.329678664031761 ], [ 143.780682854158783, -38.329393080966049 ], [ 143.780639655819982, -38.329101861420988 ], [ 143.780625210000011, -38.32880781 ], [ 143.780639655819982, -38.328513758579014 ], [ 143.780682854158783, -38.328222539033952 ], [ 143.78075438899279, -38.327936955968241 ], [ 143.780853571402474, -38.327659759702904 ], [ 143.780979446206942, -38.327393619789525 ], [ 143.781130801163101, -38.327141099300945 ] ] ] } },
{ "type": "Feature", "properties": { "MODE": "REGIONAL TRAIN", "transit_time_minutes_nearest_tier": 45.0, "centre": "geelong", "centre_name": "Geelong" }, "geometry": { "type": "Polygon", "coordinates": [ [ [ 143.981639481163114, -38.238468349300945 ], [ 143.981814858639922, -38.238231880147509 ], [ 143.982012569656462, -38.238013739656438 ], [ 143.982230710147519, -38.237816028639912 ], [ 143.982467179300954, -38.23764065116309 ], [ 143.982719699789527, -38.237489296206952 ], [ 143.982985839702906, -38.237363421402463 ], [ 143.983263035968235, -38.2372642389928 ], [ 143.983548619033968, -38.237192704158794 ], [ 143.98383983857903, -38.237149505819986 ], [ 143.98413389000001, -38.23713506 ], [ 143.984427941420989, -38.237149505819986 ], [ 144.377449388639917, -38.07092808014751 ], [ 144.411758526206938, -38.021013449789521 ], [ 144.411909881163098, -38.020760929300941 ], [ 144.412085258639905, -38.020524460147506 ], [ 144.412282969656445, -38.020306319656434 ], [ 144.412501110147502, -38.020108608639909 ], [ 144.412737579300938, -38.019933231163087 ], [ 144.606453840147509, -37.870208388639909 ], [ 144.606690309300944, -37.870033011163088 ], [ 144.606942829789517, -37.86988165620695 ], [ 144.607208969702896, -37.869755781402461 ], [ 144.693339519702903, -37.829383041402465 ], [ 144.693616715968233, -37.829283858992802 ], [ 144.693902299033965, -37.829212324158796 ], [ 144.694193518579027, -37.829169125819988 ], [ 144.69448757, -37.82915468 ], [ 144.694781621420987, -37.829169125819988 ], [ 144.695008431420973, -37.829182575819985 ], [ 144.695299650966035, -37.829225774158793 ], [ 144.695585234031768, -37.8292973089928 ], [ 144.695862430297097, -37.829396491402463 ], [ 144.696128570210476, -37.829522366206952 ], [ 144.696381090699049, -37.82967372116309 ], [ 144.696617559852484, -37.829849098639912 ], [ 144.696835700343541, -37.830046809656437 ], [ 144.697033411360081, -37.830264950147509 ], [ 144.697208788836889, -37.830501419300944 ], [ 144.697360143793048, -37.830753939789524 ], [ 144.697486018597516, -37.831020079702903 ], [ 144.6975852010072, -37.83129727596824 ], [ 144.697656735841207, -37.831582859033951 ], [ 144.697699934180008, -37.831874078579013 ], [ 144.697714379999979, -37.83216813 ], [ 144.697699934180008, -37.832462181420986 ], [ 144.697656735841207, -37.832753400966048 ], [ 144.6975852010072, -37.833038984031759 ], [ 144.697486018597516, -37.833316180297096 ], [ 144.697360143793048, -37.833582320210475 ], [ 144.697208788836889, -37.833834840699055 ], [ 144.697033411360081, -37.83407130985249 ], [ 144.696835700343541, -37.834289450343562 ], [ 144.696617559852484, -37.834487161360087 ], [ 144.696381090699049, -37.834662538836909 ], [ 144.696128570210476, -37.834813893793047 ], [ 144.695862430297097, -37.834939768597536 ], [ 144.500606190343547, -37.965050410343565 ], [ 144.357927531007221, -38.19941985403176 ], [ 144.357828348597536, -38.199697050297097 ], [ 144.357702473793069, -38.199963190210475 ], [ 144.357551118836909, -38.200215710699055 ], [ 144.357375741360102, -38.200452179852491 ], [ 144.357178030343562, -38.200670320343562 ], [ 144.356959889852504, -38.200868031360088 ], [ 144.356723420699069, -38.20104340883691 ], [ 144.356470900210496, -38.201194763793048 ], [ 144.356204760297118, -38.201320638597537 ], [ 144.307585250297109, -38.218730508597538 ], [ 144.307308054031779, -38.218829691007201 ], [ 144.307022470966047, -38.218901225841208 ], [ 144.306731251420985, -38.218944424180016 ], [ 143.984427941420989, -38.243120614180015 ], [ 143.98413389000001, -38.24313506 ], [ 143.98383983857903, -38.243120614180015 ], [ 143.983548619033968, -38.243077415841206 ], [ 143.983263035968235, -38.2430058810072 ], [ 143.982985839702906, -38.242906698597537 ], [ 143.982719699789527, -38.242780823793048 ], [ 143.982467179300954, -38.24262946883691 ], [ 143.982230710147519, -38.242454091360088 ], [ 143.982012569656462, -38.242256380343562 ], [ 143.981814858639922, -38.242038239852491 ], [ 143.981639481163114, -38.241801770699055 ], [ 143.981488126206955, -38.241549250210475 ], [ 143.981362251402487, -38.241283110297097 ], [ 143.981263068992803, -38.24100591403176 ], [ 143.981191534158796, -38.240720330966049 ], [ 143.981148335819995, -38.240429111420987 ], [ 143.981133890000024, -38.24013506 ], [ 143.981148335819995, -38.239841008579013 ], [ 143.981191534158796, -38.239549789033951 ], [ 143.981263068992803, -38.23926420596824 ], [ 143.981362251402487, -38.238987009702903 ], [ 143.981488126206955, -38.238720869789525 ], [ 143.981639481163114, -38.238468349300945 ] ] ] } },
{ "type": "Feature", "properties": { "MODE": "REGIONAL TRAIN", "transit_time_minutes_nearest_tier": 30.0, "centre": "geelong", "centre_name": "Geelong" }, "geometry": { "type": "Polygon", "coordinates": [ [ [ 143.981639481163114, -38.238468349300945 ], [ 143.981814858639922, -38.238231880147509 ], [ 143.982012569656462, -38.238013739656438 ], [ 143.982230710147519, -38.237816028639912 ], [ 143.982467179300954, -38.23764065116309 ], [ 143.982719699789527, -38.237489296206952 ], [ 143.982985839702906, -38.237363421402463 ], [ 143.983263035968235, -38.2372642389928 ], [ 143.983548619033968, -38.237192704158794 ], [ 143.98383983857903, -38.237149505819986 ], [ 143.98413389000001, -38.23713506 ], [ 143.984427941420989, -38.237149505819986 ], [ 144.377449388639917, -38.07092808014751 ], [ 144.411758526206938, -38.021013449789521 ], [ 144.411909881163098, -38.020760929300941 ], [ 144.412085258639905, -38.020524460147506 ], [ 144.412282969656445, -38.020306319656434 ], [ 144.412501110147502, -38.020108608639909 ], [ 144.412737579300938, -38.019933231163087 ], [ 144.606828730147498, -37.87056743863991 ], [ 144.607065199300934, -37.870392061163088 ], [ 144.607317719789506, -37.87024070620695 ], [ 144.607583859702885, -37.870114831402461 ], [ 144.607861055968215, -37.870015648992798 ], [ 144.608146639033947, -37.869944114158791 ], [ 144.608437858579009, -37.869900915819983 ], [ 144.608731909999989, -37.86988647 ], [ 144.609025961420969, -37.869900915819983 ], [ 144.60931718096603, -37.869944114158791 ], [ 144.609602764031763, -37.870015648992798 ], [ 144.609879960297093, -37.870114831402461 ], [ 144.610146100210471, -37.87024070620695 ], [ 144.610398620699044, -37.870392061163088 ], [ 144.610635089852479, -37.87056743863991 ], [ 144.610853230343537, -37.870765149656435 ], [ 144.611050941360077, -37.870983290147507 ], [ 144.611226318836884, -37.871219759300942 ], [ 144.611377673793044, -37.871472279789522 ], [ 144.611503548597511, -37.871738419702901 ], [ 144.611602731007196, -37.872015615968238 ], [ 144.611674265841202, -37.872301199033949 ], [ 144.611717464180003, -37.872592418579011 ], [ 144.611731909999975, -37.87288647 ], [ 144.611717464180003, -37.873180521420984 ], [ 144.611674265841202, -37.873471740966046 ], [ 144.611602731007196, -37.873757324031757 ], [ 144.611503548597511, -37.874034520297094 ], [ 144.611377673793044, -37.874300660210473 ], [ 144.611226318836884, -37.874553180699053 ], [ 144.611050941360077, -37.874789649852488 ], [ 144.357375741360102, -38.200452179852491 ], [ 144.357178030343562, -38.200670320343562 ], [ 144.356959889852504, -38.200868031360088 ], [ 144.356723420699069, -38.20104340883691 ], [ 144.356470900210496, -38.201194763793048 ], [ 144.356204760297118, -38.201320638597537 ], [ 144.307585250297109, -38.218730508597538 ], [ 144.307308054031779, -38.218829691007201 ], [ 144.307022470966047, -38.218901225841208 ], [ 144.306731251420985, -38.218944424180016 ], [ 143.984427941420989, -38.243120614180015 ], [ 143.98413389000001, -38.24313506 ], [ 143.98383983857903, -38.243120614180015 ], [ 143.983548619033968, -38.243077415841206 ], [ 143.983263035968235, -38.2430058810072 ], [ 143.982985839702906, -38.242906698597537 ], [ 143.982719699789527, -38.242780823793048 ], [ 143.982467179300954, -38.24262946883691 ], [ 143.982230710147519, -38.242454091360088 ], [ 143.982012569656462, -38.242256380343562 ], [ 143.981814858639922, -38.242038239852491 ], [ 143.981639481163114, -38.241801770699055 ], [ 143.981488126206955, -38.241549250210475 ], [ 143.981362251402487, -38.241283110297097 ], [ 143.981263068992803, -38.24100591403176 ], [ 143.981191534158796, -38.240720330966049 ], [ 143.981148335819995, -38.240429111420987 ], [ 143.981133890000024, -38.24013506 ], [ 143.981148335819995, -38.239841008579013 ], [ 143.981191534158796, -38.239549789033951 ], [ 143.981263068992803, -38.23926420596824 ], [ 143.981362251402487, -38.238987009702903 ], [ 143.981488126206955, -38.238720869789525 ], [ 143.981639481163114, -38.238468349300945 ] ] ] } },
{ "type": "Feature", "properties": { "MODE": "REGIONAL TRAIN", "transit_time_minutes_nearest_tier": 15.0, "centre": "geelong", "centre_name": "Geelong" }, "geometry": { "type": "Polygon", "coordinates": [ [ [ 144.411909881163098, -38.020760929300941 ], [ 144.412085258639905, -38.020524460147506 ], [ 144.412282969656445, -38.020306319656434 ], [ 144.412501110147502, -38.020108608639909 ], [ 144.412737579300938, -38.019933231163087 ], [ 144.412990099789511, -38.019781876206949 ], [ 144.413256239702889, -38.01965600140246 ], [ 144.413533435968219, -38.019556818992797 ], [ 144.413819019033951, -38.01948528415879 ], [ 144.414110238579013, -38.019442085819982 ], [ 144.41440429, -38.01942764 ], [ 144.414698341420973, -38.019442085819982 ], [ 144.414989560966035, -38.01948528415879 ], [ 144.415275144031767, -38.019556818992797 ], [ 144.415552340297097, -38.01965600140246 ], [ 144.415818480210476, -38.019781876206949 ], [ 144.416071000699048, -38.019933231163087 ], [ 144.416307469852484, -38.020108608639909 ], [ 144.416525610343541, -38.020306319656434 ], [ 144.416723321360081, -38.020524460147506 ], [ 144.416898698836889, -38.020760929300941 ], [ 144.417050053793048, -38.021013449789521 ], [ 144.417175928597516, -38.0212795897029 ], [ 144.4172751110072, -38.021556785968237 ], [ 144.417346645841207, -38.021842369033948 ], [ 144.417389844180008, -38.02213358857901 ], [ 144.417404289999979, -38.02242764 ], [ 144.417389844180008, -38.022721691420983 ], [ 144.417346645841207, -38.023012910966045 ], [ 144.4172751110072, -38.023298494031756 ], [ 144.417175928597516, -38.023575690297093 ], [ 144.417050053793048, -38.023841830210472 ], [ 144.416898698836889, -38.024094350699052 ], [ 144.416723321360081, -38.024330819852487 ], [ 144.416525610343541, -38.024548960343559 ], [ 144.38241418379306, -38.074245450210476 ], [ 144.361987049999982, -38.15865863 ], [ 144.361972604180011, -38.158952681420985 ], [ 144.361929405841209, -38.159243900966047 ], [ 144.35805671, -38.198549 ], [ 144.358042264180028, -38.198843051420987 ], [ 144.357999065841227, -38.199134270966049 ], [ 144.357927531007221, -38.19941985403176 ], [ 144.357828348597536, -38.199697050297097 ], [ 144.357702473793069, -38.199963190210475 ], [ 144.357551118836909, -38.200215710699055 ], [ 144.357375741360102, -38.200452179852491 ], [ 144.357178030343562, -38.200670320343562 ], [ 144.356959889852504, -38.200868031360088 ], [ 144.356723420699069, -38.20104340883691 ], [ 144.356470900210496, -38.201194763793048 ], [ 144.356204760297118, -38.201320638597537 ], [ 144.355927564031788, -38.2014198210072 ], [ 144.355641980966055, -38.201491355841206 ], [ 144.355350761420993, -38.201534554180014 ], [ 144.355056710000014, -38.201549 ], [ 144.354762658579034, -38.201534554180014 ], [ 144.354471439033972, -38.201491355841206 ], [ 144.35418585596824, -38.2014198210072 ], [ 144.35390865970291, -38.201320638597537 ], [ 144.353642519789531, -38.201194763793048 ], [ 144.353389999300958, -38.20104340883691 ], [ 144.353153530147523, -38.200868031360088 ], [ 144.352935389656466, -38.200670320343562 ], [ 144.352737678639926, -38.200452179852491 ], [ 144.352562301163118, -38.200215710699055 ], [ 144.352410946206959, -38.199963190210475 ], [ 144.352285071402491, -38.199697050297097 ], [ 144.352185888992807, -38.19941985403176 ], [ 144.3521143541588, -38.199134270966049 ], [ 144.352071155819999, -38.198843051420987 ], [ 144.352056710000028, -38.198549 ], [ 144.349271900000019, -38.12283523 ], [ 144.349286345819991, -38.122541178579013 ], [ 144.349329544158792, -38.122249959033951 ], [ 144.349401078992798, -38.12196437596824 ], [ 144.349440798992788, -38.121812095968238 ], [ 144.349539981402472, -38.121534899702901 ], [ 144.34966585620694, -38.121268759789523 ], [ 144.362675656206932, -38.096962949789521 ], [ 144.37712265620695, -38.071417069789526 ], [ 144.377274011163109, -38.071164549300946 ], [ 144.411909881163098, -38.020760929300941 ] ] ] } }
]
}
